{
  "type": "FeatureCollection",
  "features": [
    {
      "type": "Feature",
      "id": "za-mangaung-sgcode:F00300030002479700000",
      "geometry": {
        "type": "Polygon",
        "coordinates": [
          [
            [
              26.2133641925121,
              -29.1183713854164
            ],
            [
              26.2133000095873,
              -29.1186366776716
            ],
            [
              26.2132413352412,
              -29.1187324095895
            ],
            [
              26.2131953297351,
              -29.1187965576093
            ],
            [
              26.213100064506,
              -29.1188942435577
            ],
            [
              26.2129358532882,
              -29.1190058720074
            ],
            [
              26.2128349679739,
              -29.1190866513942
            ],
            [
              26.2127567180844,
              -29.1191681563389
            ],
            [
              26.2113077353716,
              -29.1188829464503
            ],
            [
              26.2114893124988,
              -29.1181920591446
            ],
            [
              26.2114997062307,
              -29.1181525211172
            ],
            [
              26.2115146848497,
              -29.1180955231997
            ],
            [
              26.2115239294771,
              -29.1180603548613
            ],
            [
              26.2115395554546,
              -29.1180009158535
            ],
            [
              26.2133641925121,
              -29.1183713854164
            ]
          ]
        ]
      },
      "properties": {
        "OBJECTID": 172769,
        "SG_CODE": "F00300030002479700000",
        "PARCEL_NR": "24797"
      }
    },
    {
      "type": "Feature",
      "id": "za-mangaung-sgcode:F00300030002479600000",
      "geometry": {
        "type": "Polygon",
        "coordinates": [
          [
            [
              26.2134234094392,
              -29.118107606702
            ],
            [
              26.2133641925121,
              -29.1183713854164
            ],
            [
              26.2115395554546,
              -29.1180009158535
            ],
            [
              26.2111095470844,
              -29.1179137643116
            ],
            [
              26.2111833417449,
              -29.1176546067413
            ],
            [
              26.2126243394957,
              -29.1179460175621
            ],
            [
              26.2134234094392,
              -29.118107606702
            ]
          ]
        ]
      },
      "properties": {
        "OBJECTID": 172845,
        "SG_CODE": "F00300030002479600000",
        "PARCEL_NR": "24796"
      }
    },
    {
      "type": "Feature",
      "id": "za-mangaung-sgcode:F00300030002479700001",
      "geometry": {
        "type": "Polygon",
        "coordinates": [
          [
            [
              26.2129313714294,
              -29.1194635279305
            ],
            [
              26.2129070453517,
              -29.1194586622419
            ],
            [
              26.2127981365932,
              -29.1194368803851
            ],
            [
              26.2126113605056,
              -29.1193995243327
            ],
            [
              26.2126803639794,
              -29.1192655371086
            ],
            [
              26.2127567180844,
              -29.1191681563389
            ],
            [
              26.2128349679739,
              -29.1190866513942
            ],
            [
              26.2129358532882,
              -29.1190058720074
            ],
            [
              26.213100064506,
              -29.1188942435577
            ],
            [
              26.2131953297351,
              -29.1187965576093
            ],
            [
              26.2132413352412,
              -29.1187324095895
            ],
            [
              26.2133000095873,
              -29.1186366776716
            ],
            [
              26.2133641925121,
              -29.1183713854164
            ],
            [
              26.2136404088945,
              -29.1184335948453
            ],
            [
              26.2135224005107,
              -29.1188755610733
            ],
            [
              26.213491468489,
              -29.1189434604426
            ],
            [
              26.2133350556091,
              -29.1190634676165
            ],
            [
              26.2130273794406,
              -29.1192995348363
            ],
            [
              26.2129313714294,
              -29.1194635279305
            ]
          ]
        ]
      },
      "properties": {
        "OBJECTID": 190396,
        "SG_CODE": "F00300030002479700001",
        "PARCEL_NR": "1/24797"
      }
    },
    {
      "type": "Feature",
      "id": "za-mangaung-sgcode:F00300030002479800000",
      "geometry": {
        "type": "Polygon",
        "coordinates": [
          [
            [
              26.2161284772337,
              -29.1186506076493
            ],
            [
              26.2160553811603,
              -29.1189234933228
            ],
            [
              26.2147462363169,
              -29.118657420642
            ],
            [
              26.2143335074934,
              -29.1185739143978
            ],
            [
              26.2136794516942,
              -29.1184415202759
            ],
            [
              26.2137584155072,
              -29.1181776172336
            ],
            [
              26.2161284772337,
              -29.1186506076493
            ]
          ]
        ]
      },
      "properties": {
        "OBJECTID": 172727,
        "SG_CODE": "F00300030002479800000",
        "PARCEL_NR": "24798"
      }
    },
    {
      "type": "Feature",
      "id": "za-mangaung-sgcode:F00300030002507200000",
      "geometry": {
        "type": "Polygon",
        "coordinates": [
          [
            [
              26.2149784637111,
              -29.1177696464242
            ],
            [
              26.2162894935031,
              -29.1180346424332
            ],
            [
              26.2161614891747,
              -29.1185206176769
            ],
            [
              26.214851448161,
              -29.1182556171269
            ],
            [
              26.2137484483685,
              -29.1180316175586
            ],
            [
              26.2138764242618,
              -29.1175456472649
            ],
            [
              26.2149784637111,
              -29.1177696464242
            ]
          ]
        ]
      },
      "properties": {
        "OBJECTID": 172870,
        "SG_CODE": "F00300030002507200000",
        "PARCEL_NR": "25072"
      }
    },
    {
      "type": "Feature",
      "id": "za-mangaung-sgcode:F00300030003710300000",
      "geometry": {
        "type": "Polygon",
        "coordinates": [
          [
            [
              26.2143335074934,
              -29.1185739143978
            ],
            [
              26.2142494338649,
              -29.1190820300242
            ],
            [
              26.2147470250796,
              -29.1191744382527
            ],
            [
              26.2145922430928,
              -29.1197974748533
            ],
            [
              26.2144540217475,
              -29.1197696873514
            ],
            [
              26.2134687897239,
              -29.1195713691262
            ],
            [
              26.2133522947194,
              -29.1195290052066
            ],
            [
              26.2131951294893,
              -29.119457622251
            ],
            [
              26.2131214908196,
              -29.1194157297534
            ],
            [
              26.2131011658245,
              -29.1193707326895
            ],
            [
              26.2131062196042,
              -29.1193275490855
            ],
            [
              26.2131234758069,
              -29.1193011264255
            ],
            [
              26.2133350556091,
              -29.1190634676165
            ],
            [
              26.213491468489,
              -29.1189434604426
            ],
            [
              26.2135224005107,
              -29.1188755610733
            ],
            [
              26.2135921728147,
              -29.1187222839487
            ],
            [
              26.2136794516942,
              -29.1184415202759
            ],
            [
              26.2143335074934,
              -29.1185739143978
            ]
          ]
        ]
      },
      "properties": {
        "OBJECTID": 176258,
        "SG_CODE": "F00300030003710300000",
        "PARCEL_NR": "37103"
      }
    },
    {
      "type": "Feature",
      "id": "za-mangaung-sgcode:F00300030002472200001",
      "geometry": {
        "type": "Polygon",
        "coordinates": [
          [
            [
              26.2136404088945,
              -29.1184335948453
            ],
            [
              26.2136794516942,
              -29.1184415202759
            ],
            [
              26.2135921728147,
              -29.1187222839487
            ],
            [
              26.2135224005107,
              -29.1188755610733
            ],
            [
              26.2136404088945,
              -29.1184335948453
            ]
          ]
        ]
      },
      "properties": {
        "OBJECTID": 203613,
        "SG_CODE": "F00300030002472200001",
        "PARCEL_NR": "1/24722"
      }
    },
    {
      "type": "Feature",
      "id": "za-mangaung-sgcode:F00300030002472200002",
      "geometry": {
        "type": "Polygon",
        "coordinates": [
          [
            [
              26.2160553811603,
              -29.1189234933228
            ],
            [
              26.2157684192772,
              -29.1200337791853
            ],
            [
              26.2150034685323,
              -29.1198803328107
            ],
            [
              26.2145922430928,
              -29.1197974748533
            ],
            [
              26.2147470250796,
              -29.1191744382527
            ],
            [
              26.2142494338649,
              -29.1190820300242
            ],
            [
              26.2143335074934,
              -29.1185739143978
            ],
            [
              26.2147462363169,
              -29.118657420642
            ],
            [
              26.2160553811603,
              -29.1189234933228
            ]
          ]
        ]
      },
      "properties": {
        "OBJECTID": 172652,
        "SG_CODE": "F00300030002472200002",
        "PARCEL_NR": "2/24722"
      }
    },
    {
      "type": "Feature",
      "id": "za-mangaung-sgcode:F00300030000482300000",
      "geometry": {
        "type": "Polygon",
        "coordinates": [
          [
            [
              26.2122463767354,
              -29.1174706203224
            ],
            [
              26.2121833757425,
              -29.1177106193042
            ],
            [
              26.2117253585682,
              -29.117617605229
            ],
            [
              26.2117883650997,
              -29.1173786277668
            ],
            [
              26.2122463767354,
              -29.1174706203224
            ]
          ]
        ]
      },
      "properties": {
        "OBJECTID": 172897,
        "SG_CODE": "F00300030000482300000",
        "PARCEL_NR": "4823"
      }
    },
    {
      "type": "Feature",
      "id": "za-mangaung-sgcode:F00300030000759500000",
      "geometry": {
        "type": "Polygon",
        "coordinates": [
          [
            [
              26.2125841868798,
              -29.1173768468522
            ],
            [
              26.2124806056631,
              -29.1177704582461
            ],
            [
              26.2121833757425,
              -29.1177106193042
            ],
            [
              26.2122463767354,
              -29.1174706203224
            ],
            [
              26.2123363836599,
              -29.1171286483385
            ],
            [
              26.2123514706791,
              -29.1170688027816
            ],
            [
              26.2125841868798,
              -29.1173768468522
            ]
          ]
        ]
      },
      "properties": {
        "OBJECTID": 172985,
        "SG_CODE": "F00300030000759500000",
        "PARCEL_NR": "7595"
      }
    },
    {
      "type": "Feature",
      "id": "za-mangaung-sgcode:F00300030000229000001",
      "geometry": {
        "type": "Polygon",
        "coordinates": [
          [
            [
              26.2124572157677,
              -29.1166675762646
            ],
            [
              26.2123514706791,
              -29.1170688027816
            ],
            [
              26.2123363836599,
              -29.1171286483385
            ],
            [
              26.2121783849102,
              -29.1170976487932
            ],
            [
              26.2121903779479,
              -29.1170536561366
            ],
            [
              26.212070381082,
              -29.117028650955
            ],
            [
              26.2120873777437,
              -29.116962658405
            ],
            [
              26.2119523810287,
              -29.1169356406356
            ],
            [
              26.2120443724924,
              -29.1165836672519
            ],
            [
              26.2124572157677,
              -29.1166675762646
            ]
          ]
        ]
      },
      "properties": {
        "OBJECTID": 173084,
        "SG_CODE": "F00300030000229000001",
        "PARCEL_NR": "1/2290"
      }
    },
    {
      "type": "Feature",
      "id": "za-mangaung-sgcode:F00300030000229000000",
      "geometry": {
        "type": "Polygon",
        "coordinates": [
          [
            [
              26.2120443724924,
              -29.1165836672519
            ],
            [
              26.2119523810287,
              -29.1169356406356
            ],
            [
              26.2120873777437,
              -29.116962658405
            ],
            [
              26.212070381082,
              -29.117028650955
            ],
            [
              26.2121903779479,
              -29.1170536561366
            ],
            [
              26.2121783849102,
              -29.1170976487932
            ],
            [
              26.2123363836599,
              -29.1171286483385
            ],
            [
              26.2122463767354,
              -29.1174706203224
            ],
            [
              26.2117883650997,
              -29.1173786277668
            ],
            [
              26.2118033568002,
              -29.1173216289818
            ],
            [
              26.2118223592594,
              -29.1172506366812
            ],
            [
              26.211859355433,
              -29.1171106426519
            ],
            [
              26.211999378765,
              -29.1165746769991
            ],
            [
              26.2120443724924,
              -29.1165836672519
            ]
          ]
        ]
      },
      "properties": {
        "OBJECTID": 173089,
        "SG_CODE": "F00300030000229000000",
        "PARCEL_NR": "2290"
      }
    },
    {
      "type": "Feature",
      "id": "za-mangaung-sgcode:F00300000000065400090",
      "geometry": {
        "type": "Polygon",
        "coordinates": [
          [
            [
              26.2126243394957,
              -29.1179460175621
            ],
            [
              26.2111833417449,
              -29.1176546067413
            ],
            [
              26.2112473485829,
              -29.1174336220938
            ],
            [
              26.2113193553584,
              -29.117535618809
            ],
            [
              26.2117253585682,
              -29.117617605229
            ],
            [
              26.2121833757425,
              -29.1177106193042
            ],
            [
              26.2124806056631,
              -29.1177704582461
            ],
            [
              26.2126609739384,
              -29.1178068728437
            ],
            [
              26.2126243394957,
              -29.1179460175621
            ]
          ]
        ]
      },
      "properties": {
        "OBJECTID": 215028,
        "SG_CODE": "F00300000000065400090",
        "PARCEL_NR": "90/654"
      }
    },
    {
      "type": "Feature",
      "id": "za-mangaung-sgcode:F00300030000213200000",
      "geometry": {
        "type": "Polygon",
        "coordinates": [
          [
            [
              26.2124572157677,
              -29.1166675762646
            ],
            [
              26.2128908948477,
              -29.1167553088537
            ],
            [
              26.213265756731,
              -29.1172530709015
            ],
            [
              26.2127252534843,
              -29.117568159516
            ],
            [
              26.2125841868798,
              -29.1173768468522
            ],
            [
              26.2123514706791,
              -29.1170688027816
            ],
            [
              26.2124572157677,
              -29.1166675762646
            ]
          ]
        ]
      },
      "properties": {
        "OBJECTID": 231358,
        "SG_CODE": "F00300030000213200000",
        "PARCEL_NR": "2132"
      }
    },
    {
      "type": "Feature",
      "id": "za-mangaung-sgcode:F00300030000213000000",
      "geometry": {
        "type": "Polygon",
        "coordinates": [
          [
            [
              26.213265756731,
              -29.1172530709015
            ],
            [
              26.213547241499,
              -29.1173001720064
            ],
            [
              26.2134401142171,
              -29.1177083867493
            ],
            [
              26.2127252534843,
              -29.117568159516
            ],
            [
              26.213265756731,
              -29.1172530709015
            ]
          ]
        ]
      },
      "properties": {
        "OBJECTID": 231360,
        "SG_CODE": "F00300030000213000000",
        "PARCEL_NR": "2130"
      }
    },
    {
      "type": "Feature",
      "id": "za-mangaung-sgcode:F00300030002504400000",
      "geometry": {
        "type": "Polygon",
        "coordinates": [
          [
            [
              26.2134286425805,
              -29.1177521010996
            ],
            [
              26.2133907846126,
              -29.1178963659247
            ],
            [
              26.2133132748782,
              -29.1179385669065
            ],
            [
              26.2126609739384,
              -29.1178068728437
            ],
            [
              26.2124806056631,
              -29.1177704582461
            ],
            [
              26.2125841868798,
              -29.1173768468522
            ],
            [
              26.2127252534843,
              -29.117568159516
            ],
            [
              26.2134286425805,
              -29.1177521010996
            ]
          ]
        ]
      },
      "properties": {
        "OBJECTID": 231361,
        "SG_CODE": "F00300030002504400000",
        "PARCEL_NR": "25044"
      }
    },
    {
      "type": "Feature",
      "id": "za-mangaung-sgcode:F00300030000382300000",
      "geometry": {
        "type": "Polygon",
        "coordinates": [
          [
            [
              26.2134286425805,
              -29.1177521010996
            ],
            [
              26.2127252534843,
              -29.117568159516
            ],
            [
              26.2134401142171,
              -29.1177083867493
            ],
            [
              26.2134286425805,
              -29.1177521010996
            ]
          ]
        ]
      },
      "properties": {
        "OBJECTID": 231815,
        "SG_CODE": "F00300030000382300000",
        "PARCEL_NR": "3823"
      }
    },
    {
      "type": "Feature",
      "id": "za-mangaung-sgcode:F00300030000326400000",
      "geometry": {
        "type": "Polygon",
        "coordinates": [
          [
            [
              26.2145954564608,
              -29.1171036804243
            ],
            [
              26.2144944549541,
              -29.117495642288
            ],
            [
              26.2139224636826,
              -29.1173786692763
            ],
            [
              26.214025437484,
              -29.1169876901656
            ],
            [
              26.2145954564608,
              -29.1171036804243
            ]
          ]
        ]
      },
      "properties": {
        "OBJECTID": 173000,
        "SG_CODE": "F00300030000326400000",
        "PARCEL_NR": "3264"
      }
    },
    {
      "type": "Feature",
      "id": "za-mangaung-sgcode:F00300030000212900000",
      "geometry": {
        "type": "Polygon",
        "coordinates": [
          [
            [
              26.2128908948477,
              -29.1167553088537
            ],
            [
              26.2136499379387,
              -29.116908957907
            ],
            [
              26.213547241499,
              -29.1173001720064
            ],
            [
              26.213265756731,
              -29.1172530709015
            ],
            [
              26.2128908948477,
              -29.1167553088537
            ]
          ]
        ]
      },
      "properties": {
        "OBJECTID": 231359,
        "SG_CODE": "F00300030000212900000",
        "PARCEL_NR": "2129"
      }
    },
    {
      "type": "Feature",
      "id": "za-mangaung-sgcode:F00300030002489000000",
      "geometry": {
        "type": "Polygon",
        "coordinates": [
          [
            [
              26.2154004700185,
              -29.1172676734098
            ],
            [
              26.215308475648,
              -29.117661646342
            ],
            [
              26.2147504664581,
              -29.1175476402167
            ],
            [
              26.2148514475349,
              -29.1171556780315
            ],
            [
              26.2154004700185,
              -29.1172676734098
            ]
          ]
        ]
      },
      "properties": {
        "OBJECTID": 172955,
        "SG_CODE": "F00300030002489000000",
        "PARCEL_NR": "24890"
      }
    },
    {
      "type": "Feature",
      "id": "za-mangaung-sgcode:F00300030000074400000",
      "geometry": {
        "type": "Polygon",
        "coordinates": [
          [
            [
              26.2148514475349,
              -29.1171556780315
            ],
            [
              26.2147504664581,
              -29.1175476402167
            ],
            [
              26.2144944549541,
              -29.117495642288
            ],
            [
              26.2145954564608,
              -29.1171036804243
            ],
            [
              26.2148514475349,
              -29.1171556780315
            ]
          ]
        ]
      },
      "properties": {
        "OBJECTID": 172971,
        "SG_CODE": "F00300030000074400000",
        "PARCEL_NR": "744"
      }
    },
    {
      "type": "Feature",
      "id": "za-mangaung-sgcode:F00300030001404700000",
      "geometry": {
        "type": "Polygon",
        "coordinates": [
          [
            [
              26.2140064614534,
              -29.1155517562937
            ],
            [
              26.2136984318554,
              -29.1167246870487
            ],
            [
              26.2115913728336,
              -29.1162986850045
            ],
            [
              26.2118854016434,
              -29.1151797497918
            ],
            [
              26.211899405309,
              -29.1151257593325
            ],
            [
              26.2120104055827,
              -29.1151477589559
            ],
            [
              26.212112405571,
              -29.1151687511022
            ],
            [
              26.2121774101479,
              -29.1151817517701
            ],
            [
              26.2140064614534,
              -29.1155517562937
            ]
          ]
        ]
      },
      "properties": {
        "OBJECTID": 173321,
        "SG_CODE": "F00300030001404700000",
        "PARCEL_NR": "14047"
      }
    },
    {
      "type": "Feature",
      "id": "za-mangaung-sgcode:F00300030000192800000",
      "geometry": {
        "type": "Polygon",
        "coordinates": [
          [
            [
              26.2143814706165,
              -29.1156277600655
            ],
            [
              26.2167901845047,
              -29.1161207403785
            ],
            [
              26.2164865143935,
              -29.1172896841077
            ],
            [
              26.2140734763829,
              -29.1167966989022
            ],
            [
              26.2143814706165,
              -29.1156277600655
            ]
          ]
        ]
      },
      "properties": {
        "OBJECTID": 173231,
        "SG_CODE": "F00300030000192800000",
        "PARCEL_NR": "1928"
      }
    },
    {
      "type": "Feature",
      "id": "za-mangaung-sgcode:F00300030002479700006",
      "geometry": {
        "type": "Polygon",
        "coordinates": [
          [
            [
              26.2115395554546,
              -29.1180009158535
            ],
            [
              26.2115239294771,
              -29.1180603548613
            ],
            [
              26.2115146848497,
              -29.1180955231997
            ],
            [
              26.2114997062307,
              -29.1181525211172
            ],
            [
              26.2114893124988,
              -29.1181920591446
            ],
            [
              26.2113077353716,
              -29.1188829464503
            ],
            [
              26.2109709437274,
              -29.118816361081
            ],
            [
              26.2108945105331,
              -29.1187088231464
            ],
            [
              26.2110848829853,
              -29.1180069771252
            ],
            [
              26.2110944037019,
              -29.1179718636706
            ],
            [
              26.2111095470844,
              -29.1179137643116
            ],
            [
              26.2115395554546,
              -29.1180009158535
            ]
          ]
        ]
      },
      "properties": {
        "OBJECTID": 172783,
        "SG_CODE": "F00300030002479700006",
        "PARCEL_NR": "6/24797"
      }
    },
    {
      "type": "Feature",
      "id": "za-mangaung-sgcode:F00300030000325100003",
      "geometry": {
        "type": "Polygon",
        "coordinates": [
          [
            [
              26.2118033568002,
              -29.1173216289818
            ],
            [
              26.2117883650997,
              -29.1173786277668
            ],
            [
              26.2117253585682,
              -29.117617605229
            ],
            [
              26.2113193553584,
              -29.117535618809
            ],
            [
              26.2112473485829,
              -29.1174336220938
            ],
            [
              26.2113033503607,
              -29.1172206295971
            ],
            [
              26.2118033568002,
              -29.1173216289818
            ]
          ]
        ]
      },
      "properties": {
        "OBJECTID": 172933,
        "SG_CODE": "F00300030000325100003",
        "PARCEL_NR": "3/3251"
      }
    },
    {
      "type": "Feature",
      "id": "za-mangaung-sgcode:F00300030000292400000",
      "geometry": {
        "type": "Polygon",
        "coordinates": [
          [
            [
              26.211999378765,
              -29.1165746769991
            ],
            [
              26.211859355433,
              -29.1171106426519
            ],
            [
              26.2113613567093,
              -29.1170066456394
            ],
            [
              26.2114923692149,
              -29.1165156731324
            ],
            [
              26.2115503729131,
              -29.1164836748612
            ],
            [
              26.211999378765,
              -29.1165746769991
            ]
          ]
        ]
      },
      "properties": {
        "OBJECTID": 173113,
        "SG_CODE": "F00300030000292400000",
        "PARCEL_NR": "2924"
      }
    },
    {
      "type": "Feature",
      "id": "za-mangaung-sgcode:F00300030002640800002",
      "geometry": {
        "type": "Polygon",
        "coordinates": [
          [
            [
              26.2112339934483,
              -29.1164960522192
            ],
            [
              26.2109304124134,
              -29.117605654173
            ],
            [
              26.2107197040329,
              -29.1183757660343
            ],
            [
              26.2106325552839,
              -29.1186942880545
            ],
            [
              26.2105271798092,
              -29.1187679301184
            ],
            [
              26.2097347873429,
              -29.1187750760032
            ],
            [
              26.2078999935672,
              -29.1183900406948
            ],
            [
              26.20779594925,
              -29.1182409497676
            ],
            [
              26.2069917539496,
              -29.1180741075685
            ],
            [
              26.2059764636371,
              -29.1178635047038
            ],
            [
              26.2064440734971,
              -29.1161574666949
            ],
            [
              26.2074914072402,
              -29.1163831411363
            ],
            [
              26.207723815539,
              -29.1164332256932
            ],
            [
              26.2077643890185,
              -29.1162881521876
            ],
            [
              26.2078169499448,
              -29.1161029765601
            ],
            [
              26.2083002673465,
              -29.1161942415536
            ],
            [
              26.2103082678543,
              -29.1161416042475
            ],
            [
              26.2104598772185,
              -29.116186607996
            ],
            [
              26.2111722855964,
              -29.1163981442535
            ],
            [
              26.2112339934483,
              -29.1164960522192
            ]
          ]
        ]
      },
      "properties": {
        "OBJECTID": 173169,
        "SG_CODE": "F00300030002640800002",
        "PARCEL_NR": "2/26408"
      }
    },
    {
      "type": "Feature",
      "id": "za-mangaung-sgcode:F00300030004061900000",
      "geometry": {
        "type": "Polygon",
        "coordinates": [
          [
            [
              26.211859355433,
              -29.1171106426519
            ],
            [
              26.2118033568002,
              -29.1173216289818
            ],
            [
              26.2113033503607,
              -29.1172206295971
            ],
            [
              26.2113613567093,
              -29.1170066456394
            ],
            [
              26.211859355433,
              -29.1171106426519
            ]
          ]
        ]
      },
      "properties": {
        "OBJECTID": 179979,
        "SG_CODE": "F00300030004061900000",
        "PARCEL_NR": "40619"
      }
    },
    {
      "type": "Feature",
      "id": "za-mangaung-sgcode:F00300030002489200000",
      "geometry": {
        "type": "Polygon",
        "coordinates": [
          [
            [
              26.2163905044928,
              -29.1174696771855
            ],
            [
              26.2162934935056,
              -29.1178616565726
            ],
            [
              26.2159434921928,
              -29.1177906363397
            ],
            [
              26.2159894816303,
              -29.1176226459741
            ],
            [
              26.2158934893459,
              -29.1176026490844
            ],
            [
              26.215949492648,
              -29.1173796755758
            ],
            [
              26.2163905044928,
              -29.1174696771855
            ]
          ]
        ]
      },
      "properties": {
        "OBJECTID": 172895,
        "SG_CODE": "F00300030002489200000",
        "PARCEL_NR": "24892"
      }
    },
    {
      "type": "Feature",
      "id": "za-mangaung-sgcode:F00300030002489100000",
      "geometry": {
        "type": "Polygon",
        "coordinates": [
          [
            [
              26.215949492648,
              -29.1173796755758
            ],
            [
              26.2158934893459,
              -29.1176026490844
            ],
            [
              26.2159894816303,
              -29.1176226459741
            ],
            [
              26.2159434921928,
              -29.1177906363397
            ],
            [
              26.2155734810611,
              -29.1177156440422
            ],
            [
              26.2156744808621,
              -29.1173236713935
            ],
            [
              26.215949492648,
              -29.1173796755758
            ]
          ]
        ]
      },
      "properties": {
        "OBJECTID": 172910,
        "SG_CODE": "F00300030002489100000",
        "PARCEL_NR": "24891"
      }
    },
    {
      "type": "Feature",
      "id": "za-mangaung-sgcode:F00300030000074700000",
      "geometry": {
        "type": "Polygon",
        "coordinates": [
          [
            [
              26.2156744808621,
              -29.1173236713935
            ],
            [
              26.2155734810611,
              -29.1177156440422
            ],
            [
              26.215308475648,
              -29.117661646342
            ],
            [
              26.2154004700185,
              -29.1172676734098
            ],
            [
              26.2156744808621,
              -29.1173236713935
            ]
          ]
        ]
      },
      "properties": {
        "OBJECTID": 172918,
        "SG_CODE": "F00300030000074700000",
        "PARCEL_NR": "747"
      }
    },
    {
      "type": "Feature",
      "id": "za-mangaung-sgcode:F00300030000322800000",
      "geometry": {
        "type": "Polygon",
        "coordinates": [
          [
            [
              26.2133476376871,
              -29.1195469302567
            ],
            [
              26.2134687897239,
              -29.1195713691262
            ],
            [
              26.2144540217475,
              -29.1197696873514
            ],
            [
              26.2145922430928,
              -29.1197974748533
            ],
            [
              26.2150034685323,
              -29.1198803328107
            ],
            [
              26.2149604250488,
              -29.1200425128507
            ],
            [
              26.2147114591083,
              -29.1199923256912
            ],
            [
              26.2130819207399,
              -29.1196626239007
            ],
            [
              26.2129294839734,
              -29.1195732537643
            ],
            [
              26.2128414338939,
              -29.1196137875991
            ],
            [
              26.2129313714294,
              -29.1194635279305
            ],
            [
              26.2133476376871,
              -29.1195469302567
            ]
          ]
        ]
      },
      "properties": {
        "OBJECTID": 172433,
        "SG_CODE": "F00300030000322800000",
        "PARCEL_NR": "3228"
      }
    },
    {
      "type": "Feature",
      "id": "za-mangaung-sgcode:F00300030002479700008",
      "geometry": {
        "type": "Polygon",
        "coordinates": [
          [
            [
              26.2131214908196,
              -29.1194157297534
            ],
            [
              26.2130523712741,
              -29.1193755273506
            ],
            [
              26.2130273794406,
              -29.1192995348363
            ],
            [
              26.2133350556091,
              -29.1190634676165
            ],
            [
              26.2131234758069,
              -29.1193011264255
            ],
            [
              26.2131062196042,
              -29.1193275490855
            ],
            [
              26.2131011658245,
              -29.1193707326895
            ],
            [
              26.2131214908196,
              -29.1194157297534
            ]
          ]
        ]
      },
      "properties": {
        "OBJECTID": 176257,
        "SG_CODE": "F00300030002479700008",
        "PARCEL_NR": "8/24797"
      }
    },
    {
      "type": "Feature",
      "id": "za-mangaung-sgcode:F00300030000194200003",
      "geometry": {
        "type": "Polygon",
        "coordinates": [
          [
            [
              26.213273162862,
              -29.1197747452666
            ],
            [
              26.2130819207399,
              -29.1196626239007
            ],
            [
              26.2147114591083,
              -29.1199923256912
            ],
            [
              26.214707482145,
              -29.1200082609671
            ],
            [
              26.2145022017547,
              -29.1199722182672
            ],
            [
              26.213273162862,
              -29.1197747452666
            ]
          ]
        ]
      },
      "properties": {
        "OBJECTID": 188246,
        "SG_CODE": "F00300030000194200003",
        "PARCEL_NR": "3/1942"
      }
    },
    {
      "type": "Feature",
      "id": "za-mangaung-sgcode:F00300030002479700004",
      "geometry": {
        "type": "Polygon",
        "coordinates": [
          [
            [
              26.2133476376871,
              -29.1195469302567
            ],
            [
              26.2129313714294,
              -29.1194635279305
            ],
            [
              26.2130273794406,
              -29.1192995348363
            ],
            [
              26.2130523712741,
              -29.1193755273506
            ],
            [
              26.2131214908196,
              -29.1194157297534
            ],
            [
              26.2131951294893,
              -29.119457622251
            ],
            [
              26.2133476376871,
              -29.1195469302567
            ]
          ]
        ]
      },
      "properties": {
        "OBJECTID": 190395,
        "SG_CODE": "F00300030002479700004",
        "PARCEL_NR": "4/24797"
      }
    },
    {
      "type": "Feature",
      "id": "za-mangaung-sgcode:F00300030002664200000",
      "geometry": {
        "type": "Polygon",
        "coordinates": [
          [
            [
              26.2123314292742,
              -29.1215144697385
            ],
            [
              26.2123558708134,
              -29.1214854983627
            ],
            [
              26.2123682336431,
              -29.1214708411923
            ],
            [
              26.2123783556795,
              -29.1213944179268
            ],
            [
              26.2124154005834,
              -29.1211154459698
            ],
            [
              26.2124233891644,
              -29.1210552619324
            ],
            [
              26.2128214314015,
              -29.1196096996921
            ],
            [
              26.2128412307834,
              -29.1196137458087
            ],
            [
              26.2128414338939,
              -29.1196137875991
            ],
            [
              26.2129294839734,
              -29.1195732537643
            ],
            [
              26.2130819207399,
              -29.1196626239007
            ],
            [
              26.213273162862,
              -29.1197747452666
            ],
            [
              26.2145022017547,
              -29.1199722182672
            ],
            [
              26.214707482145,
              -29.1200082609671
            ],
            [
              26.2153212485053,
              -29.1201160231997
            ],
            [
              26.2153436698824,
              -29.1201199588921
            ],
            [
              26.2157441612999,
              -29.1202009717864
            ],
            [
              26.2157899012754,
              -29.1202663772596
            ],
            [
              26.2154991937213,
              -29.121375567646
            ],
            [
              26.2154060455107,
              -29.1217295338973
            ],
            [
              26.2154059190525,
              -29.1220365530993
            ],
            [
              26.2147705521901,
              -29.1244545110478
            ],
            [
              26.211769217913,
              -29.123835467298
            ],
            [
              26.2117033666953,
              -29.1237764992465
            ],
            [
              26.2116780941947,
              -29.123722220205
            ],
            [
              26.2116922407771,
              -29.1235377185993
            ],
            [
              26.2117764747346,
              -29.1232301205559
            ],
            [
              26.2118372133915,
              -29.1231282902029
            ],
            [
              26.2118372564163,
              -29.1231281722711
            ],
            [
              26.2120266683942,
              -29.1224611346431
            ],
            [
              26.2123314292742,
              -29.1215144697385
            ]
          ]
        ]
      },
      "properties": {
        "OBJECTID": 194800,
        "SG_CODE": "F00300030002664200000",
        "PARCEL_NR": "26642"
      }
    },
    {
      "type": "Feature",
      "id": "za-mangaung-sgcode:F00300030002479700007",
      "geometry": {
        "type": "Polygon",
        "coordinates": [
          [
            [
              26.2133476376871,
              -29.1195469302567
            ],
            [
              26.2131951294893,
              -29.119457622251
            ],
            [
              26.2133522947194,
              -29.1195290052066
            ],
            [
              26.2133476376871,
              -29.1195469302567
            ]
          ]
        ]
      },
      "properties": {
        "OBJECTID": 214563,
        "SG_CODE": "F00300030002479700007",
        "PARCEL_NR": "7/24797"
      }
    },
    {
      "type": "Feature",
      "id": "za-mangaung-sgcode:F00300030002472200003",
      "geometry": {
        "type": "Polygon",
        "coordinates": [
          [
            [
              26.2134687897239,
              -29.1195713691262
            ],
            [
              26.2133476376871,
              -29.1195469302567
            ],
            [
              26.2133522947194,
              -29.1195290052066
            ],
            [
              26.2134687897239,
              -29.1195713691262
            ]
          ]
        ]
      },
      "properties": {
        "OBJECTID": 214564,
        "SG_CODE": "F00300030002472200003",
        "PARCEL_NR": "3/24797"
      }
    },
    {
      "type": "Feature",
      "id": "za-mangaung-sgcode:F00300030001573500000",
      "geometry": {
        "type": "Polygon",
        "coordinates": [
          [
            [
              26.2142664840682,
              -29.1145408103202
            ],
            [
              26.2140484994906,
              -29.1153617492729
            ],
            [
              26.2126834405314,
              -29.1150827781573
            ],
            [
              26.2127914395731,
              -29.1146717920881
            ],
            [
              26.2129284387857,
              -29.1146997833607
            ],
            [
              26.213057441374,
              -29.1147267847908
            ],
            [
              26.2130664458455,
              -29.1147277849199
            ],
            [
              26.2133384504098,
              -29.1147837830374
            ],
            [
              26.2134464617301,
              -29.1143728226194
            ],
            [
              26.2142664840682,
              -29.1145408103202
            ]
          ]
        ]
      },
      "properties": {
        "OBJECTID": 173463,
        "SG_CODE": "F00300030001573500000",
        "PARCEL_NR": "15735"
      }
    },
    {
      "type": "Feature",
      "id": "za-mangaung-sgcode:F00300030000325600000",
      "geometry": {
        "type": "Polygon",
        "coordinates": [
          [
            [
              26.2126113605056,
              -29.1193995243327
            ],
            [
              26.2121643256866,
              -29.1209964274302
            ],
            [
              26.2120813180582,
              -29.1210404258479
            ],
            [
              26.2104022688546,
              -29.1206874238769
            ],
            [
              26.2103672712629,
              -29.1206374276679
            ],
            [
              26.2108043067356,
              -29.1190425217079
            ],
            [
              26.2126113605056,
              -29.1193995243327
            ]
          ]
        ]
      },
      "properties": {
        "OBJECTID": 172534,
        "SG_CODE": "F00300030000325600000",
        "PARCEL_NR": "3256"
      }
    },
    {
      "type": "Feature",
      "id": "za-mangaung-sgcode:F00300030002479700003",
      "geometry": {
        "type": "Polygon",
        "coordinates": [
          [
            [
              26.2126113605056,
              -29.1193995243327
            ],
            [
              26.2108043067356,
              -29.1190425217079
            ],
            [
              26.2108945105331,
              -29.1187088231464
            ],
            [
              26.2109709437274,
              -29.118816361081
            ],
            [
              26.2113077353716,
              -29.1188829464503
            ],
            [
              26.2127567180844,
              -29.1191681563389
            ],
            [
              26.2126803639794,
              -29.1192655371086
            ],
            [
              26.2126113605056,
              -29.1193995243327
            ]
          ]
        ]
      },
      "properties": {
        "OBJECTID": 190397,
        "SG_CODE": "F00300030002479700003",
        "PARCEL_NR": "3/24797"
      }
    },
    {
      "type": "Feature",
      "id": "za-mangaung-sgcode:F00300030002640800021",
      "geometry": {
        "type": "Polygon",
        "coordinates": [
          [
            [
              26.2114219322381,
              -29.1158094604029
            ],
            [
              26.2113333620748,
              -29.1161328211794
            ],
            [
              26.2112423072525,
              -29.1161776577588
            ],
            [
              26.2112369730247,
              -29.1161764526505
            ],
            [
              26.2113417065542,
              -29.1157939249463
            ],
            [
              26.2114219322381,
              -29.1158094604029
            ]
          ]
        ]
      },
      "properties": {
        "OBJECTID": 173211,
        "SG_CODE": "F00300030002640800021",
        "PARCEL_NR": "21/26408"
      }
    },
    {
      "type": "Feature",
      "id": "za-mangaung-sgcode:F00300030002640800023",
      "geometry": {
        "type": "Polygon",
        "coordinates": [
          [
            [
              26.2118077946121,
              -29.1143987497479
            ],
            [
              26.2114219322381,
              -29.1158094604029
            ],
            [
              26.2113417065542,
              -29.1157939249463
            ],
            [
              26.211727470364,
              -29.1143834755841
            ],
            [
              26.2118077946121,
              -29.1143987497479
            ]
          ]
        ]
      },
      "properties": {
        "OBJECTID": 173461,
        "SG_CODE": "F00300030002640800023",
        "PARCEL_NR": "23/26408"
      }
    },
    {
      "type": "Feature",
      "id": "za-mangaung-sgcode:F00300030002640800024",
      "geometry": {
        "type": "Polygon",
        "coordinates": [
          [
            [
              26.2104902766094,
              -29.1132011353945
            ],
            [
              26.211655557384,
              -29.1139118981306
            ],
            [
              26.211731510534,
              -29.1139883998251
            ],
            [
              26.2118013395283,
              -29.1141131733536
            ],
            [
              26.211727470364,
              -29.1143834755841
            ],
            [
              26.2113417065542,
              -29.1157939249463
            ],
            [
              26.2112369730247,
              -29.1161764526505
            ],
            [
              26.2103913788354,
              -29.1159834219048
            ],
            [
              26.210185636302,
              -29.1159640764495
            ],
            [
              26.2090353380909,
              -29.1159937851902
            ],
            [
              26.2090351584343,
              -29.1159397790534
            ],
            [
              26.2088605809797,
              -29.1159401529003
            ],
            [
              26.2088594083299,
              -29.1156947598883
            ],
            [
              26.2089390947676,
              -29.1156942367383
            ],
            [
              26.2089391471923,
              -29.1156530076646
            ],
            [
              26.2089871886229,
              -29.1156531142563
            ],
            [
              26.2089859345159,
              -29.1155668562504
            ],
            [
              26.2090339266177,
              -29.1155666909792
            ],
            [
              26.2090338906765,
              -29.1155427831374
            ],
            [
              26.2103166346933,
              -29.1152379287476
            ],
            [
              26.210527236399,
              -29.1150608106985
            ],
            [
              26.2104791871279,
              -29.1140619147851
            ],
            [
              26.2100006770731,
              -29.1137032290372
            ],
            [
              26.2098247224497,
              -29.113571330898
            ],
            [
              26.2092238251518,
              -29.1133580112679
            ],
            [
              26.2091949096093,
              -29.113347749916
            ],
            [
              26.2082715794142,
              -29.1130199498496
            ],
            [
              26.2079758014963,
              -29.1129927600329
            ],
            [
              26.2076147590926,
              -29.1128120740167
            ],
            [
              26.2067920307876,
              -29.1126014165771
            ],
            [
              26.2067648081742,
              -29.1124277050721
            ],
            [
              26.2087623895011,
              -29.1128424488117
            ],
            [
              26.2088839302396,
              -29.1128676816233
            ],
            [
              26.2093008893626,
              -29.1129542371536
            ],
            [
              26.2093308794995,
              -29.1129604567584
            ],
            [
              26.2102587944941,
              -29.113153085624
            ],
            [
              26.2104902766094,
              -29.1132011353945
            ]
          ]
        ]
      },
      "properties": {
        "OBJECTID": 173822,
        "SG_CODE": "F00300030002640800024",
        "PARCEL_NR": "24/26408"
      }
    },
    {
      "type": "Feature",
      "id": "za-mangaung-sgcode:F00300030000191700001",
      "geometry": {
        "type": "Polygon",
        "coordinates": [
          [
            [
              26.2157684192772,
              -29.1200337791853
            ],
            [
              26.2160553811603,
              -29.1189234933228
            ],
            [
              26.2161564742294,
              -29.1189455940301
            ],
            [
              26.2161544739848,
              -29.1189505912123
            ],
            [
              26.2161374808842,
              -29.1189525858141
            ],
            [
              26.216121473858,
              -29.1189575931283
            ],
            [
              26.2161064812023,
              -29.1189645911564
            ],
            [
              26.2160924781982,
              -29.1189735878736
            ],
            [
              26.2160814733942,
              -29.1189845887087
            ],
            [
              26.2160724774504,
              -29.1189975860734
            ],
            [
              26.216066471897,
              -29.119011585195
            ],
            [
              26.216060470997,
              -29.119305569856
            ],
            [
              26.2158684503845,
              -29.1200535237423
            ],
            [
              26.2157684192772,
              -29.1200337791853
            ]
          ]
        ]
      },
      "properties": {
        "OBJECTID": 172573,
        "SG_CODE": "F00300030000191700001",
        "PARCEL_NR": "1/1917"
      }
    },
    {
      "type": "Feature",
      "id": "za-mangaung-sgcode:F00300030000073800000",
      "geometry": {
        "type": "Polygon",
        "coordinates": [
          [
            [
              26.2161455284798,
              -29.1153587940416
            ],
            [
              26.216036527417,
              -29.1157687621312
            ],
            [
              26.2159145152328,
              -29.1157437693603
            ],
            [
              26.2160235270831,
              -29.1153337933179
            ],
            [
              26.2161455284798,
              -29.1153587940416
            ]
          ]
        ]
      },
      "properties": {
        "OBJECTID": 173286,
        "SG_CODE": "F00300030000073800000",
        "PARCEL_NR": "738"
      }
    },
    {
      "type": "Feature",
      "id": "za-mangaung-sgcode:F00300030000073800001",
      "geometry": {
        "type": "Polygon",
        "coordinates": [
          [
            [
              26.2160235270831,
              -29.1153337933179
            ],
            [
              26.2159145152328,
              -29.1157437693603
            ],
            [
              26.2157925202467,
              -29.1157197680704
            ],
            [
              26.2159015288506,
              -29.1153087897958
            ],
            [
              26.2160235270831,
              -29.1153337933179
            ]
          ]
        ]
      },
      "properties": {
        "OBJECTID": 173289,
        "SG_CODE": "F00300030000073800001",
        "PARCEL_NR": "1/738"
      }
    },
    {
      "type": "Feature",
      "id": "za-mangaung-sgcode:F00300030000073500000",
      "geometry": {
        "type": "Polygon",
        "coordinates": [
          [
            [
              26.215342505198,
              -29.1151947911475
            ],
            [
              26.2152335000737,
              -29.1156047657481
            ],
            [
              26.2149654941211,
              -29.1155507688109
            ],
            [
              26.2150744986099,
              -29.1151397912152
            ],
            [
              26.215342505198,
              -29.1151947911475
            ]
          ]
        ]
      },
      "properties": {
        "OBJECTID": 173316,
        "SG_CODE": "F00300030000073500000",
        "PARCEL_NR": "735"
      }
    },
    {
      "type": "Feature",
      "id": "za-mangaung-sgcode:F00300030000072900001",
      "geometry": {
        "type": "Polygon",
        "coordinates": [
          [
            [
              26.2161325363902,
              -29.1149228139168
            ],
            [
              26.2160235270831,
              -29.1153337933179
            ],
            [
              26.2159015288506,
              -29.1153087897958
            ],
            [
              26.216010536543,
              -29.1148978122933
            ],
            [
              26.2161325363902,
              -29.1149228139168
            ]
          ]
        ]
      },
      "properties": {
        "OBJECTID": 173373,
        "SG_CODE": "F00300030000072900001",
        "PARCEL_NR": "1/729"
      }
    },
    {
      "type": "Feature",
      "id": "za-mangaung-sgcode:F00300030002488300001",
      "geometry": {
        "type": "Polygon",
        "coordinates": [
          [
            [
              26.216010536543,
              -29.1148978122933
            ],
            [
              26.2159015288506,
              -29.1153087897958
            ],
            [
              26.2157925202467,
              -29.1157197680704
            ],
            [
              26.2156355157653,
              -29.1156867692783
            ],
            [
              26.2158535287292,
              -29.114865813359
            ],
            [
              26.216010536543,
              -29.1148978122933
            ]
          ]
        ]
      },
      "properties": {
        "OBJECTID": 173382,
        "SG_CODE": "F00300030002488300001",
        "PARCEL_NR": "1/24883"
      }
    },
    {
      "type": "Feature",
      "id": "za-mangaung-sgcode:F00300030002488300000",
      "geometry": {
        "type": "Polygon",
        "coordinates": [
          [
            [
              26.2158535287292,
              -29.114865813359
            ],
            [
              26.2156355157653,
              -29.1156867692783
            ],
            [
              26.2152335000737,
              -29.1156047657481
            ],
            [
              26.215342505198,
              -29.1151947911475
            ],
            [
              26.2154505147078,
              -29.1147828140824
            ],
            [
              26.2158535287292,
              -29.114865813359
            ]
          ]
        ]
      },
      "properties": {
        "OBJECTID": 173395,
        "SG_CODE": "F00300030002488300000",
        "PARCEL_NR": "24883"
      }
    },
    {
      "type": "Feature",
      "id": "za-mangaung-sgcode:F00300030000072600000",
      "geometry": {
        "type": "Polygon",
        "coordinates": [
          [
            [
              26.2154505147078,
              -29.1147828140824
            ],
            [
              26.215342505198,
              -29.1151947911475
            ],
            [
              26.2150744986099,
              -29.1151397912152
            ],
            [
              26.2151835114538,
              -29.1147288117394
            ],
            [
              26.2154505147078,
              -29.1147828140824
            ]
          ]
        ]
      },
      "properties": {
        "OBJECTID": 173402,
        "SG_CODE": "F00300030000072600000",
        "PARCEL_NR": "726"
      }
    },
    {
      "type": "Feature",
      "id": "za-mangaung-sgcode:F00300030002488500000",
      "geometry": {
        "type": "Polygon",
        "coordinates": [
          [
            [
              26.2151835114538,
              -29.1147288117394
            ],
            [
              26.2150744986099,
              -29.1151397912152
            ],
            [
              26.2149654941211,
              -29.1155507688109
            ],
            [
              26.2144314740171,
              -29.1154407623308
            ],
            [
              26.2144964807493,
              -29.1151957821394
            ],
            [
              26.2146494958717,
              -29.1146198157281
            ],
            [
              26.2151835114538,
              -29.1147288117394
            ]
          ]
        ]
      },
      "properties": {
        "OBJECTID": 179982,
        "SG_CODE": "F00300030002488500000",
        "PARCEL_NR": "24885"
      }
    }
  ]
}
