{"type":"FeatureCollection","name":"Bloemfontein bounded adapter sample projected EPSG:32735","metricCRS":"EPSG:32735","features":[{"type":"Feature","id":"za-mangaung-sgcode:F00300030002479700000","properties":{"sourceParcelId":"F00300030002479700000","geometrySha256":"1415042b5d550323df1108c9d3c8f26a99dd9fffddceb212d8914295c3618a6d"},"geometry":{"type":"Polygon","coordinates":[[[423467.9057877206,6778644.069995202],[423461.85760796384,6778614.6341742445],[423456.21986396227,6778603.989033995],[423451.79133607884,6778596.851590123],[423442.5950160844,6778585.966146046],[423426.7010761973,6778573.49103808],[423416.9454799964,6778564.475145883],[423409.39270231675,6778555.393579954],[423268.2052998843,6778586.051012079],[423285.35883571976,6778662.718932639],[423286.3407428053,6778667.106476914],[423287.75577655813,6778673.431545883],[423288.6291270773,6778677.334184203],[423290.1053363582,6778683.930144763],[423467.9057877206,6778644.069995202]]]}},{"type":"Feature","id":"za-mangaung-sgcode:F00300030002479600000","properties":{"sourceParcelId":"F00300030002479600000","geometrySha256":"2bffe3ae1b71f062c91cecc109b30127184d8ad2e0c20954601f5b5585f7dd5d"},"geometry":{"type":"Polygon","coordinates":[[[423473.47196035995,6778673.334884562],[423467.9057877206,6778644.069995202],[423290.1053363582,6778683.930144763],[423248.2034038371,6778693.306192834],[423255.1908077579,6778722.068683237],[423395.6076185604,6778690.719128084],[423473.47196035995,6778673.334884562]]]}},{"type":"Feature","id":"za-mangaung-sgcode:F00300030002479700001","properties":{"sourceParcelId":"F00300030002479700001","geometrySha256":"ccfe04893a8121e182b36eeb82370be678ca4cec33263465032e71fb52b7a395"},"geometry":{"type":"Polygon","coordinates":[[[423426.60401503625,6778522.780330476],[423424.2336635571,6778523.30362108],[423413.6215101235,6778525.646183678],[423395.4218928817,6778529.663676044],[423402.03614612186,6778544.554217443],[423409.39270231675,6778555.393579954],[423416.9454799964,6778564.475145883],[423426.7010761973,6778573.49103808],[423442.5950160844,6778585.966146046],[423451.79133607884,6778596.851590123],[423456.21986396227,6778603.989033995],[423461.85760796384,6778614.6341742445],[423467.9057877206,6778644.069995202],[423494.82591536094,6778637.356781555],[423483.67157888506,6778588.310707843],[423480.71236303734,6778580.767426357],[423465.58331707737,6778567.3690878395],[423435.82342580357,6778541.01303448],[423426.60401503625,6778522.780330476]]]}},{"type":"Feature","id":"za-mangaung-sgcode:F00300030002479800000","properties":{"sourceParcelId":"F00300030002479800000","geometrySha256":"74f94606b0c0d8548dd0904eeac83441d30ad8c3225837e4b918959173cafcd1"},"geometry":{"type":"Polygon","coordinates":[[[423737.05898336106,6778614.926257362],[423730.14854864415,6778584.643475324],[423602.58119600307,6778613.275218038],[423562.363689441,6778622.259722797],[423498.6303929557,6778636.504022801],[423506.11779680225,6778665.795501515],[423737.05898336106,6778614.926257362]]]}},{"type":"Feature","id":"za-mangaung-sgcode:F00300030002507200000","properties":{"sourceParcelId":"F00300030002507200000","geometrySha256":"e4b3fabbc499a4df393488c378291dfd46009cbc98fe54e599baf5bb0caad23d"},"geometry":{"type":"Polygon","coordinates":[[[423624.5195171594,6778711.790296243],[423752.2704963179,6778683.2788054],[423740.1749364793,6778629.350385401],[423612.52071860293,6778657.862875834],[423505.0400280769,6778681.965630883],[423517.1317894369,6778735.893751003],[423624.5195171594,6778711.790296243]]]}},{"type":"Feature","id":"za-mangaung-sgcode:F00300030003710300000","properties":{"sourceParcelId":"F00300030003710300000","geometrySha256":"2ea9455e72385469449f961b99e48cc0f9f0b2340f184c5ec0231e20faa13982"},"geometry":{"type":"Polygon","coordinates":[[[423562.363689441,6778622.259722797],[423554.55961232405,6778565.906473123],[423603.04001240083,6778555.990741],[423588.44135420467,6778486.858504962],[423574.97294372134,6778489.84760884],[423478.97066000325,6778511.181072039],[423467.6052080011,6778515.799224041],[423452.26134799793,6778523.6062],[423445.0658273627,6778528.199961755],[423443.0550319965,6778533.172372002],[423443.514748038,6778537.960356038],[423445.1740840442,6778540.899180041],[423465.58331707737,6778567.3690878395],[423480.71236303734,6778580.767426357],[423483.67157888506,6778588.310707843],[423490.3465078372,6778605.338993799],[423498.6303929557,6778636.504022801],[423562.363689441,6778622.259722797]]]}},{"type":"Feature","id":"za-mangaung-sgcode:F00300030002472200001","properties":{"sourceParcelId":"F00300030002472200001","geometrySha256":"46c0d8ecbd2520a86f42592eab238b46f541824c10416750770557d68fc48592"},"geometry":{"type":"Polygon","coordinates":[[[423494.82591536094,6778637.356781555],[423498.6303929557,6778636.504022801],[423490.3465078372,6778605.338993799],[423483.67157888506,6778588.310707843],[423494.82591536094,6778637.356781555]]]}},{"type":"Feature","id":"za-mangaung-sgcode:F00300030002472200002","properties":{"sourceParcelId":"F00300030002472200002","geometrySha256":"18f5ad53dfc29d140ca359316be11d0569345b8802c60f785735079632c8c096"},"geometry":{"type":"Polygon","coordinates":[[[423730.14854864415,6778584.643475324],[423703.048592958,6778461.439076803],[423628.51161968,6778477.944771883],[423588.44135420467,6778486.858504962],[423603.04001240083,6778555.990741],[423554.55961232405,6778565.906473123],[423562.363689441,6778622.259722797],[423602.58119600307,6778613.275218038],[423730.14854864415,6778584.643475324]]]}},{"type":"Feature","id":"za-mangaung-sgcode:F00300030000482300000","properties":{"sourceParcelId":"F00300030000482300000","geometrySha256":"19dd3f2c3be8ad10f12adf53f6f6be6fd467ca614b5d4626001ba69254312949"},"geometry":{"type":"Polygon","coordinates":[[[423358.4816748775,6778743.146648677],[423352.52995651774,6778716.514005996],[423307.8985162446,6778726.5216013575],[423313.85143411637,6778753.041089325],[423358.4816748775,6778743.146648677]]]}},{"type":"Feature","id":"za-mangaung-sgcode:F00300030000759500000","properties":{"sourceParcelId":"F00300030000759500000","geometrySha256":"c93447b07441c7cc04db4c6944886f9ae44d5cd71a3fee6fc664fe3242142e18"},"geometry":{"type":"Polygon","coordinates":[[[423391.2792505957,6778753.75650304],[423381.4930666437,6778710.077381684],[423352.52995651774,6778716.514005996],[423358.4816748775,6778743.146648677],[423366.9853720372,6778781.0953631215],[423368.4089024039,6778787.736005807],[423391.2792505957,6778753.75650304]]]}},{"type":"Feature","id":"za-mangaung-sgcode:F00300030000229000001","properties":{"sourceParcelId":"F00300030000229000001","geometrySha256":"8d33fc56895bddb9c754cdaa57c307c94be2b06e2dec3ee586f2a0908e16bafe"},"geometry":{"type":"Polygon","coordinates":[[[423378.4000043611,6778832.26028896],[423368.4089024039,6778787.736005807],[423366.9853720372,6778781.0953631215],[423351.5899326813,6778784.427229842],[423352.72417879896,6778789.3093762025],[423341.0305581172,6778792.001798797],[423342.6353159642,6778799.324768441],[423329.4807798767,6778802.230405713],[423338.17010276264,6778841.288576195],[423378.4000043611,6778832.26028896]]]}},{"type":"Feature","id":"za-mangaung-sgcode:F00300030000229000000","properties":{"sourceParcelId":"F00300030000229000000","geometrySha256":"3aa7ba1babdba93d7ef57f3823dca4201eba454c4ee534f77439bc8d47b08e7f"},"geometry":{"type":"Polygon","coordinates":[[[423338.17010276264,6778841.288576195],[423329.4807798767,6778802.230405713],[423342.6353159642,6778799.324768441],[423341.0305581172,6778792.001798797],[423352.72417879896,6778789.3093762025],[423351.5899326813,6778784.427229842],[423366.9853720372,6778781.0953631215],[423358.4816748775,6778743.146648677],[423313.85143411637,6778753.041089325],[423315.26776735974,6778759.366258246],[423317.06394860346,6778767.244505674],[423320.5596497552,6778782.779789075],[423333.78575720167,6778842.255389323],[423338.17010276264,6778841.288576195]]]}},{"type":"Feature","id":"za-mangaung-sgcode:F00300000000065400090","properties":{"sourceParcelId":"F00300000000065400090","geometrySha256":"f00a356203e83ae8de9ab9af0aaad187d09d92eadc8b7cf6ca96b854efbbbd72"},"geometry":{"type":"Polygon","coordinates":[[[423395.6076185604,6778690.719128084],[423255.1908077579,6778722.068683237],[423261.25428139773,6778746.595268678],[423268.33584763866,6778735.3410721645],[423307.8985162446,6778726.5216013575],[423352.52995651774,6778716.514005996],[423381.4930666437,6778710.077381684],[423399.0688335172,6778706.160049237],[423395.6076185604,6778690.719128084]]]}},{"type":"Feature","id":"za-mangaung-sgcode:F00300030000213200000","properties":{"sourceParcelId":"F00300030000213200000","geometrySha256":"f2ee55f758d939ff3050f89b16ba2ed895da3772ed68700356da892cdd6b70f4"},"geometry":{"type":"Polygon","coordinates":[[[423378.4000043611,6778832.26028896],[423420.6598936388,6778822.821765883],[423457.50065143744,6778767.914037764],[423405.14600167813,6778732.651048598],[423391.2792505957,6778753.75650304],[423368.4089024039,6778787.736005807],[423378.4000043611,6778832.26028896]]]}},{"type":"Feature","id":"za-mangaung-sgcode:F00300030000213000000","properties":{"sourceParcelId":"F00300030000213000000","geometrySha256":"ac089b81c483e7188e3fb938c54dc31f45636f68097e0994bfb5193594280eb4"},"geometry":{"type":"Polygon","coordinates":[[[423457.50065143744,6778767.914037764],[423484.9224783201,6778762.878252877],[423474.80172824167,6778717.578879879],[423405.14600167813,6778732.651048598],[423457.50065143744,6778767.914037764]]]}},{"type":"Feature","id":"za-mangaung-sgcode:F00300030002504400000","properties":{"sourceParcelId":"F00300030002504400000","geometrySha256":"91cefe6c050455fd285b061540b0344337ddc7f99d4419d7a943b4faf9e07e57"},"geometry":{"type":"Polygon","coordinates":[[[423473.7179619196,6778712.727921043],[423470.14139311673,6778696.718927205],[423462.63139831903,6778691.992718434],[423399.0688335172,6778706.160049237],[423381.4930666437,6778710.077381684],[423391.2792505957,6778753.75650304],[423405.14600167813,6778732.651048598],[423473.7179619196,6778712.727921043]]]}},{"type":"Feature","id":"za-mangaung-sgcode:F00300030000382300000","properties":{"sourceParcelId":"F00300030000382300000","geometrySha256":"df439c28313fc5cc87aaf845c3c6fea2cabac10de440379067a15ad5593a2390"},"geometry":{"type":"Polygon","coordinates":[[[423473.7179619196,6778712.727921043],[423405.14600167813,6778732.651048598],[423474.80172824167,6778717.578879879],[423473.7179619196,6778712.727921043]]]}},{"type":"Feature","id":"za-mangaung-sgcode:F00300030000326400000","properties":{"sourceParcelId":"F00300030000326400000","geometrySha256":"aa5dc6bd226d0f1790cc6dab4bf54203b9af15a9328199f8e198ba445d6ae6b8"},"geometry":{"type":"Polygon","coordinates":[[[423586.762925842,6778785.330068564],[423577.2257422362,6778741.835573319],[423521.4876464007,6778754.424635682],[423531.21725299757,6778797.811573961],[423586.762925842,6778785.330068564]]]}},{"type":"Feature","id":"za-mangaung-sgcode:F00300030000212900000","properties":{"sourceParcelId":"F00300030000212900000","geometrySha256":"347cf73f9915f7ddf99c64c25e8c6119ace2695cca731fff667f289c94d3a9cc"},"geometry":{"type":"Polygon","coordinates":[[[423420.6598936388,6778822.821765883],[423494.62479583937,6778806.291080805],[423484.9224783201,6778762.878252877],[423457.50065143744,6778767.914037764],[423420.6598936388,6778822.821765883]]]}},{"type":"Feature","id":"za-mangaung-sgcode:F00300030002489000000","properties":{"sourceParcelId":"F00300030002489000000","geometrySha256":"f75b1f75d69d964da6ad71d8c1accbf37e55dc96c320df3d9cbd6c1b76855e4c"},"geometry":{"type":"Polygon","coordinates":[[[423665.20763540507,6778767.682030596],[423656.5480006357,6778723.970622156],[423602.1726594758,6778736.240412284],[423611.70794383815,6778779.734907518],[423665.20763540507,6778767.682030596]]]}},{"type":"Feature","id":"za-mangaung-sgcode:F00300030000074400000","properties":{"sourceParcelId":"F00300030000074400000","geometrySha256":"d47374b961c61bc8964a643ef7e6767d8b924ffeab0e0a5c1a73865e54fa22ad"},"geometry":{"type":"Polygon","coordinates":[[[423611.70794383815,6778779.734907518],[423602.1726594758,6778736.240412284],[423577.2257422362,6778741.835573319],[423586.762925842,6778785.330068564],[423611.70794383815,6778779.734907518]]]}},{"type":"Feature","id":"za-mangaung-sgcode:F00300030001404700000","properties":{"sourceParcelId":"F00300030001404700000","geometrySha256":"4315e6c59f050be9cbb99f34cf4edf81b2a6765ce749782ba332536c4b63e771"},"geometry":{"type":"Polygon","coordinates":[[[423528.30891679844,6778956.899113484],[423499.20666235714,6778826.739598114],[423293.88392432296,6778872.569258924],[423321.6618087201,6778996.73757172],[423322.98427952064,6779002.728774286],[423333.8005512764,6779000.363520762],[423343.7403737626,6778998.1040249225],[423350.07473900006,6778996.705884399],[423528.30891679844,6778956.899113484]]]}},{"type":"Feature","id":"za-mangaung-sgcode:F00300030000192800000","properties":{"sourceParcelId":"F00300030000192800000","geometrySha256":"6612fac63be59f5da2b049d7bbb5e56ff026d67196251ac53c27cd85c29c9eaa"},"geometry":{"type":"Polygon","coordinates":[[[423564.8520936779,6778948.721485843],[423799.57406732335,6778895.661118488],[423770.8901454776,6778765.946924921],[423535.7499391951,6778819.004393434],[423564.8520936779,6778948.721485843]]]}},{"type":"Feature","id":"za-mangaung-sgcode:F00300030002479700006","properties":{"sourceParcelId":"F00300030002479700006","geometrySha256":"61f482e6942a73c1eab8045bbf340a17e7d13edfc711dd32dee945c0be938ad1"},"geometry":{"type":"Polygon","coordinates":[[[423290.1053363582,6778683.930144763],[423288.6291270773,6778677.334184203],[423287.75577655813,6778673.431545883],[423286.3407428053,6778667.106476914],[423285.35883571976,6778662.718932639],[423268.2052998843,6778586.051012079],[423235.388331918,6778593.209047716],[423227.8720396413,6778605.074299718],[423245.872936403,6778682.96223208],[423246.77317616227,6778686.858972758],[423248.2034038371,6778693.306192834],[423290.1053363582,6778683.930144763]]]}},{"type":"Feature","id":"za-mangaung-sgcode:F00300030000325100003","properties":{"sourceParcelId":"F00300030000325100003","geometrySha256":"e0bb43d58ca98b33779705219e6b0809e91ccd2c8591fb3773803d46bf5a2911"},"geometry":{"type":"Polygon","coordinates":[[[423315.26776735974,6778759.366258246],[423313.85143411637,6778753.041089325],[423307.8985162446,6778726.5216013575],[423268.33584763866,6778735.3410721645],[423261.25428139773,6778746.595268678],[423266.5448643193,6778770.231110562],[423315.26776735974,6778759.366258246]]]}},{"type":"Feature","id":"za-mangaung-sgcode:F00300030000292400000","properties":{"sourceParcelId":"F00300030000292400000","geometrySha256":"9274631a6d47416a6a16b2db0490a0ee91f802835fb760308aa817944440cc6f"},"geometry":{"type":"Polygon","coordinates":[[[423333.78575720167,6778842.255389323],[423320.5596497552,6778782.779789075],[423272.029769483,6778793.978107956],[423284.4123144817,6778848.462705404],[423290.03206567955,6778852.045871563],[423333.78575720167,6778842.255389323]]]}},{"type":"Feature","id":"za-mangaung-sgcode:F00300030002640800002","properties":{"sourceParcelId":"F00300030002640800002","geometrySha256":"f3dad039adebca16ae899a49d65fd8514f70ed2efbb6442de79c5bd53112f116"},"geometry":{"type":"Polygon","coordinates":[[[423259.2589798437,6778850.46830284],[423230.54586967954,6778727.327678796],[423210.6171443655,6778641.862678481],[423202.3747426362,6778606.513923645],[423192.17712331825,6778598.285716236],[423115.08797131944,6778596.976740038],[422936.28781999904,6778638.438648635],[422926.0538152382,6778654.889665597],[422847.6860748837,6778672.848879043],[422748.74706631684,6778695.517707882],[422792.9687705591,6778884.851743963],[422895.0382264381,6778860.533575118],[422917.68786296,6778855.136434844],[422921.527326562,6778871.236992037],[422926.50323540036,6778891.7886680765],[422973.5959907633,6778881.992887957],[423168.9267271972,6778889.137029159],[423183.7111110766,6778884.249584917],[423253.182411441,6778861.276177961],[423259.2589798437,6778850.46830284]]]}},{"type":"Feature","id":"za-mangaung-sgcode:F00300030004061900000","properties":{"sourceParcelId":"F00300030004061900000","geometrySha256":"5ac60e1382f252773f693250ad36c20565d86e3e427a1b06d13bb242b9ee6ed8"},"geometry":{"type":"Polygon","coordinates":[[[423320.5596497552,6778782.779789075],[423315.26776735974,6778759.366258246],[423266.5448643193,6778770.231110562],[423272.029769483,6778793.978107956],[423320.5596497552,6778782.779789075]]]}},{"type":"Feature","id":"za-mangaung-sgcode:F00300030002489200000","properties":{"sourceParcelId":"F00300030002489200000","geometrySha256":"4eb59978862adcb237d67a00e3d699ce8ff3a43aedded18db3a2dcb07587af78"},"geometry":{"type":"Polygon","coordinates":[[[423761.68163036415,6778745.9417301975],[423752.53209163545,6778702.448034634],[423718.42663927615,6778710.090276523],[423722.77719836123,6778728.733216362],[423713.4229415617,6778730.886654638],[423718.70722699724,6778755.628154082],[423761.68163036415,6778745.9417301975]]]}},{"type":"Feature","id":"za-mangaung-sgcode:F00300030002489100000","properties":{"sourceParcelId":"F00300030002489100000","geometrySha256":"8f5cf44c95a8019dcdef582e338509af23254ad6b4d6711917d424742aa2b581"},"geometry":{"type":"Polygon","coordinates":[[[423718.70722699724,6778755.628154082],[423713.4229415617,6778730.886654638],[423722.77719836123,6778728.733216362],[423718.42663927615,6778710.090276523],[423682.37136716244,6778718.159547523],[423691.90875068284,6778761.655142321],[423718.70722699724,6778755.628154082]]]}},{"type":"Feature","id":"za-mangaung-sgcode:F00300030000074700000","properties":{"sourceParcelId":"F00300030000074700000","geometrySha256":"cf9eccfacd13844d5097cc9709e1e62329f55c5f81f570e3710f23c4362da2b0"},"geometry":{"type":"Polygon","coordinates":[[[423691.90875068284,6778761.655142321],[423682.37136716244,6778718.159547523],[423656.5480006357,6778723.970622156],[423665.20763540507,6778767.682030596],[423691.90875068284,6778761.655142321]]]}},{"type":"Feature","id":"za-mangaung-sgcode:F00300030000322800000","properties":{"sourceParcelId":"F00300030000322800000","geometrySha256":"94e3744f068dad7611ba4813d3695d07b6e5cf92bb6e98ede6aa671874a4f6bf"},"geometry":{"type":"Polygon","coordinates":[[[423467.165384,6778513.810120005],[423478.97066000325,6778511.181072039],[423574.97294372134,6778489.84760884],[423588.44135420467,6778486.858504962],[423628.51161968,6778477.944771883],[423624.44364751654,6778459.9474736815],[423600.1841551999,6778465.346613156],[423441.39879476145,6778500.818618683],[423426.5016559958,6778510.621595915],[423417.9650719982,6778506.073215995],[423426.60401503625,6778522.780330476],[423467.165384,6778513.810120005]]]}},{"type":"Feature","id":"za-mangaung-sgcode:F00300030002479700008","properties":{"sourceParcelId":"F00300030002479700008","geometrySha256":"6b4f45f0059550ff5d44efe3b58d04b67cc6ae84acdf01ed05f6ef620687af38"},"geometry":{"type":"Polygon","coordinates":[[[423445.0658273627,6778528.199961755],[423438.3112302847,6778532.609397276],[423435.82342580357,6778541.01303448],[423465.58331707737,6778567.3690878395],[423445.1740840442,6778540.899180041],[423443.514748038,6778537.960356038],[423443.0550319965,6778533.172372002],[423445.0658273627,6778528.199961755]]]}},{"type":"Feature","id":"za-mangaung-sgcode:F00300030000194200003","properties":{"sourceParcelId":"F00300030000194200003","geometrySha256":"42f8cbbdf45a04f59f1d91b6c76303b39f1762df3b37ec50a5366b92ce94a25f"},"geometry":{"type":"Polygon","coordinates":[[[423460.088216003,6778488.520040084],[423441.39879476145,6778500.818618683],[423600.1841551999,6778465.346613156],[423599.8090053169,6778463.578420725],[423579.8102080368,6778467.438675998],[423460.088216003,6778488.520040084]]]}},{"type":"Feature","id":"za-mangaung-sgcode:F00300030002479700004","properties":{"sourceParcelId":"F00300030002479700004","geometrySha256":"aa461b7bf789c5368831fb20755d000436fa100746c5479b4a5c3e11fd6b8b85"},"geometry":{"type":"Polygon","coordinates":[[[423467.165384,6778513.810120005],[423426.60401503625,6778522.780330476],[423435.82342580357,6778541.01303448],[423438.3112302847,6778532.609397276],[423445.0658273627,6778528.199961755],[423452.26134799793,6778523.6062],[423467.165384,6778513.810120005]]]}},{"type":"Feature","id":"za-mangaung-sgcode:F00300030002664200000","properties":{"sourceParcelId":"F00300030002664200000","geometrySha256":"3817fe1e020d622f89700aca77ba0b172660de95de10e5237965c7ba58950072"},"geometry":{"type":"Polygon","coordinates":[[[423369.7544639617,6778295.147719964],[423372.1109210028,6778298.373629084],[423373.302844037,6778300.005676002],[423374.23097264394,6778308.479884956],[423377.6283131648,6778339.413806441],[423378.36092000187,6778346.087335957],[423416.0159519578,6778506.513139956],[423417.94527992036,6778506.077714205],[423417.9650719982,6778506.073215995],[423426.5016559958,6778510.621595915],[423441.39879476145,6778500.818618683],[423460.088216003,6778488.520040084],[423579.8102080368,6778467.438675998],[423599.8090053169,6778463.578420725],[423659.6031780814,6778452.036639279],[423661.78750399937,6778451.615107963],[423700.81188799575,6778442.898595964],[423705.31028792093,6778435.6813839935],[423677.84577812476,6778312.595837923],[423669.04469996435,6778273.316355998],[423669.2591141604,6778239.298868441],[423609.2312349191,6777970.979439152],[423316.7784628363,6778037.617373317],[423310.32814400404,6778044.108075998],[423307.8291439954,6778050.105675997],[423309.06854803953,6778070.557491998],[423317.0353600407,6778104.693931963],[423322.8690256366,6778116.016201239],[423322.87312399707,6778116.029295992],[423340.80614792125,6778190.059771955],[423369.7544639617,6778295.147719964]]]}},{"type":"Feature","id":"za-mangaung-sgcode:F00300030002479700007","properties":{"sourceParcelId":"F00300030002479700007","geometrySha256":"72ca1a56105141a89840ad2a7be389899ee8148d25de9065d02d92ef426f8359"},"geometry":{"type":"Polygon","coordinates":[[[423467.165384,6778513.810120005],[423452.26134799793,6778523.6062],[423467.6052080011,6778515.799224041],[423467.165384,6778513.810120005]]]}},{"type":"Feature","id":"za-mangaung-sgcode:F00300030002472200003","properties":{"sourceParcelId":"F00300030002472200003","geometrySha256":"f62664be3726df1e8bea23c65f8bb04ebd8dff06172c45ae4e55e80935b3852d"},"geometry":{"type":"Polygon","coordinates":[[[423478.97066000325,6778511.181072039],[423467.165384,6778513.810120005],[423467.6052080011,6778515.799224041],[423478.97066000325,6778511.181072039]]]}},{"type":"Feature","id":"za-mangaung-sgcode:F00300030001573500000","properties":{"sourceParcelId":"F00300030001573500000","geometrySha256":"aa0df71aca629542a8c5d519e0330494be9f7e2b4d448fec3424a07f5c94aecb"},"geometry":{"type":"Polygon","coordinates":[[[423552.86069215706,6779069.079623321],[423532.2585363225,6778977.978978161],[423399.236466444,6779008.001364393],[423409.4399833957,6779053.608414276],[423422.7903411235,6779050.5961196795],[423435.3619104791,6779047.688283274],[423436.23875959706,6779047.583325276],[423462.74545268284,6779041.555637326],[423472.9504690438,6779087.159788355],[423552.86069215706,6779069.079623321]]]}},{"type":"Feature","id":"za-mangaung-sgcode:F00300030000325600000","properties":{"sourceParcelId":"F00300030000325600000","geometrySha256":"598e2ffdf3355c5b96570792db06d9c7abf8c7f0105f3377bf6a0cb5d48f594a"},"geometry":{"type":"Polygon","coordinates":[[[423395.4218928817,6778529.663676044],[423353.1127233156,6778352.43749488],[423345.0694419155,6778347.508467275],[423181.45051567943,6778385.526254078],[423178.0083930769,6778391.042946519],[423219.34365235985,6778568.042018556],[423395.4218928817,6778529.663676044]]]}},{"type":"Feature","id":"za-mangaung-sgcode:F00300030002479700003","properties":{"sourceParcelId":"F00300030002479700003","geometrySha256":"ac41d4ba80435e9c17613f12736c59420dc56c2fad4520164ead5a0f4d82c075"},"geometry":{"type":"Polygon","coordinates":[[[423395.4218928817,6778529.663676044],[423219.34365235985,6778568.042018556],[423227.8720396413,6778605.074299718],[423235.388331918,6778593.209047716],[423268.2052998843,6778586.051012079],[423409.39270231675,6778555.393579954],[423402.03614612186,6778544.554217443],[423395.4218928817,6778529.663676044]]]}},{"type":"Feature","id":"za-mangaung-sgcode:F00300030002640800021","properties":{"sourceParcelId":"F00300030002640800021","geometrySha256":"84c64577425fe7346edfb348e1f567d0df356a05000f1ead9804d19b0366b237"},"geometry":{"type":"Polygon","coordinates":[[[423277.03506655485,6778926.664412198],[423268.6575189149,6778890.778672238],[423259.83155072125,6778885.751483919],[423259.31165876304,6778885.881531879],[423269.2178946827,6778928.333444322],[423277.03506655485,6778926.664412198]]]}},{"type":"Feature","id":"za-mangaung-sgcode:F00300030002640800023","properties":{"sourceParcelId":"F00300030002640800023","geometrySha256":"e279a715360fccc13b0b51e486a863f906adfa127998789dd3d05f344ae364df"},"geometry":{"type":"Polygon","coordinates":[[[423313.5316620809,6779083.220964519],[423277.03506655485,6778926.664412198],[423269.2178946827,6778928.333444322],[423305.7049939963,6779084.861008237],[423313.5316620809,6779083.220964519]]]}},{"type":"Feature","id":"za-mangaung-sgcode:F00300030002640800024","properties":{"sourceParcelId":"F00300030002640800024","geometrySha256":"8248681efce00d5c45328fff8e2ffc53324f78ff58f2de31964e331da0aaa65f"},"geometry":{"type":"Polygon","coordinates":[[[423184.450915038,6779215.0565092005],[423298.3582338755,6779137.064418522],[423305.805053961,6779128.637590606],[423312.69179816474,6779114.858304517],[423305.7049939963,6779084.861008237],[423269.2178946827,6778928.333444322],[423259.31165876304,6778885.881531879],[423176.8955383975,6778906.717694083],[423156.8632545192,6778908.726890081],[423044.96603132255,6778904.683907922],[423044.9083543968,6778910.667613478],[423027.9229512758,6778910.512075716],[423027.6261700413,6778937.700595954],[423035.3789676764,6778937.810651924],[423035.3533779244,6778942.37882392],[423040.0277074431,6778942.398416078],[423039.8414819607,6778951.954891963],[423044.51081348455,6778952.004572084],[423044.4895219986,6778954.653512081],[423169.06927015784,6778989.268760437],[423189.42852319824,6779009.030652517],[423184.0113909149,6779119.675876718],[423137.1868282413,6779159.1055985205],[423119.96871824254,6779173.604896479],[423061.3437775953,6779196.847995512],[423058.5227064836,6779197.966048123],[422968.4399539997,6779233.6822559135],[422939.6408782406,6779236.501327839],[422904.3771893626,6779256.284811281],[422824.1693853225,6779279.086486954],[422821.3909971168,6779298.3156921975],[423016.0629971572,6779253.670157559],[423027.9075574398,6779250.953844519],[423068.5415973163,6779241.63607312],[423071.46422779566,6779240.966541041],[423161.8923420804,6779220.229339238],[423184.450915038,6779215.0565092005]]]}},{"type":"Feature","id":"za-mangaung-sgcode:F00300030000191700001","properties":{"sourceParcelId":"F00300030000191700001","geometrySha256":"e4271f2acbf7b65502d4ed316b38865f61d2ca18ebe04a564a17a04e81b80f55"},"geometry":{"type":"Polygon","coordinates":[[[423703.048592958,6778461.439076803],[423730.14854864415,6778584.643475324],[423740.0005062785,6778582.260229002],[423739.8095826846,6778581.705251079],[423738.1577436794,6778581.473243918],[423736.60406540026,6778580.90807008],[423735.1505470363,6778580.122984233],[423733.7947895597,6778579.11708676],[423732.7322147571,6778577.891077356],[423731.8665611589,6778576.445155961],[423731.29259084305,6778574.890178202],[423730.92563768296,6778542.313114239],[423712.7953926778,6778459.316226284],[423703.048592958,6778461.439076803]]]}},{"type":"Feature","id":"za-mangaung-sgcode:F00300030000073800000","properties":{"sourceParcelId":"F00300030000073800000","geometrySha256":"e970267d36cd6a477831c5554110a927b70dc58fb9641ce9d357a15afef2a61c"},"geometry":{"type":"Polygon","coordinates":[[[423736.2897911598,6778979.666502882],[423725.986814003,6778934.171908],[423714.09707179567,6778936.862031518],[423724.4010485567,6778982.357526038],[423736.2897911598,6778979.666502882]]]}},{"type":"Feature","id":"za-mangaung-sgcode:F00300030000073800001","properties":{"sourceParcelId":"F00300030000073800001","geometrySha256":"483282558c70ec2f4aabc3c7ace3c7acc58668c449222ffeed00151418014160"},"geometry":{"type":"Polygon","coordinates":[[[423724.4010485567,6778982.357526038],[423714.09707179567,6778936.862031518],[423702.20972864033,6778939.442299001],[423712.51260584424,6778985.048849079],[423724.4010485567,6778982.357526038]]]}},{"type":"Feature","id":"za-mangaung-sgcode:F00300030000073500000","properties":{"sourceParcelId":"F00300030000073500000","geometrySha256":"b00244d0234fe5d3f324141576fa1c8c6353fb2e15e4ed5db67e6b9b755202b4"},"geometry":{"type":"Polygon","coordinates":[[[423658.0374046441,6778997.3174396735],[423647.73432751826,6778951.822045124],[423621.6184780362,6778957.631020596],[423631.9206555161,6779003.237570683],[423658.0374046441,6778997.3174396735]]]}},{"type":"Feature","id":"za-mangaung-sgcode:F00300030000072900001","properties":{"sourceParcelId":"F00300030000072900001","geometrySha256":"3970af5b0799b55d898f16449e072375a464d406d7781359fa18665f68ff73b3"},"geometry":{"type":"Polygon","coordinates":[[[423734.7041256804,6779027.964176077],[423724.4010485567,6778982.357526038],[423712.51260584424,6778985.048849079],[423722.8154830405,6779030.655299198],[423734.7041256804,6779027.964176077]]]}},{"type":"Feature","id":"za-mangaung-sgcode:F00300030002488300001","properties":{"sourceParcelId":"F00300030002488300001","geometrySha256":"8d1cf466f93a33591bc49656268036fab857677e16eb1eb6ef6f3d88ebe8730f"},"geometry":{"type":"Polygon","coordinates":[[[423722.8154830405,6779030.655299198],[423712.51260584424,6778985.048849079],[423702.20972864033,6778939.442299001],[423686.9094511967,6778942.996776638],[423707.5155054827,6779034.099021161],[423722.8154830405,6779030.655299198]]]}},{"type":"Feature","id":"za-mangaung-sgcode:F00300030002488300000","properties":{"sourceParcelId":"F00300030002488300000","geometrySha256":"974eaf256410bacc810356018c9786c1c6df54ca50faadf6c609ea1a025c6e09"},"geometry":{"type":"Polygon","coordinates":[[[423707.5155054827,6779034.099021161],[423686.9094511967,6778942.996776638],[423647.73432751826,6778951.822045124],[423658.0374046441,6778997.3174396735],[423668.24222108186,6779043.034045722],[423707.5155054827,6779034.099021161]]]}},{"type":"Feature","id":"za-mangaung-sgcode:F00300030000072600000","properties":{"sourceParcelId":"F00300030000072600000","geometrySha256":"c4ba340b61a4e0ed15f33bce9b7d61f35f3ce2f8fc59be67495bc98e50df4112"},"geometry":{"type":"Polygon","coordinates":[[[423668.24222108186,6779043.034045722],[423658.0374046441,6778997.3174396735],[423631.9206555161,6779003.237570683],[423642.2237326427,6779048.844320681],[423668.24222108186,6779043.034045722]]]}},{"type":"Feature","id":"za-mangaung-sgcode:F00300030002488500000","properties":{"sourceParcelId":"F00300030002488500000","geometrySha256":"c11b951469cc51aaace6eb783c2d2616c979e9c3b1da4bc5b444e5f0bb96dd83"},"geometry":{"type":"Polygon","coordinates":[[[423642.2237326427,6779048.844320681],[423631.9206555161,6779003.237570683],[423621.6184780362,6778957.631020596],[423569.5790021564,6778969.47308188],[423575.7228436413,6778996.658803243],[423590.1850564408,6779060.574526718],[423642.2237326427,6779048.844320681]]]}}]}
