{
  "type": "FeatureCollection",
  "features": [
    {
      "type": "Feature",
      "id": 9102,
      "properties": {
        "FID": 9102,
        "OBJECTID": 88539,
        "OBJECTID_1": 9340,
        "LotId": "681",
        "Extension_": " ",
        "Town_Lot_I": 681,
        "SR_No": "11/1963",
        "Diagram_No": "48/1963"
      },
      "geometry": {
        "type": "Polygon",
        "coordinates": [
          [
            [
              25.913187019790094,
              -24.660267750286934,
              0,
              null
            ],
            [
              25.91318784041595,
              -24.660267310192925,
              0,
              null
            ],
            [
              25.91336670816112,
              -24.65964047193046,
              0,
              null
            ],
            [
              25.913366403932482,
              -24.65964047377973,
              0,
              null
            ],
            [
              25.913351812117845,
              -24.659690411078323,
              0,
              null
            ],
            [
              25.91327960961084,
              -24.659943365277872,
              0,
              null
            ],
            [
              25.9132074068358,
              -24.66019632034541,
              0,
              null
            ],
            [
              25.913187019790094,
              -24.660267750286934,
              0,
              null
            ]
          ]
        ]
      }
    },
    {
      "type": "Feature",
      "id": 9103,
      "properties": {
        "FID": 9103,
        "OBJECTID": 88540,
        "OBJECTID_1": 9341,
        "LotId": "681",
        "Extension_": " ",
        "Town_Lot_I": 681,
        "SR_No": "11/1963",
        "Diagram_No": "48/1963"
      },
      "geometry": {
        "type": "Polygon",
        "coordinates": [
          [
            [
              25.91295327997731,
              -24.65895551306646,
              0,
              null
            ],
            [
              25.913022929745186,
              -24.658954622275008,
              0,
              null
            ],
            [
              25.913038475174453,
              -24.658954422200466,
              0,
              null
            ],
            [
              25.912954002837328,
              -24.658954941772,
              0,
              null
            ],
            [
              25.91295327997731,
              -24.65895551306646,
              0,
              null
            ]
          ]
        ]
      }
    },
    {
      "type": "Feature",
      "id": 9645,
      "properties": {
        "FID": 9645,
        "OBJECTID": 89096,
        "OBJECTID_1": 9897,
        "LotId": "681",
        "Extension_": " ",
        "Town_Lot_I": 681,
        "SR_No": "11/1963",
        "Diagram_No": "48/1963"
      },
      "geometry": {
        "type": "Polygon",
        "coordinates": [
          [
            [
              25.913595635901,
              -24.658951256875508,
              0,
              null
            ],
            [
              25.913595634047827,
              -24.658951002322265,
              0,
              null
            ],
            [
              25.91332369674503,
              -24.658952671696426,
              0,
              null
            ],
            [
              25.913595635901,
              -24.658951256875508,
              0,
              null
            ]
          ]
        ]
      }
    },
    {
      "type": "Feature",
      "id": 47651,
      "properties": {
        "FID": 47651,
        "OBJECTID": 0,
        "OBJECTID_1": 48733,
        "LotId": "681",
        "Extension_": " ",
        "Town_Lot_I": 681,
        "SR_No": "11/1963",
        "Diagram_No": "48/1963"
      },
      "geometry": {
        "type": "Polygon",
        "coordinates": [
          [
            [
              25.86077562010033,
              -24.671604480975034,
              0,
              null
            ],
            [
              25.860904791269476,
              -24.671716157966735,
              0,
              null
            ],
            [
              25.8610745315713,
              -24.671552225470567,
              0,
              null
            ],
            [
              25.860945361460654,
              -24.67144055493506,
              0,
              null
            ],
            [
              25.86077562010033,
              -24.671604480975034,
              0,
              null
            ]
          ]
        ]
      }
    },
    {
      "type": "Feature",
      "id": 46241,
      "properties": {
        "FID": 46241,
        "OBJECTID": 126587,
        "OBJECTID_1": 47323,
        "LotId": "6036",
        "Extension_": " ",
        "Town_Lot_I": 6036,
        "SR_No": " ",
        "Diagram_No": " "
      },
      "geometry": {
        "type": "Polygon",
        "coordinates": [
          [
            [
              25.91327960961084,
              -24.659943365277872,
              0,
              null
            ],
            [
              25.912988999168988,
              -24.65987408979202,
              0,
              null
            ],
            [
              25.912954369660724,
              -24.659993683729382,
              0,
              null
            ],
            [
              25.91291675428009,
              -24.660127035060704,
              0,
              null
            ],
            [
              25.9132074068358,
              -24.66019632034541,
              0,
              null
            ],
            [
              25.91327960961084,
              -24.659943365277872,
              0,
              null
            ]
          ]
        ]
      }
    },
    {
      "type": "Feature",
      "id": 46242,
      "properties": {
        "FID": 46242,
        "OBJECTID": 126588,
        "OBJECTID_1": 47324,
        "LotId": "6035",
        "Extension_": " ",
        "Town_Lot_I": 6035,
        "SR_No": " ",
        "Diagram_No": " "
      },
      "geometry": {
        "type": "Polygon",
        "coordinates": [
          [
            [
              25.913351812117845,
              -24.659690411078323,
              0,
              null
            ],
            [
              25.91306124576518,
              -24.65962114537929,
              0,
              null
            ],
            [
              25.91301390138924,
              -24.65977969906432,
              0,
              null
            ],
            [
              25.912988999168988,
              -24.65987408979202,
              0,
              null
            ],
            [
              25.91327960961084,
              -24.659943365277872,
              0,
              null
            ],
            [
              25.913351812117845,
              -24.659690411078323,
              0,
              null
            ]
          ]
        ]
      }
    },
    {
      "type": "Feature",
      "id": 46531,
      "properties": {
        "FID": 46531,
        "OBJECTID": 126887,
        "OBJECTID_1": 47613,
        "LotId": "REM OF LOT 681",
        "Extension_": " ",
        "Town_Lot_I": 0,
        "SR_No": " ",
        "Diagram_No": " "
      },
      "geometry": {
        "type": "Polygon",
        "coordinates": [
          [
            [
              25.91313392166854,
              -24.65936669259929,
              0,
              null
            ],
            [
              25.912990597682168,
              -24.659367563507246,
              0,
              null
            ],
            [
              25.912988383201004,
              -24.659063181886193,
              0,
              null
            ],
            [
              25.913085982973776,
              -24.65895413171755,
              0,
              null
            ],
            [
              25.913038475174453,
              -24.658954422200466,
              0,
              null
            ],
            [
              25.913022929745186,
              -24.658954622275008,
              0,
              null
            ],
            [
              25.91295327997731,
              -24.65895551306646,
              0,
              null
            ],
            [
              25.912884829694512,
              -24.65900967545128,
              0,
              null
            ],
            [
              25.912875541557348,
              -24.65906156013456,
              0,
              null
            ],
            [
              25.912821963352794,
              -24.659384592203157,
              0,
              null
            ],
            [
              25.912662861749872,
              -24.659941983432187,
              0,
              null
            ],
            [
              25.912547956410336,
              -24.660222302381495,
              0,
              null
            ],
            [
              25.912853612013755,
              -24.660348108041685,
              0,
              null
            ],
            [
              25.91291675428009,
              -24.660127035060704,
              0,
              null
            ],
            [
              25.912954369660724,
              -24.659993683729382,
              0,
              null
            ],
            [
              25.912988999168988,
              -24.65987408979202,
              0,
              null
            ],
            [
              25.91301390138924,
              -24.65977969906432,
              0,
              null
            ],
            [
              25.91306124576518,
              -24.65962114537929,
              0,
              null
            ],
            [
              25.91313392166854,
              -24.65936669259929,
              0,
              null
            ]
          ]
        ]
      }
    },
    {
      "type": "Feature",
      "id": 46532,
      "properties": {
        "FID": 46532,
        "OBJECTID": 126888,
        "OBJECTID_1": 47614,
        "LotId": "28551",
        "Extension_": " ",
        "Town_Lot_I": 28551,
        "SR_No": " ",
        "Diagram_No": " "
      },
      "geometry": {
        "type": "Polygon",
        "coordinates": [
          [
            [
              25.913595635901,
              -24.658951256875508,
              0,
              null
            ],
            [
              25.91332369674503,
              -24.658952671696426,
              0,
              null
            ],
            [
              25.913085982973776,
              -24.65895413171755,
              0,
              null
            ],
            [
              25.912988383201004,
              -24.659063181886193,
              0,
              null
            ],
            [
              25.912990597682168,
              -24.659367563507246,
              0,
              null
            ],
            [
              25.91313392166854,
              -24.65936669259929,
              0,
              null
            ],
            [
              25.913237536981747,
              -24.659366062895874,
              0,
              null
            ],
            [
              25.913366403932482,
              -24.65964047377973,
              0,
              null
            ],
            [
              25.91336670816112,
              -24.65964047193046,
              0,
              null
            ],
            [
              25.913600858159235,
              -24.659638727987428,
              0,
              null
            ],
            [
              25.913595853205962,
              -24.658951255554307,
              0,
              null
            ],
            [
              25.913595635901,
              -24.658951256875508,
              0,
              null
            ]
          ]
        ]
      }
    },
    {
      "type": "Feature",
      "id": 3178,
      "properties": {
        "FID": 3178,
        "OBJECTID": 82241,
        "OBJECTID_1": 3276,
        "LotId": "683",
        "Extension_": " ",
        "Town_Lot_I": 683,
        "SR_No": "11/1963",
        "Diagram_No": "48/1963"
      },
      "geometry": {
        "type": "Polygon",
        "coordinates": [
          [
            [
              25.914110037833982,
              -24.659291435718874,
              0,
              null
            ],
            [
              25.914107511430764,
              -24.658947858557646,
              0,
              null
            ],
            [
              25.91386662903276,
              -24.6589493408951,
              0,
              null
            ],
            [
              25.913869155764452,
              -24.659292918073444,
              0,
              null
            ],
            [
              25.914110037833982,
              -24.659291435718874,
              0,
              null
            ]
          ]
        ]
      }
    },
    {
      "type": "Feature",
      "id": 11157,
      "properties": {
        "FID": 11157,
        "OBJECTID": 90639,
        "OBJECTID_1": 11439,
        "LotId": "698",
        "Extension_": " ",
        "Town_Lot_I": 698,
        "SR_No": "11/1963",
        "Diagram_No": "48/1963"
      },
      "geometry": {
        "type": "Polygon",
        "coordinates": [
          [
            [
              25.91414680437855,
              -24.66019598285199,
              0,
              null
            ],
            [
              25.914145291049763,
              -24.659989602585437,
              0,
              null
            ],
            [
              25.913758831899813,
              -24.659991973998896,
              0,
              null
            ],
            [
              25.91373642304396,
              -24.660198501565265,
              0,
              null
            ],
            [
              25.91414680437855,
              -24.66019598285199,
              0,
              null
            ]
          ]
        ]
      }
    },
    {
      "type": "Feature",
      "id": 16169,
      "properties": {
        "FID": 16169,
        "OBJECTID": 95643,
        "OBJECTID_1": 16577,
        "LotId": "691",
        "Extension_": " ",
        "Town_Lot_I": 691,
        "SR_No": "11/1963",
        "Diagram_No": "48/1963"
      },
      "geometry": {
        "type": "Polygon",
        "coordinates": [
          [
            [
              25.91411256614314,
              -24.65963540372661,
              0,
              null
            ],
            [
              25.914110037833982,
              -24.659291435718874,
              0,
              null
            ],
            [
              25.913869155764452,
              -24.659292918073444,
              0,
              null
            ],
            [
              25.913871683354408,
              -24.65963687798028,
              0,
              null
            ],
            [
              25.91411256614314,
              -24.65963540372661,
              0,
              null
            ]
          ]
        ]
      }
    },
    {
      "type": "Feature",
      "id": 16529,
      "properties": {
        "FID": 16529,
        "OBJECTID": 96055,
        "OBJECTID_1": 16943,
        "LotId": "695",
        "Extension_": " ",
        "Town_Lot_I": 695,
        "SR_No": "11/1963",
        "Diagram_No": "48/1963"
      },
      "geometry": {
        "type": "Polygon",
        "coordinates": [
          [
            [
              25.913758831899813,
              -24.659991973998896,
              0,
              null
            ],
            [
              25.913369821038174,
              -24.659956728619267,
              0,
              null
            ],
            [
              25.913311806383742,
              -24.66016002692264,
              0,
              null
            ],
            [
              25.91373642304396,
              -24.660198501565265,
              0,
              null
            ],
            [
              25.913758831899813,
              -24.659991973998896,
              0,
              null
            ]
          ]
        ]
      }
    },
    {
      "type": "Feature",
      "id": 17776,
      "properties": {
        "FID": 17776,
        "OBJECTID": 97333,
        "OBJECTID_1": 18218,
        "LotId": "692",
        "Extension_": " ",
        "Town_Lot_I": 692,
        "SR_No": "11/1963",
        "Diagram_No": "48/1963"
      },
      "geometry": {
        "type": "Polygon",
        "coordinates": [
          [
            [
              25.913871683354408,
              -24.65963687798028,
              0,
              null
            ],
            [
              25.913869155764452,
              -24.659292918073444,
              0,
              null
            ],
            [
              25.913628266761553,
              -24.659294400084004,
              0,
              null
            ],
            [
              25.913630802581267,
              -24.65963835995993,
              0,
              null
            ],
            [
              25.913871683354408,
              -24.65963687798028,
              0,
              null
            ]
          ]
        ]
      }
    },
    {
      "type": "Feature",
      "id": 19648,
      "properties": {
        "FID": 19648,
        "OBJECTID": 99291,
        "OBJECTID_1": 20128,
        "LotId": "696",
        "Extension_": " ",
        "Town_Lot_I": 696,
        "SR_No": "11/1963",
        "Diagram_No": "48/1963"
      },
      "geometry": {
        "type": "Polygon",
        "coordinates": [
          [
            [
              25.913758831899813,
              -24.659991973998896,
              0,
              null
            ],
            [
              25.91378236493092,
              -24.659775017791763,
              0,
              null
            ],
            [
              25.91348125940651,
              -24.6597768675798,
              0,
              null
            ],
            [
              25.913405840006387,
              -24.659830489417747,
              0,
              null
            ],
            [
              25.913369821038174,
              -24.659956728619267,
              0,
              null
            ],
            [
              25.913758831899813,
              -24.659991973998896,
              0,
              null
            ]
          ]
        ]
      }
    },
    {
      "type": "Feature",
      "id": 34245,
      "properties": {
        "FID": 34245,
        "OBJECTID": 114217,
        "OBJECTID_1": 35059,
        "LotId": "697",
        "Extension_": " ",
        "Town_Lot_I": 697,
        "SR_No": "11/1963",
        "Diagram_No": "48/1963"
      },
      "geometry": {
        "type": "Polygon",
        "coordinates": [
          [
            [
              25.914145291049763,
              -24.659989602585437,
              0,
              null
            ],
            [
              25.914144097751603,
              -24.659827829626447,
              0,
              null
            ],
            [
              25.91408346945089,
              -24.659773169211867,
              0,
              null
            ],
            [
              25.91378236493092,
              -24.659775017791763,
              0,
              null
            ],
            [
              25.913758831899813,
              -24.659991973998896,
              0,
              null
            ],
            [
              25.914145291049763,
              -24.659989602585437,
              0,
              null
            ]
          ]
        ]
      }
    },
    {
      "type": "Feature",
      "id": 34360,
      "properties": {
        "FID": 34360,
        "OBJECTID": 114336,
        "OBJECTID_1": 35178,
        "LotId": "682",
        "Extension_": " ",
        "Town_Lot_I": 682,
        "SR_No": "11/1963",
        "Diagram_No": "48/1963"
      },
      "geometry": {
        "type": "Polygon",
        "coordinates": [
          [
            [
              25.913869155764452,
              -24.659292918073444,
              0,
              null
            ],
            [
              25.91386662903276,
              -24.6589493408951,
              0,
              null
            ],
            [
              25.913625738713638,
              -24.65895082289456,
              0,
              null
            ],
            [
              25.913628266761553,
              -24.659294400084004,
              0,
              null
            ],
            [
              25.913869155764452,
              -24.659292918073444,
              0,
              null
            ]
          ]
        ]
      }
    },
    {
      "type": "Feature",
      "id": 46243,
      "properties": {
        "FID": 46243,
        "OBJECTID": 126589,
        "OBJECTID_1": 47325,
        "LotId": "6034",
        "Extension_": " ",
        "Town_Lot_I": 6034,
        "SR_No": " ",
        "Diagram_No": " "
      },
      "geometry": {
        "type": "Polygon",
        "coordinates": [
          [
            [
              25.913366403932482,
              -24.65964047377973,
              0,
              null
            ],
            [
              25.913237536981747,
              -24.659366062895874,
              0,
              null
            ],
            [
              25.91313392166854,
              -24.65936669259929,
              0,
              null
            ],
            [
              25.91306124576518,
              -24.65962114537929,
              0,
              null
            ],
            [
              25.913351812117845,
              -24.659690411078323,
              0,
              null
            ],
            [
              25.913366403932482,
              -24.65964047377973,
              0,
              null
            ]
          ]
        ]
      }
    },
    {
      "type": "Feature",
      "id": 24192,
      "properties": {
        "FID": 24192,
        "OBJECTID": 103820,
        "OBJECTID_1": 24779,
        "LotId": "1197",
        "Extension_": " ",
        "Town_Lot_I": 1197,
        "SR_No": "12/63",
        "Diagram_No": "46/1963"
      },
      "geometry": {
        "type": "Polygon",
        "coordinates": [
          [
            [
              25.913263201672347,
              -24.658787941653344,
              0,
              null
            ],
            [
              25.913293102033332,
              -24.6587602371661,
              0,
              null
            ],
            [
              25.913292501312522,
              -24.658677693305208,
              0,
              null
            ],
            [
              25.913262186633908,
              -24.658650362917818,
              0,
              null
            ],
            [
              25.91297761365537,
              -24.658652102127007,
              0,
              null
            ],
            [
              25.912978626413015,
              -24.658789681788132,
              0,
              null
            ],
            [
              25.913263201672347,
              -24.658787941653344,
              0,
              null
            ]
          ]
        ]
      }
    }
  ]
}
