{
  "type": "FeatureCollection",
  "features": [
    {
      "type": "Feature",
      "id": "gaborone:bofinet:6036~47323",
      "properties": {
        "sourceId": "gaborone-bofinet-plots-provisional",
        "provisionalSourceRowReference": [
          "6036",
          47323
        ],
        "transportFid": 46241,
        "lotId": "6036",
        "objectId1": 47323,
        "objectId": 126587
      },
      "geometry": {
        "type": "Polygon",
        "coordinates": [
          [
            [
              25.91327960961084,
              -24.659943365277872,
              0,
              null
            ],
            [
              25.912988999168988,
              -24.65987408979202,
              0,
              null
            ],
            [
              25.912954369660724,
              -24.659993683729382,
              0,
              null
            ],
            [
              25.91291675428009,
              -24.660127035060704,
              0,
              null
            ],
            [
              25.9132074068358,
              -24.66019632034541,
              0,
              null
            ],
            [
              25.91327960961084,
              -24.659943365277872,
              0,
              null
            ]
          ]
        ]
      }
    },
    {
      "type": "Feature",
      "id": "gaborone:bofinet:6035~47324",
      "properties": {
        "sourceId": "gaborone-bofinet-plots-provisional",
        "provisionalSourceRowReference": [
          "6035",
          47324
        ],
        "transportFid": 46242,
        "lotId": "6035",
        "objectId1": 47324,
        "objectId": 126588
      },
      "geometry": {
        "type": "Polygon",
        "coordinates": [
          [
            [
              25.913351812117845,
              -24.659690411078323,
              0,
              null
            ],
            [
              25.91306124576518,
              -24.65962114537929,
              0,
              null
            ],
            [
              25.91301390138924,
              -24.65977969906432,
              0,
              null
            ],
            [
              25.912988999168988,
              -24.65987408979202,
              0,
              null
            ],
            [
              25.91327960961084,
              -24.659943365277872,
              0,
              null
            ],
            [
              25.913351812117845,
              -24.659690411078323,
              0,
              null
            ]
          ]
        ]
      }
    },
    {
      "type": "Feature",
      "id": "gaborone:bofinet:REM%20OF%20LOT%20681~47613",
      "properties": {
        "sourceId": "gaborone-bofinet-plots-provisional",
        "provisionalSourceRowReference": [
          "REM OF LOT 681",
          47613
        ],
        "transportFid": 46531,
        "lotId": "REM OF LOT 681",
        "objectId1": 47613,
        "objectId": 126887
      },
      "geometry": {
        "type": "Polygon",
        "coordinates": [
          [
            [
              25.91313392166854,
              -24.65936669259929,
              0,
              null
            ],
            [
              25.912990597682168,
              -24.659367563507246,
              0,
              null
            ],
            [
              25.912988383201004,
              -24.659063181886193,
              0,
              null
            ],
            [
              25.913085982973776,
              -24.65895413171755,
              0,
              null
            ],
            [
              25.913038475174453,
              -24.658954422200466,
              0,
              null
            ],
            [
              25.913022929745186,
              -24.658954622275008,
              0,
              null
            ],
            [
              25.91295327997731,
              -24.65895551306646,
              0,
              null
            ],
            [
              25.912884829694512,
              -24.65900967545128,
              0,
              null
            ],
            [
              25.912875541557348,
              -24.65906156013456,
              0,
              null
            ],
            [
              25.912821963352794,
              -24.659384592203157,
              0,
              null
            ],
            [
              25.912662861749872,
              -24.659941983432187,
              0,
              null
            ],
            [
              25.912547956410336,
              -24.660222302381495,
              0,
              null
            ],
            [
              25.912853612013755,
              -24.660348108041685,
              0,
              null
            ],
            [
              25.91291675428009,
              -24.660127035060704,
              0,
              null
            ],
            [
              25.912954369660724,
              -24.659993683729382,
              0,
              null
            ],
            [
              25.912988999168988,
              -24.65987408979202,
              0,
              null
            ],
            [
              25.91301390138924,
              -24.65977969906432,
              0,
              null
            ],
            [
              25.91306124576518,
              -24.65962114537929,
              0,
              null
            ],
            [
              25.91313392166854,
              -24.65936669259929,
              0,
              null
            ]
          ]
        ]
      }
    },
    {
      "type": "Feature",
      "id": "gaborone:bofinet:681~9340",
      "properties": {
        "sourceId": "gaborone-bofinet-plots-provisional",
        "provisionalSourceRowReference": [
          "681",
          9340
        ],
        "transportFid": 9102,
        "lotId": "681",
        "objectId1": 9340,
        "objectId": 88539
      },
      "geometry": {
        "type": "Polygon",
        "coordinates": [
          [
            [
              25.913187019790094,
              -24.660267750286934,
              0,
              null
            ],
            [
              25.91318784041595,
              -24.660267310192925,
              0,
              null
            ],
            [
              25.91336670816112,
              -24.65964047193046,
              0,
              null
            ],
            [
              25.913366403932482,
              -24.65964047377973,
              0,
              null
            ],
            [
              25.913351812117845,
              -24.659690411078323,
              0,
              null
            ],
            [
              25.91327960961084,
              -24.659943365277872,
              0,
              null
            ],
            [
              25.9132074068358,
              -24.66019632034541,
              0,
              null
            ],
            [
              25.913187019790094,
              -24.660267750286934,
              0,
              null
            ]
          ]
        ]
      }
    },
    {
      "type": "Feature",
      "id": "gaborone:bofinet:681~9341",
      "properties": {
        "sourceId": "gaborone-bofinet-plots-provisional",
        "provisionalSourceRowReference": [
          "681",
          9341
        ],
        "transportFid": 9103,
        "lotId": "681",
        "objectId1": 9341,
        "objectId": 88540
      },
      "geometry": {
        "type": "Polygon",
        "coordinates": [
          [
            [
              25.91295327997731,
              -24.65895551306646,
              0,
              null
            ],
            [
              25.913022929745186,
              -24.658954622275008,
              0,
              null
            ],
            [
              25.913038475174453,
              -24.658954422200466,
              0,
              null
            ],
            [
              25.912954002837328,
              -24.658954941772,
              0,
              null
            ],
            [
              25.91295327997731,
              -24.65895551306646,
              0,
              null
            ]
          ]
        ]
      }
    },
    {
      "type": "Feature",
      "id": "gaborone:bofinet:681~9897",
      "properties": {
        "sourceId": "gaborone-bofinet-plots-provisional",
        "provisionalSourceRowReference": [
          "681",
          9897
        ],
        "transportFid": 9645,
        "lotId": "681",
        "objectId1": 9897,
        "objectId": 89096
      },
      "geometry": {
        "type": "Polygon",
        "coordinates": [
          [
            [
              25.913595635901,
              -24.658951256875508,
              0,
              null
            ],
            [
              25.913595634047827,
              -24.658951002322265,
              0,
              null
            ],
            [
              25.91332369674503,
              -24.658952671696426,
              0,
              null
            ],
            [
              25.913595635901,
              -24.658951256875508,
              0,
              null
            ]
          ]
        ]
      }
    },
    {
      "type": "Feature",
      "id": "gaborone:bofinet:681~48733",
      "properties": {
        "sourceId": "gaborone-bofinet-plots-provisional",
        "provisionalSourceRowReference": [
          "681",
          48733
        ],
        "transportFid": 47651,
        "lotId": "681",
        "objectId1": 48733,
        "objectId": 0
      },
      "geometry": {
        "type": "Polygon",
        "coordinates": [
          [
            [
              25.86077562010033,
              -24.671604480975034,
              0,
              null
            ],
            [
              25.860904791269476,
              -24.671716157966735,
              0,
              null
            ],
            [
              25.8610745315713,
              -24.671552225470567,
              0,
              null
            ],
            [
              25.860945361460654,
              -24.67144055493506,
              0,
              null
            ],
            [
              25.86077562010033,
              -24.671604480975034,
              0,
              null
            ]
          ]
        ]
      }
    }
  ]
}
