{"type":"FeatureCollection","name":"Gaborone bounded runtime sample projected EPSG:32735","features":[{"type":"Feature","id":"gaborone:bofinet:6036~47323","properties":{"provisionalSourceRowReference":["6036",47323],"sourceId":"gaborone-bofinet-plots-provisional","transportFid":46241,"lotId":"6036","objectId1":47323,"objectId":126587,"townLotI":6036,"extension":" ","srNo":" ","diagramNo":" ","geometrySha256":"546d91b3ba6a114d6841d964da351a4e71c456e49d0e21a6488c6ac304d8ca9c"},"geometry":{"type":"Polygon","coordinates":[[[390035.13732329267,7272270.239604423],[390005.6675056913,7272277.678147313],[390002.2679265736,7272264.40697489],[389998.5782532808,7272249.609961497],[390028.052287058,7272242.170384127],[390035.13732329267,7272270.239604423]]]}},{"type":"Feature","id":"gaborone:bofinet:6035~47324","properties":{"provisionalSourceRowReference":["6035",47324],"sourceId":"gaborone-bofinet-plots-provisional","transportFid":46242,"lotId":"6035","objectId1":47324,"objectId":126588,"townLotI":6035,"extension":" ","srNo":" ","diagramNo":" ","geometrySha256":"7845e27efc994eadff2edc75828c7ad5d4946a5b56b5bb2ddb93a3d30117c56c"},"geometry":{"type":"Polygon","coordinates":[[[390042.2223646617,7272298.308722753],[390012.75696314103,7272305.746234076],[390008.10480607074,7272288.1506075],[390005.6675056913,7272277.678147313],[390035.13732329267,7272270.239604423],[390042.2223646617,7272298.308722753]]]}},{"type":"Feature","id":"gaborone:bofinet:REM%20OF%20LOT%20681~47613","properties":{"provisionalSourceRowReference":["REM OF LOT 681",47613],"sourceId":"gaborone-bofinet-plots-provisional","transportFid":46531,"lotId":"REM OF LOT 681","objectId1":47613,"objectId":126887,"townLotI":0,"extension":" ","srNo":" ","diagramNo":" ","geometrySha256":"b8c57600b8fe7fb4817cd49fd828bdfb15c425c16666d84ffc36073636811645"},"geometry":{"type":"Polygon","coordinates":[[[390019.8885750453,7272333.981690567],[390005.3852246329,7272333.770435404],[390004.89429042465,7272367.47485072],[390014.67563677614,7272379.628882507],[390009.86817697325,7272379.558658408],[390008.29517940397,7272379.524049515],[390001.2475134707,7272379.369608241],[389994.36793755135,7272373.317008702],[389993.4734816565,7272367.56403297],[389988.3346822831,7272331.7496264735],[389972.7226907837,7272269.898511946],[389961.34038829524,7272238.764846358],[389992.38224782166,7272225.078493385],[389998.5782532808,7272249.609961497],[390002.2679265736,7272264.40697489],[390005.6675056913,7272277.678147313],[390008.10480607074,7272288.1506075],[390012.75696314103,7272305.746234076],[390019.8885750453,7272333.981690567]]]}},{"type":"Feature","id":"gaborone:bofinet:28551~47614","properties":{"provisionalSourceRowReference":["28551",47614],"sourceId":"gaborone-bofinet-plots-provisional","transportFid":46532,"lotId":"28551","objectId1":47614,"objectId":126888,"townLotI":28551,"extension":" ","srNo":" ","diagramNo":" ","geometrySha256":"1323af29119e6b9c3768f79296bfc9a61ca8340a7bbc1c108f6adbbd6b35330f"},"geometry":{"type":"Polygon","coordinates":[[[390066.2491881035,7272380.355394989],[390038.7306156306,7272379.980960323],[390014.67563677614,7272379.628882507],[390004.89429042465,7272367.47485072],[390005.3852246329,7272333.770435404],[390019.8885750453,7272333.981690567],[390030.3736948116,7272334.134416354],[390043.6552620216,7272303.850295976],[390043.68604768947,7272303.850744402],[390067.3799987573,7272304.231364026],[390066.2711778636,7272380.355715284],[390066.2491881035,7272380.355394989]]]}},{"type":"Feature","id":"gaborone:bofinet:683~3276","properties":{"provisionalSourceRowReference":["683",3276],"sourceId":"gaborone-bofinet-plots-provisional","transportFid":3178,"lotId":"683","objectId1":3276,"objectId":82241,"townLotI":683,"extension":" ","srNo":"11/1963","diagramNo":"48/1963","geometrySha256":"870e48c2d86d4e1314c830ed57cbd8c6e6c958d8b302cf575d2acfd3fa024ce7"},"geometry":{"type":"Polygon","coordinates":[[[390118.60375073267,7272343.096923431],[390118.04720149684,7272381.141462546],[390093.6715844489,7272380.7845145315],[390094.22823374416,7272342.739972237],[390118.60375073267,7272343.096923431]]]}},{"type":"Feature","id":"gaborone:bofinet:681~9340","properties":{"provisionalSourceRowReference":["681",9340],"sourceId":"gaborone-bofinet-plots-provisional","transportFid":9102,"lotId":"681","objectId1":9340,"objectId":88539,"townLotI":681,"extension":" ","srNo":"11/1963","diagramNo":"48/1963","geometrySha256":"937a12b4e37e4cb11e0b67835e84da0ebdfe475b25f679daa38453ba7e83e36b"},"geometry":{"type":"Polygon","coordinates":[[[390026.05177993374,7272234.244143729],[390026.134439357,7272234.293535581],[390043.68604768947,7272303.850744402],[390043.6552620216,7272303.850295976],[390042.2223646617,7272298.308722753],[390035.13732329267,7272270.239604423],[390028.052287058,7272242.170384127],[390026.05177993374,7272234.244143729]]]}},{"type":"Feature","id":"gaborone:bofinet:698~11439","properties":{"provisionalSourceRowReference":["698",11439],"sourceId":"gaborone-bofinet-plots-provisional","transportFid":11157,"lotId":"698","objectId1":11439,"objectId":90639,"townLotI":698,"extension":" ","srNo":"11/1963","diagramNo":"48/1963","geometrySha256":"8d4e7bb0f514004b73c9875931df15bddd369611df7735c311c8098561877c5f"},"geometry":{"type":"Polygon","coordinates":[[[390123.11658845725,7272242.959881039],[390122.7827090342,7272265.812518211],[390083.67605987383,7272265.2405795865],[390081.58926970663,7272242.352477515],[390123.11658845725,7272242.959881039]]]}},{"type":"Feature","id":"gaborone:bofinet:691~16577","properties":{"provisionalSourceRowReference":["691",16577],"sourceId":"gaborone-bofinet-plots-provisional","transportFid":16169,"lotId":"691","objectId1":16577,"objectId":95643,"townLotI":691,"extension":" ","srNo":"11/1963","diagramNo":"48/1963","geometrySha256":"03bc706097cfc8065662a49d635cef7cb2537ce6fd4a79d48e2036010772927d"},"geometry":{"type":"Polygon","coordinates":[[[390119.16083767026,7272305.009103194],[390118.60375073267,7272343.096923431],[390094.22823374416,7272342.739972237],[390094.78530768445,7272304.653046938],[390119.16083767026,7272305.009103194]]]}},{"type":"Feature","id":"gaborone:bofinet:695~16943","properties":{"provisionalSourceRowReference":["695",16943],"sourceId":"gaborone-bofinet-plots-provisional","transportFid":16529,"lotId":"695","objectId1":16943,"objectId":96055,"townLotI":695,"extension":" ","srNo":"11/1963","diagramNo":"48/1963","geometrySha256":"ab9c0175b179b468160fa6ada326c17199938298862a589682a2b0cb57799e52"},"geometry":{"type":"Polygon","coordinates":[[[390083.67605987383,7272265.2405795865],[390044.27821612253,7272268.832043487],[390038.5854437816,7272246.273014136],[390081.58926970663,7272242.352477515],[390083.67605987383,7272265.2405795865]]]}},{"type":"Feature","id":"gaborone:bofinet:692~18218","properties":{"provisionalSourceRowReference":["692",18218],"sourceId":"gaborone-bofinet-plots-provisional","transportFid":17776,"lotId":"692","objectId1":18218,"objectId":97333,"townLotI":692,"extension":" ","srNo":"11/1963","diagramNo":"48/1963","geometrySha256":"c95c65c846d3a45b1e9ba8f8c81cc83ec9e0e29d8a323fe6db9d0a6bd48ebf81"},"geometry":{"type":"Polygon","coordinates":[[[390094.78530768445,7272304.653046938],[390094.22823374416,7272342.739972237],[390069.852014111,7272342.383010782],[390070.40998773894,7272304.296093946],[390094.78530768445,7272304.653046938]]]}},{"type":"Feature","id":"gaborone:bofinet:696~20128","properties":{"provisionalSourceRowReference":["696",20128],"sourceId":"gaborone-bofinet-plots-provisional","transportFid":19648,"lotId":"696","objectId1":20128,"objectId":99291,"townLotI":696,"extension":" ","srNo":"11/1963","diagramNo":"48/1963","geometrySha256":"bc7cc4ae37ae788154d0631bbc61c1c5c580a4b6bf0cb44717d0981715b31e93"},"geometry":{"type":"Polygon","coordinates":[[[390083.67605987383,7272265.2405795865],[390085.8674872427,7272289.284412655],[390055.3979067013,7272288.838487735],[390047.8126229516,7272282.840190772],[390044.27821612253,7272268.832043487],[390083.67605987383,7272265.2405795865]]]}},{"type":"Feature","id":"gaborone:bofinet:697~35059","properties":{"provisionalSourceRowReference":["697",35059],"sourceId":"gaborone-bofinet-plots-provisional","transportFid":34245,"lotId":"697","objectId1":35059,"objectId":114217,"townLotI":697,"extension":" ","srNo":"11/1963","diagramNo":"48/1963","geometrySha256":"d338d83a31152850a23b593bda70014c0e93c587d404a6ab21af9933d3c08699"},"geometry":{"type":"Polygon","coordinates":[[[390122.7827090342,7272265.812518211],[390122.5202807123,7272283.725749674],[390116.33696610073,7272289.730136106],[390085.8674872427,7272289.284412655],[390083.67605987383,7272265.2405795865],[390122.7827090342,7272265.812518211]]]}},{"type":"Feature","id":"gaborone:bofinet:682~35178","properties":{"provisionalSourceRowReference":["682",35178],"sourceId":"gaborone-bofinet-plots-provisional","transportFid":34360,"lotId":"682","objectId1":35178,"objectId":114336,"townLotI":682,"extension":" ","srNo":"11/1963","diagramNo":"48/1963","geometrySha256":"92464a5921c6413b30ca484e8cd39e9d8f21c3aac1a9401a9951ad4e7377a328"},"geometry":{"type":"Polygon","coordinates":[[[390094.22823374416,7272342.739972237],[390093.6715844489,7272380.7845145315],[390069.2951648006,7272380.427554802],[390069.852014111,7272342.383010782],[390094.22823374416,7272342.739972237]]]}},{"type":"Feature","id":"gaborone:bofinet:6034~47325","properties":{"provisionalSourceRowReference":["6034",47325],"sourceId":"gaborone-bofinet-plots-provisional","transportFid":46243,"lotId":"6034","objectId1":47325,"objectId":126589,"townLotI":6034,"extension":" ","srNo":" ","diagramNo":" ","geometrySha256":"88847f5b9650ac06ac133a36f31bf3a75cf954fb958e7ceb3efbd58b18ed54cf"},"geometry":{"type":"Polygon","coordinates":[[[390043.6552620216,7272303.850295976],[390030.3736948116,7272334.134416354],[390019.8885750453,7272333.981690567],[390012.75696314103,7272305.746234076],[390042.2223646617,7272298.308722753],[390043.6552620216,7272303.850295976]]]}},{"type":"Feature","id":"gaborone:bofinet:681~9341","properties":{"provisionalSourceRowReference":["681",9341],"sourceId":"gaborone-bofinet-plots-provisional","transportFid":9103,"lotId":"681","objectId1":9341,"objectId":88540,"townLotI":681,"extension":" ","srNo":"11/1963","diagramNo":"48/1963","geometrySha256":"edabf1a9571167a88d4bccd4485200f9e12cd41864ad96c628e79750aa92404b"},"geometry":{"type":"Polygon","coordinates":[[[390001.2475134707,7272379.369608241],[390008.29517940397,7272379.524049515],[390009.86817697325,7272379.558658408],[390001.3201649364,7272379.43345057],[390001.2475134707,7272379.369608241]]]}},{"type":"Feature","id":"gaborone:bofinet:1197~24779","properties":{"provisionalSourceRowReference":["1197",24779],"sourceId":"gaborone-bofinet-plots-provisional","transportFid":24192,"lotId":"1197","objectId1":24779,"objectId":103820,"townLotI":1197,"extension":" ","srNo":"12/63","diagramNo":"46/1963","geometrySha256":"e800adb6627ff10525d6efaa6b6fb13427b46f098bf02a3b861c019eb6658fd7"},"geometry":{"type":"Polygon","coordinates":[[[390032.4642394003,7272398.17415487],[390035.4658330615,7272401.266002903],[390035.33270139026,7272410.406148082],[390032.24094470625,7272413.40834306],[390003.444062913,7272412.987800645],[390003.6671592071,7272397.753507398],[390032.4642394003,7272398.17415487]]]}},{"type":"Feature","id":"gaborone:bofinet:1188~6094","properties":{"provisionalSourceRowReference":["1188",6094],"sourceId":"gaborone-bofinet-plots-provisional","transportFid":5931,"lotId":"1188","objectId1":6094,"objectId":85109,"townLotI":1188,"extension":" ","srNo":"12/63","diagramNo":"46/1963","geometrySha256":"ae8378a7919b734a56bacc835a740187c8646ac58f6978802e29fe0b422182c2"},"geometry":{"type":"Polygon","coordinates":[[[390089.95579829375,7272426.444099734],[390089.5988485561,7272450.820318113],[390083.50458693533,7272450.731552914],[390083.86163664365,7272426.3553352505],[390089.95579829375,7272426.444099734]]]}},{"type":"Feature","id":"gaborone:bofinet:1187~8502","properties":{"provisionalSourceRowReference":["1187",8502],"sourceId":"gaborone-bofinet-plots-provisional","transportFid":8280,"lotId":"1187","objectId1":8502,"objectId":87563,"townLotI":1187,"extension":" ","srNo":"12/63","diagramNo":"46/1963","geometrySha256":"e09483dcab8f291e24c89603f027bd7146c4f95d90abe7148646a3b07d2273d1"},"geometry":{"type":"Polygon","coordinates":[[[390096.0490441623,7272426.533950599],[390095.6929086285,7272450.909180347],[390089.5988485561,7272450.820318113],[390089.95579829375,7272426.444099734],[390096.0490441623,7272426.533950599]]]}},{"type":"Feature","id":"gaborone:bofinet:1845~8853","properties":{"provisionalSourceRowReference":["1845",8853],"sourceId":"gaborone-bofinet-plots-provisional","transportFid":8625,"lotId":"1845","objectId1":8853,"objectId":88052,"townLotI":1845,"extension":" ","srNo":"12/63","diagramNo":"46/1963","geometrySha256":"81dbf0e9fd3a9af19e16e2c8eb2e735ecca92025ec58c14271c2429b8ad82d14"},"geometry":{"type":"Polygon","coordinates":[[[390077.76747480687,7272426.266570762],[390077.4105381385,7272450.641891044],[390071.3170757749,7272450.553137483],[390071.6734272982,7272426.17680819],[390077.76747480687,7272426.266570762]]]}},{"type":"Feature","id":"gaborone:bofinet:1838~8870","properties":{"provisionalSourceRowReference":["1838",8870],"sourceId":"gaborone-bofinet-plots-provisional","transportFid":8642,"lotId":"1838","objectId1":8870,"objectId":88069,"townLotI":1838,"extension":" ","srNo":"12/63","diagramNo":"46/1963","geometrySha256":"4851035e4bfe58c1f5b0f4a24c02d3cc650ce3e93082e1409793cb0e590ecce0"},"geometry":{"type":"Polygon","coordinates":[[[390077.14023312996,7272469.131365629],[390076.7840013593,7272493.506696222],[390070.68983929034,7272493.417933778],[390071.0461855903,7272469.041604364],[390077.14023312996,7272469.131365629]]]}},{"type":"Feature","id":"gaborone:bofinet:681~9897","properties":{"provisionalSourceRowReference":["681",9897],"sourceId":"gaborone-bofinet-plots-provisional","transportFid":9645,"lotId":"681","objectId1":9897,"objectId":89096,"townLotI":681,"extension":" ","srNo":"11/1963","diagramNo":"48/1963","geometrySha256":"911ac31d17c044d43486cacf4cc32db68fc7650c5ff091ccabb1be3f3f369299"},"geometry":{"type":"Polygon","coordinates":[[[390066.2491881035,7272380.355394989],[390066.2487775406,7272380.383581864],[390038.7306156306,7272379.980960323],[390066.2491881035,7272380.355394989]]]}},{"type":"Feature","id":"gaborone:bofinet:1086~10526","properties":{"provisionalSourceRowReference":["1086",10526],"sourceId":"gaborone-bofinet-plots-provisional","transportFid":10261,"lotId":"1086","objectId1":10526,"objectId":89726,"townLotI":1086,"extension":" ","srNo":"12/63","diagramNo":"46/1963","geometrySha256":"2409e1660a89bb82737d6243b50d7122dc6831418bae4e3bfbc67b891509ce8b"},"geometry":{"type":"Polygon","coordinates":[[[390083.2343949948,7272469.220128812],[390082.8780632893,7272493.5954572065],[390076.7840013593,7272493.506696222],[390077.14023312996,7272469.131365629],[390083.2343949948,7272469.220128812]]]}},{"type":"Feature","id":"gaborone:bofinet:1185~12927","properties":{"provisionalSourceRowReference":["1185",12927],"sourceId":"gaborone-bofinet-plots-provisional","transportFid":12600,"lotId":"1185","objectId1":12927,"objectId":93922,"townLotI":1185,"extension":" ","srNo":"12/63","diagramNo":"46/1963","geometrySha256":"d5371cec69619fc71ee1958f7ae180029b0a96a6d2ea11dc75b324b0581ea830"},"geometry":{"type":"Polygon","coordinates":[[[390108.23735343147,7272426.712379126],[390107.88041830406,7272451.087595743],[390101.7861572406,7272450.998830558],[390102.14320544107,7272426.622715075],[390108.23735343147,7272426.712379126]]]}},{"type":"Feature","id":"gaborone:bofinet:1088~15294","properties":{"provisionalSourceRowReference":["1088",15294],"sourceId":"gaborone-bofinet-plots-provisional","transportFid":14914,"lotId":"1088","objectId1":15294,"objectId":94268,"townLotI":1088,"extension":" ","srNo":"12/63","diagramNo":"46/1963","geometrySha256":"e62881d1a9f8896ce81109c38c8ebbe41bc5231c05d949312515f9a5162b485d"},"geometry":{"type":"Polygon","coordinates":[[[390095.4219054396,7272469.398543098],[390095.065572311,7272493.773969961],[390088.97151220974,7272493.685109033],[390089.3277439453,7272469.309779923],[390095.4219054396,7272469.398543098]]]}},{"type":"Feature","id":"gaborone:bofinet:1186~16060","properties":{"provisionalSourceRowReference":["1186",16060],"sourceId":"gaborone-bofinet-plots-provisional","transportFid":15660,"lotId":"1186","objectId1":16060,"objectId":95080,"townLotI":1186,"extension":" ","srNo":"12/63","diagramNo":"46/1963","geometrySha256":"a5a4b53c675e5fbf26362d8c4d2906ce60358fc44100707c86941d422497da4d"},"geometry":{"type":"Polygon","coordinates":[[[390102.14320544107,7272426.622715075],[390101.7861572406,7272450.998830558],[390095.6929086285,7272450.909180347],[390096.0490441623,7272426.533950599],[390102.14320544107,7272426.622715075]]]}},{"type":"Feature","id":"gaborone:bofinet:1191~21182","properties":{"provisionalSourceRowReference":["1191",21182],"sourceId":"gaborone-bofinet-plots-provisional","transportFid":20679,"lotId":"1191","objectId1":21182,"objectId":100348,"townLotI":1191,"extension":" ","srNo":"12/63","diagramNo":"46/1963","geometrySha256":"7d907efdabcd7b2338808e85422ffbf3dfee29fe2f2ec4f4934eb142f84e2db0"},"geometry":{"type":"Polygon","coordinates":[[[390065.57936504314,7272426.088045146],[390065.22302951856,7272450.463275698],[390059.1288671083,7272450.374511939],[390059.4859154287,7272425.998391256],[390065.57936504314,7272426.088045146]]]}},{"type":"Feature","id":"gaborone:bofinet:1194~21215","properties":{"provisionalSourceRowReference":["1194",21215],"sourceId":"gaborone-bofinet-plots-provisional","transportFid":20710,"lotId":"1194","objectId1":21215,"objectId":100381,"townLotI":1194,"extension":" ","srNo":"12/63","diagramNo":"46/1963","geometrySha256":"ae265ec4e41b9ea7a4ada731fb4dd2aa19acfbdd8d30cc4838223645bbdc2393"},"geometry":{"type":"Polygon","coordinates":[[[390047.2977914473,7272425.820765199],[390046.94145587104,7272450.195997978],[390040.8471929503,7272450.107232749],[390041.20354164776,7272425.731099648],[390047.2977914473,7272425.820765199]]]}},{"type":"Feature","id":"gaborone:bofinet:1193~25156","properties":{"provisionalSourceRowReference":["1193",25156],"sourceId":"gaborone-bofinet-plots-provisional","transportFid":24565,"lotId":"1193","objectId1":25156,"objectId":104200,"townLotI":1193,"extension":" ","srNo":"12/63","diagramNo":"46/1963","geometrySha256":"916c0dd55cde91fdabe927996ae10c749ad7b980fa6cff02fbb109ce9b2e13c8"},"geometry":{"type":"Polygon","coordinates":[[[390053.39185425924,7272425.909528252],[390053.0348059217,7272450.285649678],[390046.94145587104,7272450.195997978],[390047.2977914473,7272425.820765199],[390053.39185425924,7272425.909528252]]]}},{"type":"Feature","id":"gaborone:bofinet:1087~25779","properties":{"provisionalSourceRowReference":["1087",25779],"sourceId":"gaborone-bofinet-plots-provisional","transportFid":25177,"lotId":"1087","objectId1":25779,"objectId":104826,"townLotI":1087,"extension":" ","srNo":"12/63","diagramNo":"46/1963","geometrySha256":"2a2eaf298597b99514887e7d18fb20f789c4c6b64be8c18e6b4897067f712086"},"geometry":{"type":"Polygon","coordinates":[[[390089.3277439453,7272469.309779923],[390088.97151220974,7272493.685109033],[390082.8780632893,7272493.5954572065],[390083.2343949948,7272469.220128812],[390089.3277439453,7272469.309779923]]]}},{"type":"Feature","id":"gaborone:bofinet:1198~26809","properties":{"provisionalSourceRowReference":["1198",26809],"sourceId":"gaborone-bofinet-plots-provisional","transportFid":26182,"lotId":"1198","objectId1":26809,"objectId":105857,"townLotI":1198,"extension":" ","srNo":"12/63","diagramNo":"46/1963","geometrySha256":"9676b5c0c701cb7bab58e89f6c2cfe24bef796ea6c363907a799ba2b477a13f6"},"geometry":{"type":"Polygon","coordinates":[[[390111.6852621384,7272399.333957746],[390114.68776730413,7272402.424918067],[390114.48685025447,7272416.136512285],[390111.39609440806,7272419.138720713],[390044.3622837042,7272418.157438703],[390041.36057686084,7272415.066489188],[390041.5606943983,7272401.354878308],[390044.6523511678,7272398.352682203],[390111.6852621384,7272399.333957746]]]}},{"type":"Feature","id":"gaborone:bofinet:1089~30492","properties":{"provisionalSourceRowReference":["1089",30492],"sourceId":"gaborone-bofinet-plots-provisional","transportFid":29774,"lotId":"1089","objectId1":30492,"objectId":109553,"townLotI":1089,"extension":" ","srNo":"12/63","diagramNo":"46/1963","geometrySha256":"11c7b7f3b2e8b6196e5d8930af310dbbd97b5d2949e70491a55dd3fd373e6316"},"geometry":{"type":"Polygon","coordinates":[[[390101.5159638834,7272469.487504719],[390101.15982048877,7272493.863633426],[390095.065572311,7272493.773969961],[390095.4219054396,7272469.398543098],[390101.5159638834,7272469.487504719]]]}},{"type":"Feature","id":"gaborone:bofinet:1085~30683","properties":{"provisionalSourceRowReference":["1085",30683],"sourceId":"gaborone-bofinet-plots-provisional","transportFid":29960,"lotId":"1085","objectId1":30683,"objectId":109744,"townLotI":1085,"extension":" ","srNo":"12/63","diagramNo":"46/1963","geometrySha256":"65c760d6185928b7c7c01dd57b4c45fa768a0f9e69962871987b079d30295c34"},"geometry":{"type":"Polygon","coordinates":[[[390071.0461855903,7272469.041604364],[390070.68983929034,7272493.417933778],[390064.5955930978,7272493.328070385],[390064.95192339894,7272468.952839717],[390071.0461855903,7272469.041604364]]]}},{"type":"Feature","id":"gaborone:bofinet:1195~32383","properties":{"provisionalSourceRowReference":["1195",32383],"sourceId":"gaborone-bofinet-plots-provisional","transportFid":31628,"lotId":"1195","objectId1":32383,"objectId":111494,"townLotI":1195,"extension":" ","srNo":"12/63","diagramNo":"46/1963","geometrySha256":"727844d62852093dd425f001e0a9f09fa03a3a0f76213d11bbfd2a0b57f042ab"},"geometry":{"type":"Polygon","coordinates":[[[390041.20354164776,7272425.731099648],[390040.8471929503,7272450.107232749],[390034.7531443104,7272450.017470894],[390035.1094799209,7272425.642236631],[390041.20354164776,7272425.731099648]]]}},{"type":"Feature","id":"gaborone:bofinet:1196~32634","properties":{"provisionalSourceRowReference":["1196",32634],"sourceId":"gaborone-bofinet-plots-provisional","transportFid":31874,"lotId":"1196","objectId1":32634,"objectId":111746,"townLotI":1196,"extension":" ","srNo":"12/63","diagramNo":"46/1963","geometrySha256":"7c5db801cd83561ad94532f10c8272152c218a7d7f4973355b2d21f0ef5949c4"},"geometry":{"type":"Polygon","coordinates":[[[390035.1094799209,7272425.642236631],[390034.7531443104,7272450.017470894],[390028.65898097155,7272449.928707115],[390029.0162292833,7272425.55258563],[390035.1094799209,7272425.642236631]]]}},{"type":"Feature","id":"gaborone:bofinet:1090~33029","properties":{"provisionalSourceRowReference":["1090",33029],"sourceId":"gaborone-bofinet-plots-provisional","transportFid":32261,"lotId":"1090","objectId1":33029,"objectId":112187,"townLotI":1090,"extension":" ","srNo":"12/63","diagramNo":"46/1963","geometrySha256":"e465461ff452688ce7e49c98a777b05ff0b30cecbbbc9cee6cb656ee9cbc5af0"},"geometry":{"type":"Polygon","coordinates":[[[390107.6102118571,7272469.577168921],[390107.2539816288,7272493.952395848],[390101.15982048877,7272493.863633426],[390101.5159638834,7272469.487504719],[390107.6102118571,7272469.577168921]]]}},{"type":"Feature","id":"gaborone:bofinet:1190~34068","properties":{"provisionalSourceRowReference":["1190",34068],"sourceId":"gaborone-bofinet-plots-provisional","transportFid":33271,"lotId":"1190","objectId1":34068,"objectId":113226,"townLotI":1190,"extension":" ","srNo":"12/63","diagramNo":"46/1963","geometrySha256":"43feef78f5de62535feb409852d1b1a6be9689b4161ea9e0ab2fad4881f7580d"},"geometry":{"type":"Polygon","coordinates":[[[390071.6734272982,7272426.17680819],[390071.3170757749,7272450.553137483],[390065.22302951856,7272450.463275698],[390065.57936504314,7272426.088045146],[390071.6734272982,7272426.17680819]]]}},{"type":"Feature","id":"gaborone:bofinet:1189~35551","properties":{"provisionalSourceRowReference":["1189",35551],"sourceId":"gaborone-bofinet-plots-provisional","transportFid":34725,"lotId":"1189","objectId1":35551,"objectId":114709,"townLotI":1189,"extension":" ","srNo":"12/63","diagramNo":"46/1963","geometrySha256":"402034c625685427aa6d3dc3745ad6124735fcab533d205fdcb242ec44ad7b8c"},"geometry":{"type":"Polygon","coordinates":[[[390083.86163664365,7272426.3553352505],[390083.50458693533,7272450.731552914],[390077.4105381385,7272450.641891044],[390077.76747480687,7272426.266570762],[390083.86163664365,7272426.3553352505]]]}},{"type":"Feature","id":"gaborone:bofinet:1192~40565","properties":{"provisionalSourceRowReference":["1192",40565],"sourceId":"gaborone-bofinet-plots-provisional","transportFid":39626,"lotId":"1192","objectId1":40565,"objectId":119585,"townLotI":1192,"extension":" ","srNo":"12/63","diagramNo":"46/1963","geometrySha256":"a6fa0ad6b969ea501ed90a545ece73c1dcec32379520c7c6b07da9039739c405"},"geometry":{"type":"Polygon","coordinates":[[[390059.4859154287,7272425.998391256],[390059.1288671083,7272450.374511939],[390053.0348059217,7272450.285649678],[390053.39185425924,7272425.909528252],[390059.4859154287,7272425.998391256]]]}},{"type":"Feature","id":"gaborone:bofinet:22~23563","properties":{"provisionalSourceRowReference":["22",23563],"sourceId":"gaborone-bofinet-plots-provisional","transportFid":23004,"lotId":"22","objectId1":23563,"objectId":102501,"townLotI":22,"extension":" ","srNo":"10/1963","diagramNo":"44/1963","geometrySha256":"90095281720d23b661f0a59f1629ea7b39e0fb8c21c6d5a614eedb8f7d446d6d"},"geometry":{"type":"Polygon","coordinates":[[[390039.3535780161,7272604.190738035],[390033.524417483,7272634.588217075],[389975.13215259765,7272619.016390432],[389984.70669224265,7272585.267615033],[389987.10623969976,7272571.432573866],[390042.2228430584,7272589.227329353],[390039.3535780161,7272604.190738035]]]}},{"type":"Feature","id":"gaborone:bofinet:21~25718","properties":{"provisionalSourceRowReference":["21",25718],"sourceId":"gaborone-bofinet-plots-provisional","transportFid":25117,"lotId":"21","objectId1":25718,"objectId":104765,"townLotI":21,"extension":" ","srNo":"10/1963","diagramNo":"44/1963","geometrySha256":"7d744f2d37919184b33ae707f4d50e57d9c7f8048083055270c21ed13e7f97f0"},"geometry":{"type":"Polygon","coordinates":[[[390045.474418486,7272572.272895206],[390042.2228430584,7272589.227329353],[389987.10623969976,7272571.432573866],[389991.86370343703,7272543.998926123],[389998.9990802776,7272538.083275942],[390051.8823154933,7272538.857015841],[390045.474418486,7272572.272895206]]]}},{"type":"Feature","id":"gaborone:bofinet:1078~28229","properties":{"provisionalSourceRowReference":["1078",28229],"sourceId":"gaborone-bofinet-plots-provisional","transportFid":27567,"lotId":"1078","objectId1":28229,"objectId":107279,"townLotI":1078,"extension":" ","srNo":"12/63","diagramNo":"46/1963","geometrySha256":"e99d65174fbc68714d3133dd35e5ed19feedae2dd029e3e12f5e47100aabfc3e"},"geometry":{"type":"Polygon","coordinates":[[[390030.9008986817,7272505.026414413],[390033.90249400935,7272508.118260857],[390033.768567592,7272517.258394498],[390030.677601937,7272520.261302462],[390001.88043885573,7272519.839471672],[390002.1037167265,7272504.605880823],[390030.9008986817,7272505.026414413]]]}},{"type":"Feature","id":"gaborone:bofinet:1199~2953","properties":{"provisionalSourceRowReference":["1199",2953],"sourceId":"gaborone-bofinet-plots-provisional","transportFid":2865,"lotId":"1199","objectId1":2953,"objectId":81918,"townLotI":1199,"extension":" ","srNo":"12/63","diagramNo":"46/1963","geometrySha256":"1d70ff856c71704e70a92cede7ee343629d48d58fe9490ad18e214f2101a21ad"},"geometry":{"type":"Polygon","coordinates":[[[390110.1885932065,7272501.615605753],[390113.19030033925,7272504.7065529],[390112.9902884258,7272518.41826034],[390109.898618507,7272521.421556747],[390042.86521410756,7272520.439815075],[390039.8635158622,7272517.348167407],[390040.0643275182,7272503.636466603],[390043.1552801783,7272500.634458618],[390110.1885932065,7272501.615605753]]]}},{"type":"Feature","id":"gaborone:bofinet:29~15349","properties":{"provisionalSourceRowReference":["29",15349],"sourceId":"gaborone-bofinet-plots-provisional","transportFid":14968,"lotId":"29","objectId1":15349,"objectId":94323,"townLotI":29,"extension":" ","srNo":"10/1963","diagramNo":"44/1963","geometrySha256":"218dcba5d8aa0485d257a0d6e03e987d10b1a5b09aad077f21db377fbb2b57a9"},"geometry":{"type":"Polygon","coordinates":[[[390051.8823154933,7272538.857015841],[390103.9062341036,7272539.618439686],[390109.91113592713,7272545.801254354],[390109.50952378556,7272573.224346595],[390045.474418486,7272572.272895206],[390051.8823154933,7272538.857015841]]]}},{"type":"Feature","id":"gaborone:bofinet:28~33164","properties":{"provisionalSourceRowReference":["28",33164],"sourceId":"gaborone-bofinet-plots-provisional","transportFid":32391,"lotId":"28","objectId1":33164,"objectId":112322,"townLotI":28,"extension":" ","srNo":"10/1963","diagramNo":"44/1963","geometrySha256":"9b2c8575f499a5182d7a79e95b46c3e908c8ef6bac9e11f2c14ff21ace2a7bd6"},"geometry":{"type":"Polygon","coordinates":[[[390109.50952378556,7272573.224346595],[390109.04185822094,7272605.217217283],[390039.3535780161,7272604.190738035],[390042.2228430584,7272589.227329353],[390045.474418486,7272572.272895206],[390109.50952378556,7272573.224346595]]]}},{"type":"Feature","id":"gaborone:bofinet:1069~6596","properties":{"provisionalSourceRowReference":["1069",6596],"sourceId":"gaborone-bofinet-plots-provisional","transportFid":6420,"lotId":"1069","objectId1":6596,"objectId":85657,"townLotI":1069,"extension":" ","srNo":"11/1963","diagramNo":"48/1963","geometrySha256":"94a49a058c4a765aa5aae9957e1dd4ecc5556232e3b3f0cf2508e2a900a034cb"},"geometry":{"type":"Polygon","coordinates":[[[390030.9720577727,7272135.720784267],[390014.52696663217,7272162.147678405],[390006.12519929727,7272160.232445233],[389992.0216895287,7272137.802225969],[390016.1617915115,7272116.265014954],[390030.9720577727,7272135.720784267]]]}},{"type":"Feature","id":"gaborone:bofinet:50350~17889","properties":{"provisionalSourceRowReference":["50350",17889],"sourceId":"gaborone-bofinet-plots-provisional","transportFid":17456,"lotId":"50350","objectId1":17889,"objectId":97002,"townLotI":50350,"extension":" ","srNo":"324/1992","diagramNo":"591/1992","geometrySha256":"a33e700643fbede15654b2bc347282f2172e14bfdfb03e0385875a8a4e00e722"},"geometry":{"type":"Polygon","coordinates":[[[389896.0623901114,7272167.729580846],[389908.8887586125,7272193.829872931],[389902.95538759395,7272209.949649641],[389847.60234057135,7272237.905487563],[389806.3919779231,7272261.279254887],[389799.002168537,7272259.341873893],[389756.98295791686,7272201.63469008],[389778.20215083414,7272186.237739535],[389803.05614066275,7272165.664957747],[389838.79471627885,7272141.081887452],[389844.41100092174,7272141.953400137],[389867.6169369042,7272122.60680793],[389896.0623901114,7272167.729580846]]]}},{"type":"Feature","id":"gaborone:bofinet:6040~47316","properties":{"provisionalSourceRowReference":["6040",47316],"sourceId":"gaborone-bofinet-plots-provisional","transportFid":46234,"lotId":"6040","objectId1":47316,"objectId":126580,"townLotI":6040,"extension":" ","srNo":" ","diagramNo":" ","geometrySha256":"55dd5e6d02a513a52a91c9d48e7a71c747da483c1290d4156036db06f9c94b9a"},"geometry":{"type":"Polygon","coordinates":[[[389981.34448491415,7272138.01539853],[389955.559048136,7272154.243885031],[389941.76830693684,7272132.331785993],[389967.5540515099,7272116.103005683],[389981.34448491415,7272138.01539853]]]}},{"type":"Feature","id":"gaborone:bofinet:6039~47317","properties":{"provisionalSourceRowReference":["6039",47317],"sourceId":"gaborone-bofinet-plots-provisional","transportFid":46235,"lotId":"6039","objectId1":47317,"objectId":126581,"townLotI":6039,"extension":" ","srNo":" ","diagramNo":" ","geometrySha256":"f6e0515e7c7457c96bde94503f50447f2a96d1888c65397ee303c104305ef68a"},"geometry":{"type":"Polygon","coordinates":[[[389995.13502115966,7272159.927689847],[389969.3497907671,7272176.155981038],[389955.559048136,7272154.243885031],[389981.34448491415,7272138.01539853],[389995.13502115966,7272159.927689847]]]}},{"type":"Feature","id":"gaborone:bofinet:6038~47320","properties":{"provisionalSourceRowReference":["6038",47320],"sourceId":"gaborone-bofinet-plots-provisional","transportFid":46238,"lotId":"6038","objectId1":47320,"objectId":126584,"townLotI":6038,"extension":" ","srNo":" ","diagramNo":" ","geometrySha256":"4a5cff1964a4d313fffb3826f115597a52fcdd67fc329bf64a170169186b7554"},"geometry":{"type":"Polygon","coordinates":[[[389995.13502115966,7272159.927689847],[389998.33879022195,7272165.055872521],[389996.42587655166,7272173.456274473],[390004.5357400599,7272186.351174824],[389982.0437060687,7272196.325233822],[389973.3162950491,7272182.538260212],[389969.3497907671,7272176.155981038],[389995.13502115966,7272159.927689847]]]}},{"type":"Feature","id":"gaborone:bofinet:REM%20OF%20LOT%20680~47321","properties":{"provisionalSourceRowReference":["REM OF LOT 680",47321],"sourceId":"gaborone-bofinet-plots-provisional","transportFid":46239,"lotId":"REM OF LOT 680","objectId1":47321,"objectId":126585,"townLotI":0,"extension":" ","srNo":" ","diagramNo":" ","geometrySha256":"8e15de94289b519b4702e0c0a7b6ff3ba131d188fd65eaf6f2431f0f097d45e2"},"geometry":{"type":"Polygon","coordinates":[[[389950.76779840875,7272210.004974646],[389950.73187913484,7272210.02064733],[389922.6021765273,7272152.768458653],[389888.60578378575,7272098.706465477],[389866.0726021461,7272070.325902642],[389867.2092087618,7272057.087705687],[389900.02522302454,7272027.8105632365],[389900.0907378858,7272027.88389934],[389920.38212332275,7272050.633619912],[389901.1471126364,7272067.788912344],[389913.0473023169,7272086.696732461],[389927.97736871685,7272110.419581061],[389941.76830693684,7272132.331785993],[389955.559048136,7272154.243885031],[389969.3497907671,7272176.155981038],[389973.3162950491,7272182.538260212],[389982.0437060687,7272196.325233822],[389950.76779840875,7272210.004974646]]]}},{"type":"Feature","id":"gaborone:bofinet:6037~47322","properties":{"provisionalSourceRowReference":["6037",47322],"sourceId":"gaborone-bofinet-plots-provisional","transportFid":46240,"lotId":"6037","objectId1":47322,"objectId":126586,"townLotI":6037,"extension":" ","srNo":" ","diagramNo":" ","geometrySha256":"80e639ef267248e4e3ff8dff58cf774a4b313610ccc79f98fc5c021896bbd57e"},"geometry":{"type":"Polygon","coordinates":[[[390028.052287058,7272242.170384127],[389998.5782532808,7272249.609961497],[389992.38224782166,7272225.078493385],[389992.57424907794,7272224.992712585],[390014.94430138444,7272215.129145667],[390015.0076928551,7272215.101176377],[390018.7249695847,7272229.835507307],[390026.0415775374,7272234.203305419],[390026.05177993374,7272234.244143729],[390028.052287058,7272242.170384127]]]}},{"type":"Feature","id":"gaborone:bofinet:24~31831","properties":{"provisionalSourceRowReference":["24",31831],"sourceId":"gaborone-bofinet-plots-provisional","transportFid":31084,"lotId":"24","objectId1":31831,"objectId":110941,"townLotI":24,"extension":" ","srNo":"10/1963","diagramNo":"44/1963","geometrySha256":"3670da3b4a080262bce7867be5808cf12b360fbccf04d4114999eb495240c1a9"},"geometry":{"type":"Polygon","coordinates":[[[390032.38616144704,7272703.591955391],[390017.0199387406,7272718.777157916],[390007.06772017345,7272720.694991218],[389953.26371197915,7272698.03692092],[389949.91404365876,7272690.013452712],[389959.7330000193,7272665.51169155],[390032.7352343863,7272682.424702602],[390032.38616144704,7272703.591955391]]]}},{"type":"Feature","id":"gaborone:bofinet:17938~32642","properties":{"provisionalSourceRowReference":["17938",32642],"sourceId":"gaborone-bofinet-plots-provisional","transportFid":31882,"lotId":"17938","objectId1":32642,"objectId":111754,"townLotI":17938,"extension":" ","srNo":"18/1986","diagramNo":"27/1986","geometrySha256":"8c79f6b26dd7005711d485cfcaa273434987cdbf0ae292881837b42abed8bc39"},"geometry":{"type":"Polygon","coordinates":[[[389819.8511008717,7272655.066230739],[389826.1921382733,7272659.697138803],[389853.8432427062,7272676.296470022],[389882.8811902822,7272690.335646607],[389905.8991814676,7272699.018775158],[389908.74496764265,7272706.54872923],[389887.58572930604,7272746.622663963],[389853.8423764343,7272796.959099116],[389811.0673333165,7272847.7194790505],[389762.79627369356,7272893.214847993],[389761.1686295229,7272894.461124359],[389671.2385153352,7272815.011213113],[389800.1626555913,7272640.912677929],[389819.8511008717,7272655.066230739]]]}},{"type":"Feature","id":"gaborone:bofinet:23~32724","properties":{"provisionalSourceRowReference":["23",32724],"sourceId":"gaborone-bofinet-plots-provisional","transportFid":31963,"lotId":"23","objectId1":32724,"objectId":111836,"townLotI":23,"extension":" ","srNo":"10/1963","diagramNo":"44/1963","geometrySha256":"8579566927d5c9036cba6e21a77a25a4a1859d9a5dca8396ed29f40f9d59a672"},"geometry":{"type":"Polygon","coordinates":[[[390032.9966837731,7272666.58062491],[390032.7352343863,7272682.424702602],[389959.7330000193,7272665.51169155],[389967.293336617,7272646.64510333],[389975.13215259765,7272619.016390432],[390033.524417483,7272634.588217075],[390032.9966837731,7272666.58062491]]]}},{"type":"Feature","id":"gaborone:bofinet:1092~2462","properties":{"provisionalSourceRowReference":["1092",2462],"sourceId":"gaborone-bofinet-plots-provisional","transportFid":2386,"lotId":"1092","objectId1":2462,"objectId":81427,"townLotI":1092,"extension":" ","srNo":"12/63","diagramNo":"46/1963","geometrySha256":"2c36126ce5c4f986f925cae4e3a50096c4e6b25bce63553cc08ac9ba7206fdfc"},"geometry":{"type":"Polygon","coordinates":[[[390113.7042728403,7272469.665930627],[390119.79762231844,7272469.755481765],[390119.4860703014,7272491.083831195],[390116.3944160825,7272494.086027592],[390113.3473414993,7272494.041246573],[390113.7042728403,7272469.665930627]]]}},{"type":"Feature","id":"gaborone:bofinet:1094~3550","properties":{"provisionalSourceRowReference":["1094",3550],"sourceId":"gaborone-bofinet-plots-provisional","transportFid":3441,"lotId":"1094","objectId1":3550,"objectId":82515,"townLotI":1094,"extension":" ","srNo":"12/63","diagramNo":"46/1963","geometrySha256":"82544297af4795ce39aec0d3c9fc9704ca408de6da087a2871e58d657fc5aee6"},"geometry":{"type":"Polygon","coordinates":[[[390180.3805353943,7272495.022094403],[390177.33355009084,7272494.978114488],[390174.3310560965,7272491.886356902],[390174.6433061972,7272470.558123466],[390180.73746509186,7272470.64688658],[390180.3805353943,7272495.022094403]]]}},{"type":"Feature","id":"gaborone:bofinet:1184~3677","properties":{"provisionalSourceRowReference":["1184",3677],"sourceId":"gaborone-bofinet-plots-provisional","transportFid":3566,"lotId":"1184","objectId1":3677,"objectId":82642,"townLotI":1184,"extension":" ","srNo":"12/63","diagramNo":"46/1963","geometrySha256":"ca229cf0770ba86602d92238afa513aa107a74dcc92680970334d32fd496df55"},"geometry":{"type":"Polygon","coordinates":[[[390114.33151433896,7272426.801143595],[390113.9744661726,7272451.177257593],[390107.88041830406,7272451.087595743],[390108.23735343147,7272426.712379126],[390114.33151433896,7272426.801143595]]]}},{"type":"Feature","id":"gaborone:bofinet:1201~4279","properties":{"provisionalSourceRowReference":["1201",4279],"sourceId":"gaborone-bofinet-plots-provisional","transportFid":4156,"lotId":"1201","objectId1":4279,"objectId":83244,"townLotI":1201,"extension":" ","srNo":"12/63","diagramNo":"46/1963","geometrySha256":"f06fc1f23214816acf56a458bdffae535f2ec9b134635940b755548fbc373839"},"geometry":{"type":"Polygon","coordinates":[[[390225.7950420592,7272401.004736293],[390228.79664594575,7272404.095681731],[390228.59604058287,7272417.80647287],[390225.50508660823,7272420.808676685],[390184.5230331414,7272420.209352018],[390181.5213283845,7272417.118404687],[390181.7220468782,7272403.406712197],[390184.8129032913,7272400.404406576],[390225.7950420592,7272401.004736293]]]}},{"type":"Feature","id":"gaborone:bofinet:1096~11690","properties":{"provisionalSourceRowReference":["1096",11690],"sourceId":"gaborone-bofinet-plots-provisional","transportFid":11400,"lotId":"1096","objectId1":11690,"objectId":90890,"townLotI":1096,"extension":" ","srNo":"12/63","diagramNo":"46/1963","geometrySha256":"aa097a59c69c8326ff5ac0b2914cf3ef88688eb294b86dc7ccbc854981b7c1f8"},"geometry":{"type":"Polygon","coordinates":[[[390192.92496959417,7272470.82530073],[390192.5681398839,7272495.200508524],[390186.473881391,7272495.111744706],[390186.8315107449,7272470.736547815],[390192.92496959417,7272470.82530073]]]}},{"type":"Feature","id":"gaborone:bofinet:1095~12586","properties":{"provisionalSourceRowReference":["1095",12586],"sourceId":"gaborone-bofinet-plots-provisional","transportFid":12270,"lotId":"1095","objectId1":12586,"objectId":91787,"townLotI":1095,"extension":" ","srNo":"12/63","diagramNo":"46/1963","geometrySha256":"054d13f1962175d66a5fa4063fe86660154a20b681d95f1fd536469c5400a49c"},"geometry":{"type":"Polygon","coordinates":[[[390186.8315107449,7272470.736547815],[390186.473881391,7272495.111744706],[390180.3805353943,7272495.022094403],[390180.73746509186,7272470.64688658],[390186.8315107449,7272470.736547815]]]}},{"type":"Feature","id":"gaborone:bofinet:1091~14119","properties":{"provisionalSourceRowReference":["1091",14119],"sourceId":"gaborone-bofinet-plots-provisional","transportFid":13761,"lotId":"1091","objectId1":14119,"objectId":92999,"townLotI":1091,"extension":" ","srNo":"12/63","diagramNo":"46/1963","geometrySha256":"02217c9b2b389fc9883a465d144234b68901557ea6214341ea82f28d137e07e4"},"geometry":{"type":"Polygon","coordinates":[[[390113.7042728403,7272469.665930627],[390113.3473414993,7272494.041246573],[390107.2539816288,7272493.952395848],[390107.6102118571,7272469.577168921],[390113.7042728403,7272469.665930627]]]}},{"type":"Feature","id":"gaborone:bofinet:1175~14537","properties":{"provisionalSourceRowReference":["1175",14537],"sourceId":"gaborone-bofinet-plots-provisional","transportFid":14172,"lotId":"1175","objectId1":14537,"objectId":93463,"townLotI":1175,"extension":" ","srNo":"12/63","diagramNo":"46/1963","geometrySha256":"9c8ef7f7c885617c214d05be416fd36d218b78a952ca40a39ed122f9f82e9496"},"geometry":{"type":"Polygon","coordinates":[[[390211.83426196175,7272428.228417318],[390211.4774270782,7272452.603622765],[390205.384068752,7272452.514870757],[390205.74011712795,7272428.13875334],[390211.83426196175,7272428.228417318]]]}},{"type":"Feature","id":"gaborone:bofinet:1181~20290","properties":{"provisionalSourceRowReference":["1181",20290],"sourceId":"gaborone-bofinet-plots-provisional","transportFid":19809,"lotId":"1181","objectId1":20290,"objectId":99453,"townLotI":1181,"extension":" ","srNo":"12/63","diagramNo":"46/1963","geometrySha256":"dca5d06733a5574e19cd607eb6cc7ee621434180825e86295849aef6a9642d27"},"geometry":{"type":"Polygon","coordinates":[[[390148.2482725987,7272399.870120149],[390172.6240858327,7272400.226868786],[390175.62638872926,7272403.317925195],[390175.31423141144,7272424.646159923],[390169.1315224016,7272430.650557824],[390147.8028813057,7272430.33869629],[390148.2482725987,7272399.870120149]]]}},{"type":"Feature","id":"gaborone:bofinet:1182~22289","properties":{"provisionalSourceRowReference":["1182",22289],"sourceId":"gaborone-bofinet-plots-provisional","transportFid":21763,"lotId":"1182","objectId1":22289,"objectId":101501,"townLotI":1182,"extension":" ","srNo":"12/63","diagramNo":"46/1963","geometrySha256":"0b512568aada91b4c39b876485b91572ae9696159b956a3730e153f6179ee1f0"},"geometry":{"type":"Polygon","coordinates":[[[390148.2482725987,7272399.870120149],[390147.8028813057,7272430.33869629],[390126.47424084623,7272430.026634797],[390120.46945613826,7272423.842919013],[390120.78181495273,7272402.514581395],[390123.87267085974,7272399.512374822],[390148.2482725987,7272399.870120149]]]}},{"type":"Feature","id":"gaborone:bofinet:1099~24527","properties":{"provisionalSourceRowReference":["1099",24527],"sourceId":"gaborone-bofinet-plots-provisional","transportFid":23947,"lotId":"1099","objectId1":24527,"objectId":103471,"townLotI":1099,"extension":" ","srNo":"12/63","diagramNo":"46/1963","geometrySha256":"98ac05831439b913fe3c82ce364eb123c95bce6c977d8d7dcbe0bcfa938a98d7"},"geometry":{"type":"Polygon","coordinates":[[[390211.20742075704,7272471.093189277],[390210.8496915179,7272495.468381739],[390204.75564367865,7272495.37892117],[390205.1131759407,7272471.003525147],[390211.20742075704,7272471.093189277]]]}},{"type":"Feature","id":"gaborone:bofinet:1176~25741","properties":{"provisionalSourceRowReference":["1176",25741],"sourceId":"gaborone-bofinet-plots-provisional","transportFid":25140,"lotId":"1176","objectId1":25741,"objectId":104788,"townLotI":1176,"extension":" ","srNo":"12/63","diagramNo":"46/1963","geometrySha256":"d27c5021dd441de561079f4218cbd57602e5ddacd8e1a34b429479117f656ca5"},"geometry":{"type":"Polygon","coordinates":[[[390205.74011712795,7272428.13875334],[390205.384068752,7272452.514870757],[390199.29002075654,7272452.4254088765],[390199.64685858705,7272428.0500020385],[390205.74011712795,7272428.13875334]]]}},{"type":"Feature","id":"gaborone:bofinet:686~25804","properties":{"provisionalSourceRowReference":["686",25804],"sourceId":"gaborone-bofinet-plots-provisional","transportFid":25202,"lotId":"686","objectId1":25804,"objectId":104851,"townLotI":686,"extension":" ","srNo":"11/1963","diagramNo":"48/1963","geometrySha256":"02d5a24bbff1b2f091aff2c24877113524c174a39cd5d2b4ff35229a074d6315"},"geometry":{"type":"Polygon","coordinates":[[[390203.71868329134,7272358.056613291],[390203.4513200765,7272376.295482796],[390197.2679976477,7272382.300769206],[390166.79824278946,7272381.854255967],[390167.1548688509,7272357.521431217],[390203.71868329134,7272358.056613291]]]}},{"type":"Feature","id":"gaborone:bofinet:684~26321","properties":{"provisionalSourceRowReference":["684",26321],"sourceId":"gaborone-bofinet-plots-provisional","transportFid":25704,"lotId":"684","objectId1":26321,"objectId":105369,"townLotI":684,"extension":" ","srNo":"11/1963","diagramNo":"48/1963","geometrySha256":"6459afc9a218b55a9ae70dc80619c11cde58f1d4bf2df3797e1c6497144df302"},"geometry":{"type":"Polygon","coordinates":[[[390142.9793661596,7272343.45377606],[390142.42261712364,7272381.498307625],[390118.04720149684,7272381.141462546],[390118.60375073267,7272343.096923431],[390142.9793661596,7272343.45377606]]]}},{"type":"Feature","id":"gaborone:bofinet:1180~30445","properties":{"provisionalSourceRowReference":["1180",30445],"sourceId":"gaborone-bofinet-plots-provisional","transportFid":29728,"lotId":"1180","objectId1":30445,"objectId":109506,"townLotI":1180,"extension":" ","srNo":"12/63","diagramNo":"46/1963","geometrySha256":"6ab8371a8af774408fd01be3e37a94fecfa922c17e94e3041b105590c7467065"},"geometry":{"type":"Polygon","coordinates":[[[390181.36440640024,7272427.782109547],[390181.00755832833,7272452.158218288],[390174.9142121764,7272452.068566676],[390175.2264810815,7272430.739333804],[390178.31742257683,7272427.738028655],[390181.36440640024,7272427.782109547]]]}},{"type":"Feature","id":"gaborone:bofinet:1177~31670","properties":{"provisionalSourceRowReference":["1177",31670],"sourceId":"gaborone-bofinet-plots-provisional","transportFid":30927,"lotId":"1177","objectId1":31670,"objectId":110780,"townLotI":1177,"extension":" ","srNo":"12/63","diagramNo":"46/1963","geometrySha256":"ad543ea1453f54db3b7bb169dbc06e2d6f2f7ec89a3d949a944f5c6e7505fa31"},"geometry":{"type":"Polygon","coordinates":[[[390199.64685858705,7272428.0500020385],[390199.29002075654,7272452.4254088765],[390193.1958624318,7272452.336645212],[390193.55261342746,7272427.960336596],[390199.64685858705,7272428.0500020385]]]}},{"type":"Feature","id":"gaborone:bofinet:685~38860","properties":{"provisionalSourceRowReference":["685",38860],"sourceId":"gaborone-bofinet-plots-provisional","transportFid":37961,"lotId":"685","objectId1":38860,"objectId":117834,"townLotI":685,"extension":" ","srNo":"11/1963","diagramNo":"48/1963","geometrySha256":"4de42bc9e218b165b4a8bd4a3d024b49e073d3b6efb9120f91fa29330266c59e"},"geometry":{"type":"Polygon","coordinates":[[[390167.1548688509,7272357.521431217],[390166.79824278946,7272381.854255967],[390142.42261712364,7272381.498307625],[390142.9793661596,7272343.45377606],[390167.3554914865,7272343.809736322],[390167.1548688509,7272357.521431217]]]}},{"type":"Feature","id":"gaborone:bofinet:1183~39306","properties":{"provisionalSourceRowReference":["1183",39306],"sourceId":"gaborone-bofinet-plots-provisional","transportFid":38397,"lotId":"1183","objectId1":39306,"objectId":118280,"townLotI":1183,"extension":" ","srNo":"12/63","diagramNo":"46/1963","geometrySha256":"69fc3693935d1bfa8ce567ae7b8a7b80e4c8420e3984b73143805759c9b82f23"},"geometry":{"type":"Polygon","coordinates":[[[390114.33151433896,7272426.801143595],[390117.3784874894,7272426.846024137],[390120.3801933658,7272429.936972307],[390120.0686254562,7272451.2661212655],[390113.9744661726,7272451.177257593],[390114.33151433896,7272426.801143595]]]}},{"type":"Feature","id":"gaborone:bofinet:1178~39881","properties":{"provisionalSourceRowReference":["1178",39881],"sourceId":"gaborone-bofinet-plots-provisional","transportFid":38962,"lotId":"1178","objectId1":39881,"objectId":118855,"townLotI":1178,"extension":" ","srNo":"12/63","diagramNo":"46/1963","geometrySha256":"5e8cbd3ca5f48854063688dbe639b6f23b520be540a23540be009ef851cc2235"},"geometry":{"type":"Polygon","coordinates":[[[390193.55261342746,7272427.960336596],[390193.1958624318,7272452.336645212],[390187.1017170235,7272452.246981962],[390187.4585548881,7272427.871573638],[390193.55261342746,7272427.960336596]]]}},{"type":"Feature","id":"gaborone:bofinet:1097~40864","properties":{"provisionalSourceRowReference":["1097",40864],"sourceId":"gaborone-bofinet-plots-provisional","transportFid":39920,"lotId":"1097","objectId1":40864,"objectId":119884,"townLotI":1097,"extension":" ","srNo":"12/63","diagramNo":"46/1963","geometrySha256":"65ba1012deb5ae6baf2184737e0687cad9a09bc22d50cb46328772ddd9832a71"},"geometry":{"type":"Polygon","coordinates":[[[390199.01901778806,7272470.91476205],[390198.6621851835,7272495.290169008],[390192.5681398839,7272495.200508524],[390192.92496959417,7272470.82530073],[390199.01901778806,7272470.91476205]]]}},{"type":"Feature","id":"gaborone:bofinet:1098~44608","properties":{"provisionalSourceRowReference":["1098",44608],"sourceId":"gaborone-bofinet-plots-provisional","transportFid":43577,"lotId":"1098","objectId1":44608,"objectId":123819,"townLotI":1098,"extension":" ","srNo":"12/63","diagramNo":"46/1963","geometrySha256":"410e5e03280ec7afdc1d830c4dd13e107cf93c2a1098d8fed3b030cb6098c2d7"},"geometry":{"type":"Polygon","coordinates":[[[390205.1131759407,7272471.003525147],[390204.75564367865,7272495.37892117],[390198.6621851835,7272495.290169008],[390199.01901778806,7272470.91476205],[390205.1131759407,7272471.003525147]]]}},{"type":"Feature","id":"gaborone:bofinet:1179~45926","properties":{"provisionalSourceRowReference":["1179",45926],"sourceId":"gaborone-bofinet-plots-provisional","transportFid":44865,"lotId":"1179","objectId1":45926,"objectId":125184,"townLotI":1179,"extension":" ","srNo":"12/63","diagramNo":"46/1963","geometrySha256":"d0752bfe5136d2a1aef39642b8ef8a6a90cef085056b8987e5900b3fac2533fc"},"geometry":{"type":"Polygon","coordinates":[[[390187.4585548881,7272427.871573638],[390187.1017170235,7272452.246981962],[390181.00755832833,7272452.158218288],[390181.36440640024,7272427.782109547],[390187.4585548881,7272427.871573638]]]}}]}