{
  "type": "FeatureCollection",
  "features": [
    {
      "type": "Feature",
      "id": 80,
      "properties": {
        "OBJECTID": 80,
        "lis_key": "002000504/R",
        "parcel_label": "R/504",
        "status_lu_text": "Registered",
        "type_lu_text": "Subdivided",
        "geometrySha256": "d8674989271f257eab582a496d0698c325bb9b79b0c083c25a9b98b7aa006f5f"
      },
      "geometry": {
        "type": "Polygon",
        "coordinates": [
          [
            [
              28.228703820852967,
              -25.74820236055569
            ],
            [
              28.228756414559854,
              -25.748825695286527
            ],
            [
              28.228939472425576,
              -25.74881303578061
            ],
            [
              28.228886888612053,
              -25.748189700572848
            ],
            [
              28.228703820852967,
              -25.74820236055569
            ]
          ]
        ]
      }
    },
    {
      "type": "Feature",
      "id": 230,
      "properties": {
        "OBJECTID": 230,
        "lis_key": "002000485/1",
        "parcel_label": "1/485",
        "status_lu_text": "Registered",
        "type_lu_text": "Subdivided",
        "geometrySha256": "9b68edd954713408520fd4b9cc5ec96891994169e55cbc3e1814bd3024420302"
      },
      "geometry": {
        "type": "Polygon",
        "coordinates": [
          [
            [
              28.228266322195616,
              -25.747380390777984
            ],
            [
              28.228318911518272,
              -25.748003815204584
            ],
            [
              28.228501967518714,
              -25.74799115563846
            ],
            [
              28.228449386813587,
              -25.747367730728197
            ],
            [
              28.228266322195616,
              -25.747380390777984
            ]
          ]
        ]
      }
    },
    {
      "type": "Feature",
      "id": 271,
      "properties": {
        "OBJECTID": 271,
        "lis_key": "002000511/R",
        "parcel_label": "R/511",
        "status_lu_text": "Registered",
        "type_lu_text": "Subdivided",
        "geometrySha256": "1de7a63ff96203a54fe25cee442f571029391cb57fae9f4a41b865fc5c08f088"
      },
      "geometry": {
        "type": "Polygon",
        "coordinates": [
          [
            [
              28.227971749127512,
              -25.748253000390047
            ],
            [
              28.22760562344314,
              -25.748278320179185
            ],
            [
              28.227641445507356,
              -25.748703355404892
            ],
            [
              28.22783706623037,
              -25.748689761084414
            ],
            [
              28.227829115695684,
              -25.748595676463754
            ],
            [
              28.22799961034674,
              -25.74858385152269
            ],
            [
              28.227971749127512,
              -25.748253000390047
            ]
          ]
        ]
      }
    }
  ]
}
