{"type":"FeatureCollection","features":[{"type":"Feature","id":231360,"geometry":{"type":"Polygon","coordinates":[[[26.213265756731,-29.1172530709015],[26.213547241499,-29.1173001720064],[26.2134401142171,-29.1177083867493],[26.2127252534843,-29.117568159516],[26.213265756731,-29.1172530709015]]]},"properties":{"OBJECTID":231360,"SG_CODE":"F00300030000213000000","PARCEL_NR":"2130","SG_CODE_1":"F00300030000213000000","LPI":"F0030003"}},{"type":"Feature","id":172769,"geometry":{"type":"Polygon","coordinates":[[[26.2133641925121,-29.1183713854164],[26.2133000095873,-29.1186366776716],[26.2132413352412,-29.1187324095895],[26.2131953297351,-29.1187965576093],[26.213100064506,-29.1188942435577],[26.2129358532882,-29.1190058720074],[26.2128349679739,-29.1190866513942],[26.2127567180844,-29.1191681563389],[26.2113077353716,-29.1188829464503],[26.2114893124988,-29.1181920591446],[26.2114997062307,-29.1181525211172],[26.2115146848497,-29.1180955231997],[26.2115239294771,-29.1180603548613],[26.2115395554546,-29.1180009158535],[26.2133641925121,-29.1183713854164]]]},"properties":{"OBJECTID":172769,"SG_CODE":"F00300030002479700000","PARCEL_NR":"24797","SG_CODE_1":"F00300030002479700000","LPI":"F0030003"}},{"type":"Feature","id":190396,"geometry":{"type":"Polygon","coordinates":[[[26.2129313714294,-29.1194635279305],[26.2129070453517,-29.1194586622419],[26.2127981365932,-29.1194368803851],[26.2126113605056,-29.1193995243327],[26.2126803639794,-29.1192655371086],[26.2127567180844,-29.1191681563389],[26.2128349679739,-29.1190866513942],[26.2129358532882,-29.1190058720074],[26.213100064506,-29.1188942435577],[26.2131953297351,-29.1187965576093],[26.2132413352412,-29.1187324095895],[26.2133000095873,-29.1186366776716],[26.2133641925121,-29.1183713854164],[26.2136404088945,-29.1184335948453],[26.2135224005107,-29.1188755610733],[26.213491468489,-29.1189434604426],[26.2133350556091,-29.1190634676165],[26.2130273794406,-29.1192995348363],[26.2129313714294,-29.1194635279305]]]},"properties":{"OBJECTID":190396,"SG_CODE":"F00300030002479700001","PARCEL_NR":"1/24797","SG_CODE_1":"F00300030002479700001","LPI":"F0030003"}}]}
