{"type":"FeatureCollection","features":[{"type":"Feature","id":80,"geometry":{"type":"Polygon","coordinates":[[[28.228703820852967,-25.74820236055569],[28.228756414559854,-25.748825695286527],[28.228939472425576,-25.74881303578061],[28.228886888612053,-25.748189700572848],[28.228703820852967,-25.74820236055569]]]},"properties":{"OBJECTID":80}},{"type":"Feature","id":230,"geometry":{"type":"Polygon","coordinates":[[[28.228266322195616,-25.747380390777984],[28.228318911518272,-25.748003815204584],[28.228501967518714,-25.74799115563846],[28.228449386813587,-25.747367730728197],[28.228266322195616,-25.747380390777984]]]},"properties":{"OBJECTID":230}},{"type":"Feature","id":247,"geometry":{"type":"Polygon","coordinates":[[[28.23016816043554,-25.74810107720112],[28.230220761113866,-25.748724414470214],[28.230377206773312,-25.748713598493232],[28.230403818716404,-25.748711753693726],[28.230351226666933,-25.748088414207963],[28.23016816043554,-25.74810107720112]]]},"properties":{"OBJECTID":247}}]}
