{"type":"FeatureCollection","features":[{"type":"Feature","geometry":{"type":"Polygon","coordinates":[[[25.91295327997731,-24.65895551306646,0,null],[25.913022929745186,-24.658954622275008,0,null],[25.913038475174453,-24.658954422200466,0,null],[25.912954002837328,-24.658954941772,0,null],[25.91295327997731,-24.65895551306646,0,null]]]},"properties":{"OBJECTID":88540}},{"type":"Feature","geometry":{"type":"Polygon","coordinates":[[[25.91334738370183,-24.656928130235993,0,null],[25.91329216376762,-24.656653228269956,0,null],[25.912713984642014,-24.656789666219346,0,null],[25.91280594855641,-24.65709509789617,0,null],[25.912828575767353,-24.657220198105943,0,null],[25.913374564399263,-24.65706345296489,0,null],[25.91334738370183,-24.656928130235993,0,null]]]},"properties":{"OBJECTID":102501}},{"type":"Feature","geometry":{"type":"Polygon","coordinates":[[[25.913263201672347,-24.658787941653344,0,null],[25.913293102033332,-24.6587602371661,0,null],[25.913292501312522,-24.658677693305208,0,null],[25.913262186633908,-24.658650362917818,0,null],[25.91297761365537,-24.658652102127007,0,null],[25.912978626413015,-24.658789681788132,0,null],[25.913263201672347,-24.658787941653344,0,null]]]},"properties":{"OBJECTID":103820}}]}
