{
  "type": "FeatureCollection",
  "features": [
    {
      "type": "Feature",
      "id": "SC-MLH-V5940",
      "geometry": {
        "type": "Polygon",
        "coordinates": [
          [
            [
              55.449467554821595,
              -4.620092669098103
            ],
            [
              55.44942296752625,
              -4.619998251259682
            ],
            [
              55.44938364157133,
              -4.620012179827577
            ],
            [
              55.44920306436406,
              -4.620079611364057
            ],
            [
              55.44923944667807,
              -4.6201777190613065
            ],
            [
              55.449247775075,
              -4.620200166804722
            ],
            [
              55.44937331274986,
              -4.6201620973376745
            ],
            [
              55.44938566737676,
              -4.620158687864804
            ],
            [
              55.44937905105267,
              -4.620133894383914
            ],
            [
              55.449467554821595,
              -4.620092669098103
            ]
          ]
        ],
        "crs": null
      },
      "properties": {
        "parcelId": "SC-MLH-V5940",
        "id": "SC-MLH-V5940",
        "sourceId": "sc-mlh-current-parcels-arcgis",
        "sourceParcelId": "V5940",
        "parcelNumber": "V5940",
        "cadMunicipalityName": null,
        "ownershipType": "unknown",
        "sourceProperties": {
          "objectid": 28191517,
          "id": "V5940",
          "validfrom": 564091200000,
          "validtill": 253402300799000
        }
      }
    },
    {
      "type": "Feature",
      "id": "SC-MLH-V5711",
      "geometry": {
        "type": "Polygon",
        "coordinates": [
          [
            [
              55.449247775075,
              -4.620200166804722
            ],
            [
              55.44933006735527,
              -4.620403643223122
            ],
            [
              55.44933275747136,
              -4.620410341249241
            ],
            [
              55.44945587163076,
              -4.620367744759347
            ],
            [
              55.44937331274986,
              -4.6201620973376745
            ],
            [
              55.449247775075,
              -4.620200166804722
            ]
          ]
        ],
        "crs": null
      },
      "properties": {
        "parcelId": "SC-MLH-V5711",
        "id": "SC-MLH-V5711",
        "sourceId": "sc-mlh-current-parcels-arcgis",
        "sourceParcelId": "V5711",
        "parcelNumber": "V5711",
        "cadMunicipalityName": null,
        "ownershipType": "unknown",
        "sourceProperties": {
          "objectid": 28191612,
          "id": "V5711",
          "validfrom": 564091200000,
          "validtill": 253402300799000
        }
      }
    },
    {
      "type": "Feature",
      "id": "SC-MLH-V529",
      "geometry": {
        "type": "Polygon",
        "coordinates": [
          [
            [
              55.449507786924364,
              -4.621279210281115
            ],
            [
              55.44950761373254,
              -4.621275547311902
            ],
            [
              55.449271435942954,
              -4.621292304302746
            ],
            [
              55.449271791453505,
              -4.621299991093379
            ],
            [
              55.449281522302066,
              -4.621508553924673
            ],
            [
              55.449283141216604,
              -4.621542019069418
            ],
            [
              55.44946578357594,
              -4.621529757093758
            ],
            [
              55.44951646885707,
              -4.6215138611399835
            ],
            [
              55.44951587139389,
              -4.621498485997037
            ],
            [
              55.449507786924364,
              -4.621279210281115
            ]
          ]
        ],
        "crs": null
      },
      "properties": {
        "parcelId": "SC-MLH-V529",
        "id": "SC-MLH-V529",
        "sourceId": "sc-mlh-current-parcels-arcgis",
        "sourceParcelId": "V529",
        "parcelNumber": "V529",
        "cadMunicipalityName": null,
        "ownershipType": "unknown",
        "sourceProperties": {
          "objectid": 28192359,
          "id": "V529",
          "validfrom": 483220800000,
          "validtill": 253402300799000
        }
      }
    }
  ]
}
