{"type":"FeatureCollection","crs":{"type":"name","properties":{"name":"EPSG:31982"}},"features":[{"type":"Feature","id":502134,"geometry":{"type":"Polygon","coordinates":[[[492320.78199999966,10004692.5558],[492321.42289999966,10004700.5772],[492322.6009999998,10004715.3217],[492323.0703999996,10004721.1963],[492323.1793999998,10004722.5607],[492308.52969999984,10004723.491],[492305.27249999996,10004691.3693],[492315.3995000003,10004690.658],[492315.57919999957,10004690.6454],[492316.06159999967,10004690.6115],[492320.4304999998,10004690.3047],[492320.4497999996,10004690.3033],[492320.6012000004,10004690.2927],[492320.78199999966,10004692.5558]]]},"properties":{"idlote":502134}},{"type":"Feature","id":502135,"geometry":{"type":"Polygon","coordinates":[[[492308.52969999984,10004723.491],[492304.8360000001,10004723.6663],[492293.5943999998,10004724.1999],[492292.3710000003,10004724.258],[492291.5086000003,10004708.6641],[492290.64190000016,10004692.9935],[492290.6091,10004692.3992],[492300.7893000003,10004691.6842],[492305.27249999996,10004691.3693],[492308.52969999984,10004723.491]]]},"properties":{"idlote":502135}},{"type":"Feature","id":502136,"geometry":{"type":"Polygon","coordinates":[[[492344.4813000001,10004709.422],[492344.66309999954,10004711.4764],[492345.26489999983,10004718.279],[492345.5181999998,10004721.1421],[492338.1860999996,10004721.6077],[492335.2801000001,10004721.7923],[492334.77080000006,10004716.2065],[492334.2611999996,10004710.6175],[492334.24289999995,10004710.417],[492332.3328,10004689.4688],[492342.6518000001,10004688.744],[492344.4813000001,10004709.422]]]},"properties":{"idlote":502136}}],"exceededTransferLimit":true,"name":"Bounded nearby parcel samples from Macapá municipal SIT configured physical-lot layer 27"}
