{
  "type": "FeatureCollection",
  "name": "Orange County Property Appraiser public parcel geometry at exact WUP point",
  "features": [
    {
      "type": "Feature",
      "id": 167862,
      "properties": {
        "OBJECTID": 167862
      },
      "geometry": {
        "type": "Polygon",
        "coordinates": [
          [
            [
              -81.3221797593182,
              28.577701628306173,
              0
            ],
            [
              -81.3223807149206,
              28.57770115551748,
              0
            ],
            [
              -81.32251511120988,
              28.57765771251413,
              0
            ],
            [
              -81.32261159807233,
              28.57755004087795,
              0
            ],
            [
              -81.32272361582514,
              28.577563499057636,
              0
            ],
            [
              -81.32285067800186,
              28.577548688102336,
              0
            ],
            [
              -81.32303132507398,
              28.577552552385107,
              0
            ],
            [
              -81.32325717451118,
              28.57750303472481,
              0
            ],
            [
              -81.32345302675115,
              28.577430350294737,
              0
            ],
            [
              -81.32357480009867,
              28.577343499598044,
              0
            ],
            [
              -81.32373993251444,
              28.577105219690782,
              0
            ],
            [
              -81.32382789032553,
              28.577073949533553,
              0
            ],
            [
              -81.32402047791528,
              28.576996402160546,
              0
            ],
            [
              -81.32412530538144,
              28.576961606697605,
              0
            ],
            [
              -81.32441820810074,
              28.576843028919956,
              0
            ],
            [
              -81.3246220598046,
              28.576660045366975,
              0
            ],
            [
              -81.32460480189991,
              28.57532344898759,
              0
            ],
            [
              -81.32655514929354,
              28.57530521270791,
              0
            ],
            [
              -81.32658761536642,
              28.575271929440646,
              0
            ],
            [
              -81.32669998908324,
              28.575045236183975,
              0
            ],
            [
              -81.32689128103046,
              28.57479117251583,
              0
            ],
            [
              -81.32705136129114,
              28.574562689287664,
              0
            ],
            [
              -81.32710948836309,
              28.5742890487279,
              0
            ],
            [
              -81.32713789450322,
              28.5740431824676,
              0
            ],
            [
              -81.3271161879144,
              28.573970906985995,
              0
            ],
            [
              -81.32716245905804,
              28.573814450929497,
              0
            ],
            [
              -81.32725683065298,
              28.573763807038443,
              0
            ],
            [
              -81.32740660246269,
              28.573452583973626,
              0
            ],
            [
              -81.32744839525158,
              28.573217031534053,
              0
            ],
            [
              -81.32753212885488,
              28.573010725499078,
              0
            ],
            [
              -81.32770062092497,
              28.572817667716713,
              0
            ],
            [
              -81.32776139853632,
              28.57275035719691,
              0
            ],
            [
              -81.32782029550701,
              28.57257133179739,
              0
            ],
            [
              -81.32791046984698,
              28.57230678297333,
              0
            ],
            [
              -81.32791507639836,
              28.572264158918607,
              0
            ],
            [
              -81.32790160897244,
              28.572101794937026,
              0
            ],
            [
              -81.32788834866378,
              28.5719419317313,
              0
            ],
            [
              -81.32788831251669,
              28.57183235726968,
              0
            ],
            [
              -81.32778549742288,
              28.57171234109565,
              0
            ],
            [
              -81.32775953111745,
              28.571642551997236,
              0
            ],
            [
              -81.32769135634372,
              28.5714593235848,
              0
            ],
            [
              -81.32763910224745,
              28.571410214561595,
              0
            ],
            [
              -81.32763894745148,
              28.571410068756492,
              0
            ],
            [
              -81.32755586464003,
              28.571331987854297,
              0
            ],
            [
              -81.32756359377349,
              28.571240793317628,
              0
            ],
            [
              -81.32748220138947,
              28.57113947938921,
              0
            ],
            [
              -81.32736634003305,
              28.57095614659245,
              0
            ],
            [
              -81.32721158416417,
              28.570737338193894,
              0
            ],
            [
              -81.32711908175565,
              28.57062244626548,
              0
            ],
            [
              -81.32699927212418,
              28.570411033755146,
              0
            ],
            [
              -81.32698079768062,
              28.570384480937964,
              0
            ],
            [
              -81.32689697723441,
              28.570245244492067,
              0
            ],
            [
              -81.32689746831242,
              28.57022885593849,
              0
            ],
            [
              -81.3268262407992,
              28.570123026168996,
              0
            ],
            [
              -81.32661488636727,
              28.56982766538522,
              0
            ],
            [
              -81.32647543097062,
              28.56969463528485,
              0
            ],
            [
              -81.32643835821469,
              28.56960321288524,
              0
            ],
            [
              -81.32633338034081,
              28.569564789313883,
              0
            ],
            [
              -81.32604682609747,
              28.5693091073849,
              0
            ],
            [
              -81.32574391323718,
              28.569122830489494,
              0
            ],
            [
              -81.32549768151617,
              28.569019332887343,
              0
            ],
            [
              -81.32524660866389,
              28.568995005913564,
              0
            ],
            [
              -81.32511033670583,
              28.568950022385753,
              0
            ],
            [
              -81.32489281020199,
              28.5688950810483,
              0
            ],
            [
              -81.3246694077076,
              28.5688221490503,
              0
            ],
            [
              -81.32437544076998,
              28.568743386608546,
              0
            ],
            [
              -81.32430678797782,
              28.56873941255304,
              0
            ],
            [
              -81.32397089904153,
              28.568674603913447,
              0
            ],
            [
              -81.32378771022799,
              28.568632493097823,
              0
            ],
            [
              -81.32361537510545,
              28.568633696395302,
              0
            ],
            [
              -81.32353731157893,
              28.568583890231327,
              0
            ],
            [
              -81.32326963917248,
              28.5685395843805,
              0
            ],
            [
              -81.32315385605162,
              28.56853877911925,
              0
            ],
            [
              -81.32295619461527,
              28.56855091145641,
              0
            ],
            [
              -81.32292921071067,
              28.568561312861284,
              0
            ],
            [
              -81.32280337310526,
              28.56851332987225,
              0
            ],
            [
              -81.32251369749629,
              28.568453436422914,
              0
            ],
            [
              -81.32224451717964,
              28.568410134627005,
              0
            ],
            [
              -81.32203098319222,
              28.568360432621365,
              0
            ],
            [
              -81.32180980239923,
              28.568322647555746,
              0
            ],
            [
              -81.32151408434851,
              28.568325050247925,
              0
            ],
            [
              -81.32133259691516,
              28.568306839550836,
              0
            ],
            [
              -81.32113772923691,
              28.568306213474685,
              0
            ],
            [
              -81.32091591599884,
              28.568307785771196,
              0
            ],
            [
              -81.32063903111501,
              28.568315792469896,
              0
            ],
            [
              -81.32040562179142,
              28.56839054486419,
              0
            ],
            [
              -81.32039488486981,
              28.56840351155973,
              0
            ],
            [
              -81.32009070264729,
              28.568335077659096,
              0
            ],
            [
              -81.32002103671516,
              28.568243735735695,
              0
            ],
            [
              -81.31997336901804,
              28.5681956821653,
              0
            ],
            [
              -81.31982125024487,
              28.568166218412717,
              0
            ],
            [
              -81.31959175309228,
              28.568219919445937,
              0
            ],
            [
              -81.31946974838746,
              28.568228148179667,
              0
            ],
            [
              -81.31923487968086,
              28.56833095211639,
              0
            ],
            [
              -81.31917174050947,
              28.568238867114914,
              0
            ],
            [
              -81.31909106366801,
              28.568279156776615,
              0
            ],
            [
              -81.31886927173149,
              28.568284742891965,
              0
            ],
            [
              -81.31881151458927,
              28.568360256389546,
              0
            ],
            [
              -81.31885228265772,
              28.568484301735033,
              0
            ],
            [
              -81.31877292017016,
              28.568566717434113,
              0
            ],
            [
              -81.31859689803031,
              28.568623833759293,
              0
            ],
            [
              -81.31849478773938,
              28.568774758656318,
              0
            ],
            [
              -81.31849491617089,
              28.569078437887956,
              0
            ],
            [
              -81.31846102391397,
              28.569149183208292,
              0
            ],
            [
              -81.31838271876904,
              28.56909314037738,
              0
            ],
            [
              -81.31819597379528,
              28.569028743475887,
              0
            ],
            [
              -81.31806244076657,
              28.56893202796124,
              0
            ],
            [
              -81.31787075402201,
              28.568928756719856,
              0
            ],
            [
              -81.31787906539128,
              28.56896666617759,
              0
            ],
            [
              -81.31787878592877,
              28.569028763106648,
              0
            ],
            [
              -81.31770414357193,
              28.569198221684214,
              0
            ],
            [
              -81.31763647044612,
              28.569277472822094,
              0
            ],
            [
              -81.31764544393275,
              28.5693473190365,
              0
            ],
            [
              -81.31756654458738,
              28.569619237693207,
              0
            ],
            [
              -81.3176808660698,
              28.56970609097304,
              0
            ],
            [
              -81.31761039499432,
              28.56982515442933,
              0
            ],
            [
              -81.31754372410133,
              28.569853334388938,
              0
            ],
            [
              -81.31755045511576,
              28.57000117321062,
              0
            ],
            [
              -81.31742569452825,
              28.570140171735304,
              0
            ],
            [
              -81.31733031963932,
              28.57019113691512,
              0
            ],
            [
              -81.31721209231905,
              28.57021980901925,
              0
            ],
            [
              -81.31714967226442,
              28.570407554799264,
              0
            ],
            [
              -81.3170662237427,
              28.57060936119808,
              0
            ],
            [
              -81.31701727945578,
              28.570791418661226,
              0
            ],
            [
              -81.31697375719361,
              28.570966219461585,
              0
            ],
            [
              -81.31696383275884,
              28.571233800572468,
              0
            ],
            [
              -81.31688072072829,
              28.571309783916195,
              0
            ],
            [
              -81.31690068826214,
              28.57141583429795,
              0
            ],
            [
              -81.31689937475807,
              28.571595248502653,
              0
            ],
            [
              -81.31686122714781,
              28.57183612309291,
              0
            ],
            [
              -81.3168710465918,
              28.572104479191264,
              0
            ],
            [
              -81.31693075619053,
              28.572292211203916,
              0
            ],
            [
              -81.31703801110636,
              28.57231505783911,
              0
            ],
            [
              -81.31713704954508,
              28.572414455452538,
              0
            ],
            [
              -81.31713032603412,
              28.572563833491984,
              0
            ],
            [
              -81.3171522790699,
              28.57272883708347,
              0
            ],
            [
              -81.3167013265073,
              28.572736798560623,
              0
            ],
            [
              -81.31664978652188,
              28.57275230822067,
              0
            ],
            [
              -81.31666604342172,
              28.57281833952715,
              0
            ],
            [
              -81.3167132062013,
              28.572853912448046,
              0
            ],
            [
              -81.31675877975263,
              28.57294005882962,
              0
            ],
            [
              -81.31676288046442,
              28.573075124847648,
              0
            ],
            [
              -81.31681733224103,
              28.573206161681593,
              0
            ],
            [
              -81.31694084497963,
              28.57326256269127,
              0
            ],
            [
              -81.31702549970332,
              28.573370289160355,
              0
            ],
            [
              -81.31706396457152,
              28.573699856972013,
              0
            ],
            [
              -81.31712588603331,
              28.573757602712067,
              0
            ],
            [
              -81.31716790232596,
              28.573795076990805,
              0
            ],
            [
              -81.31710877212105,
              28.573949950904073,
              0
            ],
            [
              -81.31721844420791,
              28.574226331713213,
              0
            ],
            [
              -81.3173316967076,
              28.57431576568214,
              0
            ],
            [
              -81.31741439105686,
              28.57442381048311,
              0
            ],
            [
              -81.31751021105414,
              28.57462468777854,
              0
            ],
            [
              -81.31755255066172,
              28.574861907318198,
              0
            ],
            [
              -81.31769081294964,
              28.575048342472144,
              0
            ],
            [
              -81.31779929689448,
              28.57531248531451,
              0
            ],
            [
              -81.3179463672242,
              28.575492068860186,
              0
            ],
            [
              -81.31810670298644,
              28.575689993651118,
              0
            ],
            [
              -81.31818501283517,
              28.575834333054328,
              0
            ],
            [
              -81.31826933889874,
              28.57595503237542,
              0
            ],
            [
              -81.3183820964625,
              28.576082529020667,
              0
            ],
            [
              -81.31847647411679,
              28.576201507323255,
              0
            ],
            [
              -81.31856321451535,
              28.576333842752096,
              0
            ],
            [
              -81.31871164460418,
              28.576618744944284,
              0
            ],
            [
              -81.31881931082432,
              28.576721835896386,
              0
            ],
            [
              -81.31887823958631,
              28.576818429872663,
              0
            ],
            [
              -81.31906676467227,
              28.5768518469374,
              0
            ],
            [
              -81.31925952314114,
              28.57698219556484,
              0
            ],
            [
              -81.31942069445373,
              28.576958412315115,
              0
            ],
            [
              -81.31954375513372,
              28.576892408899788,
              0
            ],
            [
              -81.31985005026807,
              28.57698930217348,
              0
            ],
            [
              -81.3200563861943,
              28.577127200902197,
              0
            ],
            [
              -81.32023581537193,
              28.577152104380264,
              0
            ],
            [
              -81.32031703425041,
              28.577330834561277,
              0
            ],
            [
              -81.32038594778669,
              28.57733674910802,
              0
            ],
            [
              -81.32047250345671,
              28.577317331225757,
              0
            ],
            [
              -81.32059224203859,
              28.577081181744862,
              0
            ],
            [
              -81.32067998748987,
              28.57709856187122,
              0
            ],
            [
              -81.32089652797508,
              28.5770719750826,
              0
            ],
            [
              -81.32104087726977,
              28.577061187264572,
              0
            ],
            [
              -81.32115750752118,
              28.57724729007037,
              0
            ],
            [
              -81.32131825844887,
              28.577328380687927,
              0
            ],
            [
              -81.32152645132689,
              28.5773782433863,
              0
            ],
            [
              -81.32162758220169,
              28.57745216505577,
              0
            ],
            [
              -81.32167958577469,
              28.577580796368668,
              0
            ],
            [
              -81.32187337025877,
              28.57753361376814,
              0
            ],
            [
              -81.3221797593182,
              28.577701628306173,
              0
            ]
          ]
        ]
      }
    }
  ]
}
