{
  "type": "FeatureCollection",
  "name": "Poznań full parcel polygons from actual fixed GML WFS runtime qualification",
  "crs": {
    "type": "name",
    "properties": {
      "name": "urn:ogc:def:crs:OGC:1.3:CRS84"
    }
  },
  "features": [
    {
      "type": "Feature",
      "id": "PL-POZNAN-306401_1.0051.AR_44.27/14",
      "properties": {
        "parcelId": "PL-POZNAN-306401_1.0051.AR_44.27/14",
        "sourceParcelId": "306401_1.0051.AR_44.27/14"
      },
      "geometry": {
        "type": "Polygon",
        "coordinates": [
          [
            [
              16.91418935405431,
              52.40384059110984
            ],
            [
              16.914281241910988,
              52.403348002255356
            ],
            [
              16.914295960518245,
              52.40326922413242
            ],
            [
              16.91421238223189,
              52.40324382981555
            ],
            [
              16.91420343248772,
              52.40317741729906
            ],
            [
              16.914175744302323,
              52.40309016061907
            ],
            [
              16.914162929580268,
              52.40309139109157
            ],
            [
              16.914104752428614,
              52.40309678868997
            ],
            [
              16.91390768767603,
              52.40311502125704
            ],
            [
              16.913719903954266,
              52.40313828209548
            ],
            [
              16.913958804538986,
              52.403869840900896
            ],
            [
              16.91418935405431,
              52.40384059110984
            ]
          ],
          [
            [
              16.914091240947844,
              52.40335380689831
            ],
            [
              16.914105073072623,
              52.40328122226973
            ],
            [
              16.91420820051255,
              52.40328846100952
            ],
            [
              16.91421352870404,
              52.40330486782993
            ],
            [
              16.914203170286758,
              52.40336166576432
            ],
            [
              16.914091240947844,
              52.40335380689831
            ]
          ]
        ]
      }
    },
    {
      "type": "Feature",
      "id": "PL-POZNAN-306401_1.0051.AR_44.16",
      "properties": {
        "parcelId": "PL-POZNAN-306401_1.0051.AR_44.16",
        "sourceParcelId": "306401_1.0051.AR_44.16"
      },
      "geometry": {
        "type": "Polygon",
        "coordinates": [
          [
            [
              16.91673322682105,
              52.40562204094198
            ],
            [
              16.91673334845234,
              52.40561107688912
            ],
            [
              16.916654363967236,
              52.40561988022459
            ],
            [
              16.91649018024477,
              52.4056152298074
            ],
            [
              16.916256554163656,
              52.405589809820704
            ],
            [
              16.916082338342957,
              52.40556277701953
            ],
            [
              16.916082018064742,
              52.40556385262413
            ],
            [
              16.915944633988342,
              52.40553904476032
            ],
            [
              16.91594495206684,
              52.405538059014354
            ],
            [
              16.915776334337416,
              52.405498494113985
            ],
            [
              16.91577905386632,
              52.40549546318897
            ],
            [
              16.91566486862498,
              52.40547149690826
            ],
            [
              16.915417906178135,
              52.40537872386474
            ],
            [
              16.915183112234864,
              52.40527518667201
            ],
            [
              16.914967975500403,
              52.405161133891525
            ],
            [
              16.91484321694736,
              52.4050770309668
            ],
            [
              16.914667858927082,
              52.40495893871772
            ],
            [
              16.914504538153306,
              52.40478154707549
            ],
            [
              16.91449189136456,
              52.40473999698453
            ],
            [
              16.914434191380362,
              52.40457022602877
            ],
            [
              16.914421449862452,
              52.40453253983206
            ],
            [
              16.91441968020402,
              52.404532793216895
            ],
            [
              16.914408856615967,
              52.40450078697327
            ],
            [
              16.91441062627317,
              52.40450053358859
            ],
            [
              16.91435812378833,
              52.40434653904517
            ],
            [
              16.914355498651613,
              52.404333752196415
            ],
            [
              16.91418935405431,
              52.40384059110984
            ],
            [
              16.913958804538986,
              52.403869840900896
            ],
            [
              16.914063176758862,
              52.4041914860665
            ],
            [
              16.914062673657675,
              52.404211973734434
            ],
            [
              16.914054784884563,
              52.404234011370185
            ],
            [
              16.91407719471922,
              52.404296862511856
            ],
            [
              16.91410993456743,
              52.40433401341733
            ],
            [
              16.914260277526655,
              52.40478847159196
            ],
            [
              16.914279430078544,
              52.40484634945708
            ],
            [
              16.914314676948617,
              52.40491309333493
            ],
            [
              16.91432651975997,
              52.404933514625085
            ],
            [
              16.914389829260294,
              52.40504239954881
            ],
            [
              16.91442280283081,
              52.40504611772414
            ],
            [
              16.914487303383144,
              52.40509452533559
            ],
            [
              16.91455583273149,
              52.405140453305634
            ],
            [
              16.914653327633534,
              52.40520372407086
            ],
            [
              16.914738017961707,
              52.40525582215892
            ],
            [
              16.914771117961582,
              52.405314277367346
            ],
            [
              16.914931086274905,
              52.40534693355938
            ],
            [
              16.915030886812115,
              52.40539413692927
            ],
            [
              16.915281306276505,
              52.40550770442201
            ],
            [
              16.915452582163006,
              52.405576684663224
            ],
            [
              16.915497181563875,
              52.40559174399584
            ],
            [
              16.915550131405087,
              52.40560786857487
            ],
            [
              16.915816626512665,
              52.405671250465055
            ],
            [
              16.915852282078472,
              52.40567948675679
            ],
            [
              16.916177015728056,
              52.4057351330862
            ],
            [
              16.91644108987285,
              52.40577143796113
            ],
            [
              16.91673167633036,
              52.40581131068632
            ],
            [
              16.91673239525607,
              52.40567398304931
            ],
            [
              16.91673322682105,
              52.40562204094198
            ]
          ]
        ]
      }
    },
    {
      "type": "Feature",
      "id": "PL-POZNAN-306401_1.0051.AR_44.22/4",
      "properties": {
        "parcelId": "PL-POZNAN-306401_1.0051.AR_44.22/4",
        "sourceParcelId": "306401_1.0051.AR_44.22/4"
      },
      "geometry": {
        "type": "Polygon",
        "coordinates": [
          [
            [
              16.91427931515206,
              52.40309129163497
            ],
            [
              16.914230863999844,
              52.40308958834215
            ],
            [
              16.914175744302323,
              52.40309016061907
            ],
            [
              16.91420343248772,
              52.40317741729906
            ],
            [
              16.914239860926568,
              52.40317802151741
            ],
            [
              16.91427758733989,
              52.40317962630863
            ],
            [
              16.91431339061775,
              52.40318175269679
            ],
            [
              16.91435108394849,
              52.4031847053378
            ],
            [
              16.915999922379868,
              52.40340350064561
            ],
            [
              16.916034984087624,
              52.403411911203456
            ],
            [
              16.916064760573548,
              52.40342611539032
            ],
            [
              16.916085293907255,
              52.4034457174066
            ],
            [
              16.916196507854963,
              52.40333888291105
            ],
            [
              16.91483121041998,
              52.40315891446963
            ],
            [
              16.91443747940577,
              52.403107304451495
            ],
            [
              16.914368612289362,
              52.40309921212202
            ],
            [
              16.914323902391764,
              52.4030947569921
            ],
            [
              16.91427931515206,
              52.40309129163497
            ]
          ]
        ]
      }
    }
  ]
}
