{
  "type": "FeatureCollection",
  "features": [
    {
      "type": "Feature",
      "id": "GB-HMLR-CHERWELL-29458830",
      "properties": {
        "INSPIREID": "29458830"
      },
      "geometry": {
        "type": "Polygon",
        "coordinates": [
          [
            [
              -1.158685779118072,
              51.89857336512876
            ],
            [
              -1.1586870503542663,
              51.898573778812256
            ],
            [
              -1.1586113678865873,
              51.898655803006925
            ],
            [
              -1.1586100554039878,
              51.89865526315272
            ],
            [
              -1.1585657789368593,
              51.89863695554293
            ],
            [
              -1.1584662928650813,
              51.89874527924312
            ],
            [
              -1.1584656833319638,
              51.89877791250468
            ],
            [
              -1.1584645633328765,
              51.89883787499854
            ],
            [
              -1.1584641200338046,
              51.89886160827931
            ],
            [
              -1.158461131107447,
              51.89902162812426
            ],
            [
              -1.1584603889090692,
              51.89906136338841
            ],
            [
              -1.158457604810296,
              51.899210415575965
            ],
            [
              -1.158457384835243,
              51.899222192316806
            ],
            [
              -1.158530485577661,
              51.899237999683145
            ],
            [
              -1.158717886258067,
              51.89890792786744
            ],
            [
              -1.1589122980582185,
              51.89869416948321
            ],
            [
              -1.1588903662476704,
              51.89868718855809
            ],
            [
              -1.1588166245580043,
              51.898663716432196
            ],
            [
              -1.1588157492968203,
              51.89866388999968
            ],
            [
              -1.1588138618493173,
              51.89866378660228
            ],
            [
              -1.1588119794372078,
              51.898663413508444
            ],
            [
              -1.158810676616165,
              51.89866313446682
            ],
            [
              -1.1588095207909976,
              51.89866276656474
            ],
            [
              -1.1588060566725231,
              51.898661483060806
            ],
            [
              -1.1588030234709068,
              51.8986604723683
            ],
            [
              -1.158800135586822,
              51.89865946271407
            ],
            [
              -1.158794363175989,
              51.89865726360783
            ],
            [
              -1.1588081088600037,
              51.89864264343095
            ],
            [
              -1.1588290606270715,
              51.898620378378205
            ],
            [
              -1.1588271688880336,
              51.89861972649451
            ],
            [
              -1.1588017383132119,
              51.89861098527444
            ],
            [
              -1.158801709417634,
              51.898610976076895
            ],
            [
              -1.1587029910120021,
              51.89857703960918
            ],
            [
              -1.1587016698238684,
              51.89857852268669
            ],
            [
              -1.158685779118072,
              51.89857336512876
            ]
          ]
        ]
      }
    },
    {
      "type": "Feature",
      "id": "GB-HMLR-CHERWELL-29460140",
      "properties": {
        "INSPIREID": "29460140"
      },
      "geometry": {
        "type": "Polygon",
        "coordinates": [
          [
            [
              -1.1582925265724744,
              51.89899896104386
            ],
            [
              -1.15832906532544,
              51.89901058700853
            ],
            [
              -1.1583879259970051,
              51.89902932264811
            ],
            [
              -1.1584381331948517,
              51.89904681856681
            ],
            [
              -1.1584400323988664,
              51.899044737221985
            ],
            [
              -1.1584605989748968,
              51.8990501170501
            ],
            [
              -1.158461131107447,
              51.89902162812426
            ],
            [
              -1.1584640738567928,
              51.89886408049605
            ],
            [
              -1.1584658672992134,
              51.898862214180674
            ],
            [
              -1.1584641200338046,
              51.89886160827931
            ],
            [
              -1.1584083577000026,
              51.898921324011916
            ],
            [
              -1.1584049324247476,
              51.89892574111826
            ],
            [
              -1.1583605551652556,
              51.89897272593009
            ],
            [
              -1.158350534492866,
              51.89898476527304
            ],
            [
              -1.1583302101411388,
              51.89900921056721
            ],
            [
              -1.1583272355582448,
              51.8990081733084
            ],
            [
              -1.158361065112565,
              51.89897110219049
            ],
            [
              -1.1583181793136672,
              51.89895614012176
            ],
            [
              -1.1582925265724744,
              51.89899896104386
            ]
          ]
        ]
      }
    },
    {
      "type": "Feature",
      "id": "GB-HMLR-CHERWELL-29587058",
      "properties": {
        "INSPIREID": "29587058"
      },
      "geometry": {
        "type": "Polygon",
        "coordinates": [
          [
            [
              -1.1455445348972104,
              51.888727650401975
            ],
            [
              -1.145305077044039,
              51.88884234674454
            ],
            [
              -1.1452385401115517,
              51.888876146681895
            ],
            [
              -1.145298843757855,
              51.888918186383464
            ],
            [
              -1.1454586956023556,
              51.888859106562485
            ],
            [
              -1.1456250833221033,
              51.888797088917656
            ],
            [
              -1.1455445348972104,
              51.888727650401975
            ]
          ]
        ]
      }
    }
  ],
  "scope": "Full unchanged source geometries; registered freehold-property index reference only."
}
