{
  "type": "FeatureCollection",
  "features": [
    {
      "type": "Feature",
      "id": "GB-HMLR-OXFORD-25667609",
      "properties": {
        "INSPIREID": "25667609"
      },
      "geometry": {
        "type": "Polygon",
        "coordinates": [
          [
            [
              -1.2637101511916229,
              51.75350769212366
            ],
            [
              -1.2637454102919057,
              51.753530103297685
            ],
            [
              -1.2637965904585726,
              51.7535605444233
            ],
            [
              -1.2638207318145283,
              51.75356284447912
            ],
            [
              -1.2638421003948932,
              51.75356282541177
            ],
            [
              -1.2638490461236749,
              51.753563318458845
            ],
            [
              -1.263870788969106,
              51.753562555456035
            ],
            [
              -1.2638819486401964,
              51.753562265670105
            ],
            [
              -1.2639744186555648,
              51.75355960767941
            ],
            [
              -1.2639944252840039,
              51.75355870790835
            ],
            [
              -1.2639188941075397,
              51.75355044868694
            ],
            [
              -1.263831541032676,
              51.75354133316495
            ],
            [
              -1.26382680991729,
              51.753551652467756
            ],
            [
              -1.263820720130227,
              51.753550193723854
            ],
            [
              -1.2637993824418197,
              51.75354385617026
            ],
            [
              -1.263778782185468,
              51.75353671401793
            ],
            [
              -1.26375862819096,
              51.75352885535658
            ],
            [
              -1.2637331598817105,
              51.75351817612961
            ],
            [
              -1.2637101511916229,
              51.75350769212366
            ]
          ]
        ]
      }
    },
    {
      "type": "Feature",
      "id": "GB-HMLR-OXFORD-25667969",
      "properties": {
        "INSPIREID": "25667969"
      },
      "geometry": {
        "type": "Polygon",
        "coordinates": [
          [
            [
              -1.2638127454898247,
              51.751562988336474
            ],
            [
              -1.2638178078812958,
              51.751563469594615
            ],
            [
              -1.2638235872096282,
              51.75156440490363
            ],
            [
              -1.2638286422957163,
              51.75156533567798
            ],
            [
              -1.2638336900764122,
              51.75156671596878
            ],
            [
              -1.2638409398071955,
              51.75156631179568
            ],
            [
              -1.2638331119460926,
              51.75155772110087
            ],
            [
              -1.2638067387185683,
              51.751531481358484
            ],
            [
              -1.2637974843041575,
              51.75152153304218
            ],
            [
              -1.263777527004548,
              51.751501627337916
            ],
            [
              -1.2637732619237858,
              51.75149665544609
            ],
            [
              -1.263768989537719,
              51.75149213307077
            ],
            [
              -1.263764724458759,
              51.751487161178616
            ],
            [
              -1.2637611763156014,
              51.751482643337816
            ],
            [
              -1.2637569112383942,
              51.751477671445386
            ],
            [
              -1.2637421113390177,
              51.75145240327882
            ],
            [
              -1.2637378974123794,
              51.75144428476895
            ],
            [
              -1.2637350662091564,
              51.75144022097898
            ],
            [
              -1.263732959246853,
              51.75143616172393
            ],
            [
              -1.2637308595914905,
              51.75143165295217
            ],
            [
              -1.2637294768702318,
              51.75142759823207
            ],
            [
              -1.2637287818563931,
              51.751425795630354
            ],
            [
              -1.263728094149217,
              51.75142354351196
            ],
            [
              -1.2637267041218359,
              51.751419938308494
            ],
            [
              -1.263726016414843,
              51.751417686190074
            ],
            [
              -1.26372532140128,
              51.751415883588315
            ],
            [
              -1.2637241947664009,
              51.751413898458885
            ],
            [
              -1.2637216928941384,
              51.75141631042976
            ],
            [
              -1.2637187520935078,
              51.75141898938953
            ],
            [
              -1.2637165355327058,
              51.75142167288431
            ],
            [
              -1.263713594731418,
              51.751424351843966
            ],
            [
              -1.2637113781700375,
              51.751427035338665
            ],
            [
              -1.2637025338425527,
              51.75143642076698
            ],
            [
              -1.2637017730677338,
              51.75143866381516
            ],
            [
              -1.263700295359243,
              51.75144045281145
            ],
            [
              -1.2636995345842401,
              51.7514426958596
            ],
            [
              -1.2636980568755234,
              51.75144448485588
            ],
            [
              -1.2636950649230074,
              51.75145031043175
            ],
            [
              -1.2636897906424447,
              51.751462865151815
            ],
            [
              -1.2636890079454828,
              51.75146645674991
            ],
            [
              -1.263688920261303,
              51.751471850949926
            ],
            [
              -1.2636910053002939,
              51.751477258755735
            ],
            [
              -1.263692424554491,
              51.75147906589291
            ],
            [
              -1.2636931195676802,
              51.75148086849482
            ],
            [
              -1.263694546129054,
              51.75148222611529
            ],
            [
              -1.263695241142375,
              51.7514840287172
            ],
            [
              -1.2636994989064532,
              51.75148945012852
            ],
            [
              -1.2637044516854328,
              51.75149667414151
            ],
            [
              -1.2637101360142926,
              51.751503453172795
            ],
            [
              -1.263715813038089,
              51.75151068172045
            ],
            [
              -1.263732112571741,
              51.75153281234343
            ],
            [
              -1.263739938948065,
              51.75154149294824
            ],
            [
              -1.2637420692966197,
              51.75154411374977
            ],
            [
              -1.263745653974991,
              51.75154638400778
            ],
            [
              -1.2637470805399929,
              51.75154774162762
            ],
            [
              -1.2637492313472902,
              51.75154910378235
            ],
            [
              -1.2637513894611383,
              51.75155001642036
            ],
            [
              -1.2637549741404448,
              51.75155228667808
            ],
            [
              -1.2637571322545709,
              51.75155319931601
            ],
            [
              -1.2637600073047461,
              51.75155456600538
            ],
            [
              -1.2637643235334977,
              51.75155639128097
            ],
            [
              -1.2637664889542677,
              51.75155685440204
            ],
            [
              -1.2637722609744702,
              51.75155823923028
            ],
            [
              -1.2637744263954171,
              51.75155870235119
            ],
            [
              -1.2637773233649625,
              51.75155872049014
            ],
            [
              -1.2637787645435923,
              51.75155917907627
            ],
            [
              -1.2637888893250275,
              51.751560141595206
            ],
            [
              -1.263793227473493,
              51.751560618319736
            ],
            [
              -1.2637982825585166,
              51.75156154909538
            ],
            [
              -1.2638127454898247,
              51.751562988336474
            ]
          ]
        ]
      }
    },
    {
      "type": "Feature",
      "id": "GB-HMLR-OXFORD-25668111",
      "properties": {
        "INSPIREID": "25668111"
      },
      "geometry": {
        "type": "Polygon",
        "coordinates": [
          [
            [
              -1.2638279812842772,
              51.7535491062878
            ],
            [
              -1.263831541032676,
              51.75354133316495
            ],
            [
              -1.2639188941075397,
              51.75355044868694
            ],
            [
              -1.2639944252840039,
              51.75355870790835
            ],
            [
              -1.2641063461547906,
              51.75355368997904
            ],
            [
              -1.2641665412574106,
              51.753549121505834
            ],
            [
              -1.2642260193761976,
              51.75354409895313
            ],
            [
              -1.2643515378476287,
              51.753531397439744
            ],
            [
              -1.2644531406131023,
              51.75351944531507
            ],
            [
              -1.2645598351382863,
              51.75350617626282
            ],
            [
              -1.2646629374260234,
              51.75349108640013
            ],
            [
              -1.2647595065932031,
              51.75347685472096
            ],
            [
              -1.2648038185968342,
              51.75346903966978
            ],
            [
              -1.264854670930174,
              51.75345991680597
            ],
            [
              -1.264864395157232,
              51.7534588087403
            ],
            [
              -1.2648771890540125,
              51.753456011528506
            ],
            [
              -1.2648675705528993,
              51.75343275398235
            ],
            [
              -1.264869652504981,
              51.75342944023796
            ],
            [
              -1.2648743264491427,
              51.75340923915785
            ],
            [
              -1.264875891725302,
              51.75340205594775
            ],
            [
              -1.264877449705256,
              51.75339532225431
            ],
            [
              -1.264879014980424,
              51.75338813904417
            ],
            [
              -1.264879066050351,
              51.75338499242767
            ],
            [
              -1.264879848687682,
              51.75338140082258
            ],
            [
              -1.264879987305829,
              51.7533728600064
            ],
            [
              -1.26487929221705,
              51.75337105741178
            ],
            [
              -1.2648793286955349,
              51.753368809828565
            ],
            [
              -1.264877243429567,
              51.753363402044684
            ],
            [
              -1.2648709438600287,
              51.75334987579267
            ],
            [
              -1.2648492137553147,
              51.7533052332718
            ],
            [
              -1.2648161726358047,
              51.75324343665991
            ],
            [
              -1.2647762318641367,
              51.75316046746945
            ],
            [
              -1.2647174146749374,
              51.75303557093407
            ],
            [
              -1.2647055545848642,
              51.753007623907585
            ],
            [
              -1.2646916530676982,
              51.75297157199252
            ],
            [
              -1.2646895824369568,
              51.7529652651718
            ],
            [
              -1.2646866807455748,
              51.752955716305486
            ],
            [
              -1.264686459927072,
              51.75295504058116
            ],
            [
              -1.2646405002683576,
              51.752954618293394
            ],
            [
              -1.2645883677963932,
              51.752953393124926
            ],
            [
              -1.2645240793574777,
              51.75295137259977
            ],
            [
              -1.2644985954563686,
              51.75295058381026
            ],
            [
              -1.2644992175301037,
              51.75295688157354
            ],
            [
              -1.2644781992499026,
              51.75295764922434
            ],
            [
              -1.264266661403118,
              51.75291496606925
            ],
            [
              -1.2642826230048485,
              51.7528687610242
            ],
            [
              -1.2640652198248945,
              51.75287504309719
            ],
            [
              -1.264048968568368,
              51.752876649719184
            ],
            [
              -1.2640202908867735,
              51.75288519173212
            ],
            [
              -1.2639326847257604,
              51.7529104482316
            ],
            [
              -1.2639259748692029,
              51.75291238430225
            ],
            [
              -1.2638907032601134,
              51.75295227344594
            ],
            [
              -1.2638108621153523,
              51.753042576184136
            ],
            [
              -1.2638051118857536,
              51.753049643266365
            ],
            [
              -1.263665112308189,
              51.753221578390665
            ],
            [
              -1.2636617866775788,
              51.7532300992484
            ],
            [
              -1.26366232029824,
              51.75323024644999
            ],
            [
              -1.2636612883444418,
              51.7532313459109
            ],
            [
              -1.2636579812901159,
              51.75323961512996
            ],
            [
              -1.2636472147368778,
              51.753266521443976
            ],
            [
              -1.263635209357692,
              51.75329655794361
            ],
            [
              -1.2636414382373435,
              51.753305498284824
            ],
            [
              -1.2636409575287177,
              51.75334397780618
            ],
            [
              -1.2636382244556326,
              51.75335169316184
            ],
            [
              -1.26363809039145,
              51.75346687017851
            ],
            [
              -1.2637101511916229,
              51.75350769212366
            ],
            [
              -1.2637331598817105,
              51.75351817612961
            ],
            [
              -1.26375862819096,
              51.75352885535658
            ],
            [
              -1.263778782185468,
              51.75353671401793
            ],
            [
              -1.2637993824418197,
              51.75354385617026
            ],
            [
              -1.263820720130227,
              51.753550193723854
            ],
            [
              -1.26382680991729,
              51.753551652467756
            ],
            [
              -1.2638279812842772,
              51.7535491062878
            ]
          ]
        ]
      }
    }
  ],
  "scope": "Full unchanged source geometries; registered freehold-property index reference only."
}
