{
  "type": "FeatureCollection",
  "name": "Podbrežje – rekonstrukcija UPU-a – javni park Z1",
  "bbox": [
    15.967575214,
    45.764305336,
    15.975727852,
    45.767113214
  ],
  "reconstruction": {
    "schema": "consensus-builder.structure-reconstruction.v1",
    "proposal": {
      "proposalId": "reconstruction-podbrezje-park-z1-538",
      "city": "zagreb",
      "name": "Podbrežje – rekonstrukcija UPU-a – javni park Z1",
      "title": "Podbrežje – rekonstrukcija UPU-a – javni park Z1",
      "description": "Javni park Z1 (37264 m²) iz službenoga kartografskog prikaza plana. Arhivski je referentni sloj i pri primjeni ne simulira novu parcelaciju ni prijenos vlasništva.",
      "author": "zagreb.lol – lokalna analiza",
      "type": "structure",
      "goal": "park",
      "primaryType": "Park",
      "lifecycleStatus": "Active",
      "createdAt": "2026-08-14T00:01:00.000Z",
      "updatedAt": "2026-08-14T00:01:00.000Z",
      "tags": [
        "park",
        "research",
        "reconstruction",
        "neighbourhood-plan",
        "official-plan-footprint",
        "reference-overlay"
      ],
      "parentParcelIds": [
        "HR-335495-1556/1",
        "HR-335495-1557/3",
        "HR-335495-1556/10",
        "HR-335495-2457",
        "HR-335495-2477",
        "HR-335495-1553/1",
        "HR-335495-1555/5",
        "HR-335495-2453",
        "HR-335495-1558/2",
        "HR-335495-2480",
        "HR-335495-1558/10",
        "HR-335495-2463",
        "HR-335495-1558/4",
        "HR-335495-2452",
        "HR-335495-1557/5",
        "HR-335495-1557/13",
        "HR-335495-1557/14",
        "HR-335495-2476",
        "HR-335495-2465",
        "HR-335495-1550/8",
        "HR-335495-2484",
        "HR-335495-2481",
        "HR-335495-1557/7",
        "HR-335495-1557/6",
        "HR-335495-1557/4",
        "HR-335495-1557/9",
        "HR-335495-1557/8",
        "HR-335495-1557/10",
        "HR-335495-1557/16",
        "HR-335495-1556/5",
        "HR-335495-1557/19",
        "HR-335495-1556/16",
        "HR-335495-1556/4",
        "HR-335495-2458",
        "HR-335495-1556/9",
        "HR-335495-1558/3",
        "HR-335495-2479",
        "HR-335495-2455",
        "HR-335495-2454",
        "HR-335495-1556/3",
        "HR-335495-1556/12",
        "HR-335495-1556/18",
        "HR-335495-1555/1",
        "HR-335495-2451",
        "HR-335495-2461"
      ],
      "cadastreParcelIds": [
        "HR-335495-1556/1",
        "HR-335495-1557/3",
        "HR-335495-1556/10",
        "HR-335495-2457",
        "HR-335495-2477",
        "HR-335495-1553/1",
        "HR-335495-1555/5",
        "HR-335495-2453",
        "HR-335495-1558/2",
        "HR-335495-2480",
        "HR-335495-1558/10",
        "HR-335495-2463",
        "HR-335495-1558/4",
        "HR-335495-2452",
        "HR-335495-1557/5",
        "HR-335495-1557/13",
        "HR-335495-1557/14",
        "HR-335495-2476",
        "HR-335495-2465",
        "HR-335495-1550/8",
        "HR-335495-2484",
        "HR-335495-2481",
        "HR-335495-1557/7",
        "HR-335495-1557/6",
        "HR-335495-1557/4",
        "HR-335495-1557/9",
        "HR-335495-1557/8",
        "HR-335495-1557/10",
        "HR-335495-1557/16",
        "HR-335495-1556/5",
        "HR-335495-1557/19",
        "HR-335495-1556/16",
        "HR-335495-1556/4",
        "HR-335495-2458",
        "HR-335495-1556/9",
        "HR-335495-1558/3",
        "HR-335495-2479",
        "HR-335495-2455",
        "HR-335495-2454",
        "HR-335495-1556/3",
        "HR-335495-1556/12",
        "HR-335495-1556/18",
        "HR-335495-1555/1",
        "HR-335495-2451",
        "HR-335495-2461"
      ],
      "parcelIds": [
        "HR-335495-1556/1",
        "HR-335495-1557/3",
        "HR-335495-1556/10",
        "HR-335495-2457",
        "HR-335495-2477",
        "HR-335495-1553/1",
        "HR-335495-1555/5",
        "HR-335495-2453",
        "HR-335495-1558/2",
        "HR-335495-2480",
        "HR-335495-1558/10",
        "HR-335495-2463",
        "HR-335495-1558/4",
        "HR-335495-2452",
        "HR-335495-1557/5",
        "HR-335495-1557/13",
        "HR-335495-1557/14",
        "HR-335495-2476",
        "HR-335495-2465",
        "HR-335495-1550/8",
        "HR-335495-2484",
        "HR-335495-2481",
        "HR-335495-1557/7",
        "HR-335495-1557/6",
        "HR-335495-1557/4",
        "HR-335495-1557/9",
        "HR-335495-1557/8",
        "HR-335495-1557/10",
        "HR-335495-1557/16",
        "HR-335495-1556/5",
        "HR-335495-1557/19",
        "HR-335495-1556/16",
        "HR-335495-1556/4",
        "HR-335495-2458",
        "HR-335495-1556/9",
        "HR-335495-1558/3",
        "HR-335495-2479",
        "HR-335495-2455",
        "HR-335495-2454",
        "HR-335495-1556/3",
        "HR-335495-1556/12",
        "HR-335495-1556/18",
        "HR-335495-1555/1",
        "HR-335495-2451",
        "HR-335495-2461"
      ],
      "acceptedParcelIds": [],
      "bounds": [
        15.967575214,
        45.764305336,
        15.975727852,
        45.767113214
      ],
      "source": {
        "planName": "UPU Podbrežje",
        "planYears": "UPU 2007.; izmjene 2011.",
        "implementationStatus": "četiri stambena bloka izvedena; A11 u gradnji; ostatak plana fazno neizveden",
        "sources": [
          "https://zagreb.hr/izmjene-i-dopune-urbanistickog-plana-ure%C4%91enja-podb/89126",
          "https://www.log-urbis.hr/development-podbrezje",
          "https://www.zgh.hr/podbrezje/najcesca-pitanja-faq/4506",
          "https://zagreb.hr/gradonacelnik-tomasevic-obisao-radove-na-zgradi-za/217781",
          "https://data.zagreb.hr/dataset/geoportal-urbanisticki-planovi-uredenja"
        ],
        "coordinateSystem": "lokalni izvori u HTRS96/TM (EPSG:3765), izvoz za aplikaciju u WGS84",
        "geometryBasis": "Grad Zagreb – službena planirana namjena površina",
        "officialLandUseObjectId": 538,
        "officialLandUseCode": "Z1",
        "officialLandUseName": "Javni park",
        "officialLandUseGroup": "Javne zelene površine",
        "areaM2": 37263.63708586819,
        "applicationSemantics": "referenceOnly: prikaz bez nove parcelacije ili prijenosa vlasništva"
      }
    },
    "structureProposal": {
      "kind": "park",
      "blockName": "Podbrežje – rekonstrukcija UPU-a – Z1 1",
      "parentParcelIds": [
        "HR-335495-1556/1",
        "HR-335495-1557/3",
        "HR-335495-1556/10",
        "HR-335495-2457",
        "HR-335495-2477",
        "HR-335495-1553/1",
        "HR-335495-1555/5",
        "HR-335495-2453",
        "HR-335495-1558/2",
        "HR-335495-2480",
        "HR-335495-1558/10",
        "HR-335495-2463",
        "HR-335495-1558/4",
        "HR-335495-2452",
        "HR-335495-1557/5",
        "HR-335495-1557/13",
        "HR-335495-1557/14",
        "HR-335495-2476",
        "HR-335495-2465",
        "HR-335495-1550/8",
        "HR-335495-2484",
        "HR-335495-2481",
        "HR-335495-1557/7",
        "HR-335495-1557/6",
        "HR-335495-1557/4",
        "HR-335495-1557/9",
        "HR-335495-1557/8",
        "HR-335495-1557/10",
        "HR-335495-1557/16",
        "HR-335495-1556/5",
        "HR-335495-1557/19",
        "HR-335495-1556/16",
        "HR-335495-1556/4",
        "HR-335495-2458",
        "HR-335495-1556/9",
        "HR-335495-1558/3",
        "HR-335495-2479",
        "HR-335495-2455",
        "HR-335495-2454",
        "HR-335495-1556/3",
        "HR-335495-1556/12",
        "HR-335495-1556/18",
        "HR-335495-1555/1",
        "HR-335495-2451",
        "HR-335495-2461"
      ],
      "referenceOnly": true,
      "applied": false
    }
  },
  "features": [
    {
      "type": "Feature",
      "properties": {
        "id": "plan-site:podbrezje",
        "name": "UPU Podbrežje",
        "source": "Grad Zagreb – planirana namjena površina",
        "areaM2": 194283.10389678026,
        "featureCount": 23,
        "consensus:role": "site"
      },
      "geometry": {
        "type": "Polygon",
        "coordinates": [
          [
            [
              15.967171475,
              45.76637601
            ],
            [
              15.966953221,
              45.76653291
            ],
            [
              15.966681023,
              45.766486702
            ],
            [
              15.966662929,
              45.76648363
            ],
            [
              15.965800551,
              45.767103569
            ],
            [
              15.965808076,
              45.767103808
            ],
            [
              15.965942231,
              45.767108083
            ],
            [
              15.966083914,
              45.767112527
            ],
            [
              15.966225603,
              45.767116899
            ],
            [
              15.966416011,
              45.767108737
            ],
            [
              15.966673538,
              45.767097699
            ],
            [
              15.966673925,
              45.767097683
            ],
            [
              15.966815658,
              45.767099746
            ],
            [
              15.967664915,
              45.767112108
            ],
            [
              15.967740843,
              45.767113214
            ],
            [
              15.976621774,
              45.767242103
            ],
            [
              15.976623085,
              45.767242121
            ],
            [
              15.976634691,
              45.76684937
            ],
            [
              15.976689437,
              45.764996679
            ],
            [
              15.976689456,
              45.764996041
            ],
            [
              15.974216705,
              45.764923783
            ],
            [
              15.974062907,
              45.764919287
            ],
            [
              15.973611081,
              45.764886452
            ],
            [
              15.973165603,
              45.76482425
            ],
            [
              15.972730365,
              45.764733224
            ],
            [
              15.972309163,
              45.764614166
            ],
            [
              15.971905675,
              45.764468119
            ],
            [
              15.971523422,
              45.764296355
            ],
            [
              15.971165738,
              45.764100375
            ],
            [
              15.971018283,
              45.764007771
            ],
            [
              15.97087634,
              45.763911042
            ],
            [
              15.970816915,
              45.763867109
            ],
            [
              15.970763038,
              45.763827276
            ],
            [
              15.970740141,
              45.763810349
            ],
            [
              15.970714274,
              45.763828946
            ],
            [
              15.970600113,
              45.763911027
            ],
            [
              15.97011523,
              45.764259647
            ],
            [
              15.96810771,
              45.765702945
            ],
            [
              15.967575214,
              45.766085762
            ],
            [
              15.967171475,
              45.76637601
            ]
          ]
        ]
      }
    },
    {
      "type": "Feature",
      "properties": {
        "consensus:role": "structure-footprint"
      },
      "geometry": {
        "type": "MultiPolygon",
        "coordinates": [
          [
            [
              [
                15.967750197,
                45.76679837
              ],
              [
                15.967771283,
                45.766088624
              ],
              [
                15.968478841,
                45.766098918
              ],
              [
                15.969295649,
                45.766110796
              ],
              [
                15.969303766,
                45.765837332
              ],
              [
                15.970008107,
                45.765847571
              ],
              [
                15.969978936,
                45.766830781
              ],
              [
                15.970397949,
                45.766836869
              ],
              [
                15.970419002,
                45.766127123
              ],
              [
                15.971126561,
                45.766137401
              ],
              [
                15.971943369,
                45.76614926
              ],
              [
                15.971951473,
                45.765875796
              ],
              [
                15.972655815,
                45.765886018
              ],
              [
                15.972626691,
                45.766869229
              ],
              [
                15.973045705,
                45.766875308
              ],
              [
                15.973066724,
                45.76616556
              ],
              [
                15.973774283,
                45.766175822
              ],
              [
                15.974591092,
                45.766187662
              ],
              [
                15.974599183,
                45.765914199
              ],
              [
                15.975303526,
                45.765924404
              ],
              [
                15.975274448,
                45.766907615
              ],
              [
                15.975693463,
                45.766913684
              ],
              [
                15.975727852,
                45.765750563
              ],
              [
                15.974889841,
                45.765738423
              ],
              [
                15.974185501,
                45.765728215
              ],
              [
                15.974205241,
                45.765061184
              ],
              [
                15.973829074,
                45.765047886
              ],
              [
                15.973814882,
                45.765047368
              ],
              [
                15.973800691,
                45.765046818
              ],
              [
                15.973786503,
                45.765046237
              ],
              [
                15.973760078,
                45.765938932
              ],
              [
                15.973052522,
                45.76592867
              ],
              [
                15.973058942,
                45.765711878
              ],
              [
                15.97224214,
                45.765700027
              ],
              [
                15.9715378,
                45.765689803
              ],
              [
                15.971572354,
                45.764524038
              ],
              [
                15.971430793,
                45.764454882
              ],
              [
                15.97129316,
                45.764381945
              ],
              [
                15.971159662,
                45.764305336
              ],
              [
                15.971112368,
                45.76590051
              ],
              [
                15.970404812,
                45.765890232
              ],
              [
                15.970409375,
                45.765736409
              ],
              [
                15.96810771,
                45.765702945
              ],
              [
                15.967575214,
                45.766085762
              ],
              [
                15.967695356,
                45.766087518
              ],
              [
                15.967664915,
                45.767112108
              ],
              [
                15.967740843,
                45.767113214
              ],
              [
                15.967750197,
                45.76679837
              ]
            ]
          ]
        ]
      }
    }
  ]
}
