{
  "type": "FeatureCollection",
  "features": [
    {
      "type": "Feature",
      "geometry": {
        "type": "MultiPolygon",
        "coordinates": [
          [
            [
              [-103.729258222498714, 19.252096305866697],
              [-103.729442551935023, 19.251917143535334],
              [-103.729508568373674, 19.25196775010712],
              [-103.729500572753395, 19.251981250819266],
              [-103.729482116493287, 19.252012452981209],
              [-103.729470686629739, 19.252031730751632],
              [-103.729447647996054, 19.252070785624326],
              [-103.729422259371674, 19.252110838878995],
              [-103.72940555709296, 19.252137265202929],
              [-103.729399425419018, 19.25214690796746],
              [-103.729348931276391, 19.252226688427118],
              [-103.729258222498714, 19.252096305866697]
            ]
          ]
        ]
      },
      "properties": {"id": "020104070014000"}
    }
  ]
}
