{
  "type": "FeatureCollection",
  "features": [
    {
      "type": "Feature",
      "id": "5BUP4497",
      "properties": {
        "id": "5BUP4497"
      },
      "geometry": {
        "type": "MultiPolygon",
        "coordinates": [
          [
            [
              [
                153.424771378495,
                -28.0424931177984
              ],
              [
                153.424892285589,
                -28.0424747528571
              ],
              [
                153.424903133768,
                -28.0425317642694
              ],
              [
                153.424782225567,
                -28.0425501220023
              ],
              [
                153.424771378495,
                -28.0424931177984
              ]
            ]
          ],
          [
            [
              [
                153.424639361094,
                -28.0425125785662
              ],
              [
                153.4247507246,
                -28.04249524887
              ],
              [
                153.424775468882,
                -28.0426252763706
              ],
              [
                153.424853065904,
                -28.042613489831
              ],
              [
                153.424856724903,
                -28.0426327197825
              ],
              [
                153.424945482758,
                -28.0426192412954
              ],
              [
                153.424955354499,
                -28.042671142772
              ],
              [
                153.424865322726,
                -28.0426846125679
              ],
              [
                153.424864472951,
                -28.0426801576133
              ],
              [
                153.424753191059,
                -28.0426968092149
              ],
              [
                153.424741181435,
                -28.0426336873266
              ],
              [
                153.424664619505,
                -28.0426453108235
              ],
              [
                153.424639361094,
                -28.0425125785662
              ]
            ]
          ]
        ]
      }
    },
    {
      "type": "Feature",
      "id": "00000BUP4497",
      "properties": {
        "id": "00000BUP4497"
      },
      "geometry": {
        "type": "MultiPolygon",
        "coordinates": [
          [
            [
              [
                153.424771378495,
                -28.0424931177984
              ],
              [
                153.424892285589,
                -28.0424747528571
              ],
              [
                153.424903133768,
                -28.0425317642694
              ],
              [
                153.424782225567,
                -28.0425501220023
              ],
              [
                153.424771378495,
                -28.0424931177984
              ]
            ]
          ],
          [
            [
              [
                153.424639361094,
                -28.0425125785662
              ],
              [
                153.4247507246,
                -28.04249524887
              ],
              [
                153.424775468882,
                -28.0426252763706
              ],
              [
                153.424853065904,
                -28.042613489831
              ],
              [
                153.424856724903,
                -28.0426327197825
              ],
              [
                153.424945482758,
                -28.0426192412954
              ],
              [
                153.424955354499,
                -28.042671142772
              ],
              [
                153.424865322726,
                -28.0426846125679
              ],
              [
                153.424864472951,
                -28.0426801576133
              ],
              [
                153.424753191059,
                -28.0426968092149
              ],
              [
                153.424741181435,
                -28.0426336873266
              ],
              [
                153.424664619505,
                -28.0426453108235
              ],
              [
                153.424639361094,
                -28.0425125785662
              ]
            ]
          ]
        ]
      }
    },
    {
      "type": "Feature",
      "id": "6BUP4497",
      "properties": {
        "id": "6BUP4497"
      },
      "geometry": {
        "type": "MultiPolygon",
        "coordinates": [
          [
            [
              [
                153.424771378495,
                -28.0424931177984
              ],
              [
                153.424892285589,
                -28.0424747528571
              ],
              [
                153.424903133768,
                -28.0425317642694
              ],
              [
                153.424782225567,
                -28.0425501220023
              ],
              [
                153.424771378495,
                -28.0424931177984
              ]
            ]
          ],
          [
            [
              [
                153.424639361094,
                -28.0425125785662
              ],
              [
                153.4247507246,
                -28.04249524887
              ],
              [
                153.424775468882,
                -28.0426252763706
              ],
              [
                153.424853065904,
                -28.042613489831
              ],
              [
                153.424856724903,
                -28.0426327197825
              ],
              [
                153.424945482758,
                -28.0426192412954
              ],
              [
                153.424955354499,
                -28.042671142772
              ],
              [
                153.424865322726,
                -28.0426846125679
              ],
              [
                153.424864472951,
                -28.0426801576133
              ],
              [
                153.424753191059,
                -28.0426968092149
              ],
              [
                153.424741181435,
                -28.0426336873266
              ],
              [
                153.424664619505,
                -28.0426453108235
              ],
              [
                153.424639361094,
                -28.0425125785662
              ]
            ]
          ]
        ]
      }
    }
  ]
}
