{"type":"FeatureCollection","features":[{"type":"Feature","geometry":{"type":"Polygon","coordinates":[[[15.4350485724409,47.06371962858816],[15.434974738948091,47.063749903785848],[15.434984163661802,47.063713996621722],[15.434993885562646,47.06371515222996],[15.43498088665201,47.06365064435861],[15.434960063869312,47.063550453973029],[15.434903760539816,47.063266842173192],[15.434837535972862,47.062931429864989],[15.434798392968824,47.062699765137502],[15.434762851568717,47.062441862469726],[15.434745587717677,47.062286738905911],[15.43473871526014,47.0622102253664],[15.434724638701145,47.062014378264685],[15.434720600619727,47.061910271499571],[15.434718145003417,47.061805997230785],[15.434718979853651,47.061701748750984],[15.43472089863212,47.061626923254828],[15.434722045850096,47.061603364674056],[15.434725332200751,47.061535656148571],[15.43473109495106,47.061467067506406],[15.434741983206068,47.06139896879904],[15.434774183584249,47.061245672135648],[15.434810082714417,47.061091594874128],[15.434874696840195,47.06087387630064],[15.434913415844919,47.060896218104787],[15.435033876999892,47.060965615929433],[15.435427813607236,47.061195022544133],[15.435468487133958,47.061218575836094],[15.435582947051602,47.061284840707167],[15.435613659084892,47.061305860238036],[15.435636428660173,47.06132951614827],[15.435664847129631,47.061361671825431],[15.435722832304217,47.061435976883217],[15.435666525371458,47.061610763631137],[15.435662414498143,47.061623504708457],[15.435635759958995,47.061713338524804],[15.435611802815526,47.061799325494633],[15.435603516503543,47.061830204292647],[15.435596665976748,47.061853988080117],[15.435570829515495,47.061957770930881],[15.435556190205459,47.062021972377003],[15.435534347606739,47.062123087914557],[15.435502903163469,47.062301937215075],[15.435447631637253,47.062621555548766],[15.435444536896281,47.062641176949064],[15.435404746278198,47.062893506045363],[15.435401803421801,47.062911923269034],[15.43535471582446,47.063214514638283],[15.435345845017544,47.063256632899929],[15.435333214848329,47.063287477647023],[15.43528405295371,47.063392696850194],[15.435257837808761,47.063456357804306],[15.435237606343858,47.063508641652746],[15.435208764711152,47.063571922209505],[15.435181056277278,47.063630444151364],[15.435167769505931,47.063653367911208],[15.43515445123149,47.063662528684567],[15.435143529425593,47.063670089085527],[15.435093571245815,47.063697493018758],[15.4350485724409,47.06371962858816]]]},"properties":{"id":"63106:59/12"}}]}
