{
  "type": "FeatureCollection",
  "features": [
    {
      "type": "Feature",
      "geometry": {
        "type": "Polygon",
        "coordinates": [
          [
            [
              -87.4983825740812,
              41.5830195607341
            ],
            [
              -87.4985287744323,
              41.583018056842
            ],
            [
              -87.4985291272093,
              41.5833642330131
            ],
            [
              -87.4983828889308,
              41.5833657415452
            ],
            [
              -87.4983825740812,
              41.5830195607341
            ]
          ]
        ]
      },
      "properties": {
        "id": "45-07-07-453-028.000-023"
      }
    },
    {
      "type": "Feature",
      "geometry": {
        "type": "Polygon",
        "coordinates": [
          [
            [
              -87.4440524451045,
              41.5838129631491
            ],
            [
              -87.4440516568677,
              41.5835849276196
            ],
            [
              -87.4441474848012,
              41.5836045863921
            ],
            [
              -87.4442447605617,
              41.5836197147329
            ],
            [
              -87.4443431045831,
              41.5836302536118
            ],
            [
              -87.4444421331303,
              41.5836361619066
            ],
            [
              -87.4444558572152,
              41.5836376376859
            ],
            [
              -87.4444689634869,
              41.5836410321106
            ],
            [
              -87.4444809806472,
              41.5836462231181
            ],
            [
              -87.4444914765618,
              41.5836530240412
            ],
            [
              -87.4445000737997,
              41.5836611903203
            ],
            [
              -87.4445064632056,
              41.583670428298
            ],
            [
              -87.4445104150169,
              41.5836804057788
            ],
            [
              -87.4445117871261,
              41.5836907639743
            ],
            [
              -87.4445122060669,
              41.58381651522
            ],
            [
              -87.4440524451045,
              41.5838129631491
            ]
          ]
        ]
      },
      "properties": {
        "id": "45-07-10-378-005.000-023"
      }
    },
    {
      "type": "Feature",
      "geometry": {
        "type": "Polygon",
        "coordinates": [
          [
            [
              -87.4987851773266,
              41.5872928187285
            ],
            [
              -87.4989496644924,
              41.5872910861411
            ],
            [
              -87.4989498055276,
              41.5874284567612
            ],
            [
              -87.4989499391102,
              41.587565786887
            ],
            [
              -87.4989506403806,
              41.5882669814844
            ],
            [
              -87.4987861534064,
              41.5882685691105
            ],
            [
              -87.4987851773266,
              41.5872928187285
            ]
          ]
        ]
      },
      "properties": {
        "id": "45-07-07-401-011.000-023"
      }
    }
  ]
}
