{"type":"FeatureCollection","features":[{"type":"Feature","geometry":{"type":"Polygon","coordinates":[[[71.91983240803471,30.287414596836786],[71.92052890960375,30.287424744556112],[71.9205183876368,30.28796875525775],[71.91982188337285,30.287958607594646],[71.91983240803471,30.287414596836786]]]},"properties":{"id":"3100029"}},{"type":"Feature","geometry":{"type":"Polygon","coordinates":[[[71.92052890960375,30.287424744556112],[71.92122541027445,30.287434889171635],[71.9212148927991,30.287978898265603],[71.9205183876368,30.28796875525775],[71.92052890960375,30.287424744556112]]]},"properties":{"id":"3100030"}},{"type":"Feature","geometry":{"type":"Polygon","coordinates":[[[71.92053943157069,30.286880736267598],[71.92123592864813,30.286890880163668],[71.92122541027445,30.287434889171635],[71.92052890960375,30.287424744556112],[71.92053943157069,30.286880736267598]]]},"properties":{"id":"3100031"}}]}
