{
  "type": "FeatureCollection",
  "features": [
    { "type": "Feature", "properties": { "id": "4624001" }, "geometry": { "type": "Polygon", "coordinates": [[[70.641676057461495,28.628308616148377],[70.641682423821933,28.627794321927087],[70.642368183336771,28.627800928741802],[70.642361820569633,28.628315222142231],[70.641676057461495,28.628308616148377]]] } },
    { "type": "Feature", "properties": { "id": "4624002" }, "geometry": { "type": "Polygon", "coordinates": [[[70.642361820569633,28.628315222142231],[70.642368183336771,28.627800928741802],[70.643053942851637,28.627807531613627],[70.643047583677713,28.628321824981739],[70.642361820569633,28.628315222142231]]] } },
    { "type": "Feature", "properties": { "id": "4624003" }, "geometry": { "type": "Polygon", "coordinates": [[[70.643047583677713,28.628321824981739],[70.643053942851637,28.627807531613627],[70.643739702366474,28.627814130542593],[70.643733345887526,28.62832842387833],[70.643047583677713,28.628321824981739]]] } }
  ]
}
