{
  "type": "FeatureCollection",
  "features": [
    {"type":"Feature","properties":{"id":"4201521"},"geometry":{"type":"Polygon","coordinates":[[[-97.065096067748755,32.724139946852432],[-97.065212692136953,32.724147911866481],[-97.065329496605884,32.724152538464196],[-97.065344740775828,32.723830971066938],[-97.065184766463858,32.72381304234365],[-97.065144250507089,32.723808699079761],[-97.065096067748755,32.724139946852432]]]}},
    {"type":"Feature","properties":{"id":"4201522"},"geometry":{"type":"Polygon","coordinates":[[[-97.065329496605884,32.724152538464196],[-97.065454376109543,32.72415466732663],[-97.0655787963194,32.724152996463324],[-97.065570543772537,32.7238364646214],[-97.065429129203878,32.723835244412179],[-97.065344740775828,32.723830971066938],[-97.065329496605884,32.724152538464196]]]}},
    {"type":"Feature","properties":{"id":"4201523"},"geometry":{"type":"Polygon","coordinates":[[[-97.065682956078163,32.723831218811398],[-97.065570543772537,32.7238364646214],[-97.0655787963194,32.724152996463324],[-97.065691139964585,32.724148973850994],[-97.065803151444982,32.724139449971446],[-97.065753184000584,32.723824250445027],[-97.065682956078163,32.723831218811398]]]}}
  ]
}
