{
  "type": "FeatureCollection",
  "features": [
    {
      "type": "Feature",
      "properties": {"id": "1417958702"},
      "geometry": {
        "type": "Polygon",
        "coordinates": [[[16.609813185915431,49.203259047824893],[16.609877583772182,49.203272833245585],[16.609935380689144,49.203284794526958],[16.609935041594873,49.203286850839426],[16.609905645352768,49.203350435282914],[16.609810610267044,49.203331586274857],[16.609780150075235,49.20332544980517],[16.609644554433491,49.203298934976516],[16.609595438405119,49.203289578082853],[16.609662091937601,49.203141529543501],[16.609852198330081,49.203180677526312],[16.609813185915431,49.203259047824893]]]
      }
    }
  ]
}
