{"type":"FeatureCollection","features":[{"type":"Feature","id":295,"geometry":{"type":"Polygon","coordinates":[[[13.005912570518761,55.58932714584283],[13.005921588388786,55.589273370566872],[13.00595232902096,55.58904199041833],[13.005955078939715,55.589021297813986],[13.005804337180056,55.589059960026979],[13.005817338787487,55.589003434331943],[13.005747523650529,55.588960541987213],[13.005741175399436,55.588334905825327],[13.00577586713576,55.588088236151854],[13.00586839535549,55.587331725321363],[13.005875466192721,55.58729151410585],[13.005964171296815,55.586720395778059],[13.005978587398296,55.586628189946431],[13.005990898224988,55.586530613329074],[13.005989463783326,55.58632535806025],[13.005987966615372,55.586092267067187],[13.005991908693254,55.585967791324506],[13.005975256556466,55.585763283113749],[13.005956851183811,55.585536761732584],[13.005925000717843,55.585523411777096],[13.005868722949495,55.585419594665218],[13.005884557842421,55.585398739210291],[13.005372895415498,55.584915102007358],[13.005301854011684,55.584848015670964],[13.006703358733866,55.584373012871168],[13.006795504353784,55.584341784582307],[13.009868638792847,55.585846677295038],[13.011335560071313,55.586998878574903],[13.0114464586379,55.587085979538266],[13.009874931915386,55.587683447320529],[13.009806822406604,55.587709681170089],[13.009744694079037,55.587734456852907],[13.009683256394476,55.58775980113667],[13.009622557263116,55.587785687267782],[13.009562596571909,55.587812124228968],[13.009503374431789,55.587839103039641],[13.009444922670991,55.587866614846149],[13.00938724162482,55.587894632704675],[13.009330394390901,55.587923183815036],[13.009274317646399,55.587952258942892],[13.009219091244134,55.587981813498509],[13.009164714959875,55.58801186544629],[13.009111156964087,55.588042423641994],[13.00905851296903,55.588073443559551],[13.009006719316119,55.588104942909347],[13.008951698404635,55.588139599986192],[13.00891818294054,55.588160277235787],[13.008888211014293,55.588177860870346],[13.008857467256471,55.588195019248658],[13.008825983496616,55.588211743515522],[13.008793775817875,55.588228015770682],[13.008760891684444,55.588243845185772],[13.008727283857013,55.588259204624762],[13.008693063571394,55.588274076568631],[13.008658167168878,55.588288478725914],[13.008617352327152,55.588304375127393],[13.005912570518761,55.58932714584283]],[[13.006148144810481,55.587913220258407],[13.006118113002021,55.587927910748895],[13.006074156954272,55.588259567540092],[13.006067043032806,55.588313314576133],[13.006184070928297,55.588390340150546],[13.006693811156294,55.588412008717739],[13.007216833550691,55.588212850317518],[13.00722147011755,55.58817949155619],[13.007222193241432,55.588173674076955],[13.007226192841419,55.588144318761415],[13.007251298767676,55.587960727211055],[13.00650283837407,55.58792849860599],[13.006148144810481,55.587913220258407]],[[13.006356205834324,55.586694911648621],[13.006385336721689,55.586710226596715],[13.007422880681135,55.586626024222973],[13.00748021408441,55.586174842207555],[13.007453972558267,55.58615801217109],[13.006461780264107,55.586128522533905],[13.006432079685675,55.586143474915907],[13.006356205834324,55.586694911648621]],[[13.006376143356825,55.585355135110291],[13.006777119026165,55.585303484924587],[13.007351593355853,55.585229518536401],[13.007451995591419,55.585216583497093],[13.007795072894064,55.58509625394926],[13.007826337785367,55.585024612625908],[13.007463160983432,55.584846665436025],[13.007103879230373,55.584670726837679],[13.00653023055645,55.584880486482241],[13.006248421442473,55.58498359806137],[13.006308473424355,55.585158208998806],[13.006376143356825,55.585355135110291]],[[13.008762989952006,55.58550312545642],[13.008504726085318,55.585635905537202],[13.008234138821191,55.585774994964126],[13.007964362659759,55.585913745730572],[13.00776007513114,55.586018725720898],[13.007742667425227,55.586095623271873],[13.007951928570334,55.586272601734088],[13.00819880757243,55.586481374573189],[13.008238393825222,55.58648496449193],[13.008588626885322,55.586320622299503],[13.008869721137955,55.586188670023262],[13.009150989062817,55.58605662797823],[13.009526897591492,55.585880188225474],[13.009527055187965,55.58585737437722],[13.009158307990678,55.585677254284562],[13.008802475173988,55.585503301600767],[13.008762989952006,55.58550312545642]],[[13.008190353791633,55.587683870128657],[13.00856039078648,55.587544856069883],[13.008917169324793,55.587410727941233],[13.008924621014666,55.587388033131049],[13.00873668326785,55.58722857602433],[13.008543256248286,55.587064327138833],[13.00834967226017,55.586900077311014],[13.008173492233086,55.586750636566947],[13.008137311171366,55.586741042295138],[13.00766752007611,55.586779279883871],[13.00763986415401,55.586795588078019],[13.007613003132112,55.58700430454256],[13.007587746953801,55.587201350738951],[13.007562327435089,55.58739875555149],[13.007537071862592,55.587595711907554],[13.007508274102207,55.587819690075875],[13.007533882526648,55.587836508569069],[13.007758313314715,55.587846230103082],[13.008190353791633,55.587683870128657]],[[13.006281167221504,55.587232698894127],[13.006242395524353,55.587511597965936],[13.006207313284898,55.587764383009187],[13.006233864734259,55.587781834318164],[13.006571311519703,55.587796369365513],[13.006903687206799,55.58781061362923],[13.007241118638934,55.587825146770406],[13.007271635833257,55.587809649569209],[13.007305244684449,55.587548603789145],[13.007340793351826,55.587271927986954],[13.007366215021271,55.587074433401952],[13.007403752632849,55.586781966077574],[13.007374315380961,55.586765751933953],[13.007011698005206,55.586795121082325],[13.006666526097392,55.586823131197562],[13.006334228187384,55.586850114323489],[13.00630849604268,55.587035302015536],[13.006281167221504,55.587232698894127]],[[13.0070163108392,55.586018360484758],[13.007440034643995,55.586031219050447],[13.007476165721288,55.586021941982168],[13.007668226931866,55.585884029982211],[13.007954140329883,55.585737009252036],[13.008247553975394,55.585586074802805],[13.00857866322958,55.585415898422831],[13.008578182581743,55.585393441298145],[13.008086893032388,55.585152305517106],[13.007991578335204,55.585154096764207],[13.007758578617144,55.585236012330341],[13.007525754162245,55.585317784445337],[13.007158930215887,55.585365011451806],[13.00674650207192,55.585418134788377],[13.006411618620932,55.585461284430671],[13.006421638413087,55.585640966367627],[13.006430300624126,55.58579361575562],[13.006440939721198,55.585985884067178],[13.006468618155472,55.586001902736271],[13.0070163108392,55.586018360484758]],[[13.008490094581145,55.586530192434921],[13.008519289987291,55.586654630394669],[13.008399242334743,55.586699993691276],[13.009122095122807,55.587313392340221],[13.009165434448883,55.587317499977694],[13.010082707599997,55.587404342266289],[13.010804493559828,55.587129902350448],[13.010824667544933,55.587072416708878],[13.010606955954744,55.586888771728155],[13.010400317131253,55.586688463900543],[13.010427024665347,55.586613192948469],[13.010465473834989,55.586597313447335],[13.009694787881282,55.585998848243797],[13.009626957502004,55.585996556031255],[13.008490094581145,55.586530192434921]]]},"properties":{"id":"295"}}]}
