{
  "type": "FeatureCollection",
  "features": [
    {
      "type": "Feature",
      "id": "4bf5973a-3d06-46ec-bc12-50e17722ae7a",
      "properties": {
        "id": "4bf5973a-3d06-46ec-bc12-50e17722ae7a"
      },
      "geometry": {
        "type": "MultiPolygon",
        "coordinates": [
          [
            [
              [
                37.37466511,
                -3.34694639
              ],
              [
                37.37473084,
                -3.34686954
              ],
              [
                37.37471391,
                -3.34684119
              ],
              [
                37.37473497,
                -3.34681036
              ],
              [
                37.37475676,
                -3.34682671
              ],
              [
                37.37486277,
                -3.34692602
              ],
              [
                37.37475369,
                -3.347073
              ],
              [
                37.37469034,
                -3.34703108
              ],
              [
                37.37466511,
                -3.34694639
              ]
            ]
          ]
        ]
      }
    },
    {
      "type": "Feature",
      "id": "55e7728d-723b-49d6-a2f1-61f81508a827",
      "properties": {
        "id": "55e7728d-723b-49d6-a2f1-61f81508a827"
      },
      "geometry": {
        "type": "MultiPolygon",
        "coordinates": [
          [
            [
              [
                37.37471391,
                -3.34684119
              ],
              [
                37.37473084,
                -3.34686954
              ],
              [
                37.37466511,
                -3.34694639
              ],
              [
                37.37463657,
                -3.34685304
              ],
              [
                37.37468831,
                -3.34681628
              ],
              [
                37.37471391,
                -3.34684119
              ]
            ]
          ]
        ]
      }
    },
    {
      "type": "Feature",
      "id": "6c85af59-a27e-41d4-b304-05ac9a2065dd",
      "properties": {
        "id": "6c85af59-a27e-41d4-b304-05ac9a2065dd"
      },
      "geometry": {
        "type": "MultiPolygon",
        "coordinates": [
          [
            [
              [
                37.37486277,
                -3.34692602
              ],
              [
                37.37475676,
                -3.34682671
              ],
              [
                37.37485442,
                -3.34667938
              ],
              [
                37.37497391,
                -3.34677556
              ],
              [
                37.37486277,
                -3.34692602
              ]
            ]
          ]
        ]
      }
    }
  ]
}
