{"type":"FeatureCollection","features":[{"type":"Feature","geometry":{"type":"Polygon","coordinates":[[[-78.875481374432923,43.893384809600043],[-78.875589791342335,43.893359637040305],[-78.875471250196199,43.893100439457641],[-78.875452860942929,43.893104712822598],[-78.875417103900702,43.89302658478973],[-78.875327100065519,43.893047499358339],[-78.875481374432923,43.893384809600043]]]},"properties":{"id":"PCL000001"}},{"type":"Feature","geometry":{"type":"Polygon","coordinates":[[[-78.882717477166082,43.893809637227889],[-78.882532323686192,43.893850201628688],[-78.88244669735883,43.893868962248526],[-78.882554966082594,43.894116169977757],[-78.882969117743144,43.894025574061324],[-78.882914799115341,43.893901826254087],[-78.88286057114982,43.893778281060634],[-78.882717477166082,43.893809637227889]]]},"properties":{"id":"PCL000002"}},{"type":"Feature","geometry":{"type":"Polygon","coordinates":[[[-78.887997382332486,43.891768876012506],[-78.888009669682745,43.891898285193868],[-78.888011807344043,43.891920798322829],[-78.888026599520543,43.891931400223278],[-78.888045122250873,43.891938285242524],[-78.888065653042318,43.891940813280144],[-78.888086282818762,43.891938749005824],[-78.888123124219561,43.891930749912156],[-78.888271832252329,43.891898461673236],[-78.888277918636177,43.891897138874391],[-78.888343654264574,43.891882409652617],[-78.888268458404994,43.891706952950457],[-78.887997382332486,43.891768876012506]]]},"properties":{"id":"PCL000003"}}]}
