{
  "type": "FeatureCollection",
  "features": [
    {
      "type": "Feature",
      "geometry": {
        "type": "MultiPolygon",
        "coordinates": [
          [
            [
              [
                1.07554702,
                49.42707206
              ],
              [
                1.07553108,
                49.42704492
              ],
              [
                1.0755062,
                49.42700236
              ],
              [
                1.07549894,
                49.42699011
              ],
              [
                1.07544522,
                49.427004
              ],
              [
                1.07547638,
                49.42705898
              ],
              [
                1.07548993,
                49.42708374
              ],
              [
                1.07554702,
                49.42707206
              ]
            ]
          ]
        ]
      },
      "properties": {
        "id": "76540000IK0110"
      }
    }
  ]
}
