{
  "type": "FeatureCollection",
  "name": "sosnowiec-parcels",
  "features": [
    {
      "type": "Feature",
      "geometry": {
        "type": "Polygon",
        "coordinates": [
          [
            [
              19.148772,
              50.288942
            ],
            [
              19.14879,
              50.288829
            ],
            [
              19.148934,
              50.288848
            ],
            [
              19.148922,
              50.288972
            ],
            [
              19.148874,
              50.289279
            ],
            [
              19.148828,
              50.289358
            ],
            [
              19.148809,
              50.289396
            ],
            [
              19.148655,
              50.289694
            ],
            [
              19.148505,
              50.289978
            ],
            [
              19.148448,
              50.290086
            ],
            [
              19.148304,
              50.290358
            ],
            [
              19.148368,
              50.290374
            ],
            [
              19.148279,
              50.290537
            ],
            [
              19.148204,
              50.290547
            ],
            [
              19.148192,
              50.29057
            ],
            [
              19.148084,
              50.290783
            ],
            [
              19.147851,
              50.291142
            ],
            [
              19.147798,
              50.291213
            ],
            [
              19.147684,
              50.291361
            ],
            [
              19.147509,
              50.291642
            ],
            [
              19.147438,
              50.291756
            ],
            [
              19.14725,
              50.291779
            ],
            [
              19.147329,
              50.291638
            ],
            [
              19.147362,
              50.291579
            ],
            [
              19.147499,
              50.291337
            ],
            [
              19.14755,
              50.291319
            ],
            [
              19.147599,
              50.291246
            ],
            [
              19.147631,
              50.291198
            ],
            [
              19.147649,
              50.291175
            ],
            [
              19.147676,
              50.291137
            ],
            [
              19.147889,
              50.290823
            ],
            [
              19.148015,
              50.290578
            ],
            [
              19.147995,
              50.290574
            ],
            [
              19.148024,
              50.290513
            ],
            [
              19.148036,
              50.290502
            ],
            [
              19.148082,
              50.290397
            ],
            [
              19.148101,
              50.290351
            ],
            [
              19.14813,
              50.290356
            ],
            [
              19.148178,
              50.290243
            ],
            [
              19.148191,
              50.290246
            ],
            [
              19.148303,
              50.290038
            ],
            [
              19.148302,
              50.290038
            ],
            [
              19.148424,
              50.289804
            ],
            [
              19.148435,
              50.289785
            ],
            [
              19.148574,
              50.289514
            ],
            [
              19.148637,
              50.28939
            ],
            [
              19.148752,
              50.289169
            ],
            [
              19.148772,
              50.288942
            ]
          ]
        ]
      },
      "properties": {
        "id": "247501_1.0011.29"
      }
    },
    {
      "type": "Feature",
      "geometry": {
        "type": "Polygon",
        "coordinates": [
          [
            [
              19.147514,
              50.291754
            ],
            [
              19.147891,
              50.291694
            ],
            [
              19.148079,
              50.292094
            ],
            [
              19.14807,
              50.292096
            ],
            [
              19.147977,
              50.292113
            ],
            [
              19.147922,
              50.292124
            ],
            [
              19.147904,
              50.292109
            ],
            [
              19.147366,
              50.291968
            ],
            [
              19.147481,
              50.291771
            ],
            [
              19.147514,
              50.291754
            ]
          ]
        ]
      },
      "properties": {
        "id": "247501_1.0010.3473"
      }
    },
    {
      "type": "Feature",
      "geometry": {
        "type": "Polygon",
        "coordinates": [
          [
            [
              19.147366,
              50.291968
            ],
            [
              19.147904,
              50.292109
            ],
            [
              19.147922,
              50.292124
            ],
            [
              19.147977,
              50.292113
            ],
            [
              19.147981,
              50.292128
            ],
            [
              19.147919,
              50.292134
            ],
            [
              19.147839,
              50.292261
            ],
            [
              19.147834,
              50.29226
            ],
            [
              19.147279,
              50.292115
            ],
            [
              19.147366,
              50.291968
            ]
          ]
        ]
      },
      "properties": {
        "id": "247501_1.0010.3163"
      }
    }
  ]
}
