{
  "type": "FeatureCollection",
  "features": [
    {
      "type": "Feature",
      "id": "610",
      "properties": {
        "id": "610"
      },
      "geometry": {
        "type": "Polygon",
        "coordinates": [
          [
            [
              110.1540488,
              -6.9551484
            ],
            [
              110.1535633,
              -6.9550419
            ],
            [
              110.1535607,
              -6.9548009
            ],
            [
              110.1540756,
              -6.9549327
            ],
            [
              110.1540488,
              -6.9551484
            ]
          ]
        ]
      }
    },
    {
      "type": "Feature",
      "id": "1157",
      "properties": {
        "id": "1157"
      },
      "geometry": {
        "type": "Polygon",
        "coordinates": [
          [
            [
              110.150825455784,
              -6.93679569463748
            ],
            [
              110.150988064706,
              -6.93620193999277
            ],
            [
              110.152669809758,
              -6.93646553519649
            ],
            [
              110.152657069265,
              -6.93681399984165
            ],
            [
              110.152640640735,
              -6.93683197222323
            ],
            [
              110.152639970183,
              -6.93684195687937
            ],
            [
              110.152852535247,
              -6.93692749209161
            ],
            [
              110.152884051203,
              -6.93698540308252
            ],
            [
              110.150825455784,
              -6.93679569463748
            ]
          ]
        ]
      }
    },
    {
      "type": "Feature",
      "id": "879",
      "properties": {
        "id": "879"
      },
      "geometry": {
        "type": "Polygon",
        "coordinates": [
          [
            [
              110.1620051,
              -6.932413
            ],
            [
              110.1613936,
              -6.9332757
            ],
            [
              110.1601986,
              -6.9327765
            ],
            [
              110.1603032,
              -6.931794
            ],
            [
              110.1605125,
              -6.93179
            ],
            [
              110.1620051,
              -6.932413
            ]
          ]
        ]
      }
    }
  ]
}
