{"type":"FeatureCollection","name":"wroclaw-wup-parcel","features":[{"type":"Feature","id":1130,"properties":{"OBJECTID":1130,"ID_SWDE":"026401_1.0001.1449"},"geometry":{"type":"Polygon","coordinates":[[[17.0226946302171,51.10525081830411],[17.022632498153047,51.10518933074917],[17.02252064823088,51.10514803193502],[17.022614503237364,51.10504796998836],[17.02270039640491,51.10507760785656],[17.022692814014636,51.105085059874405],[17.02274630049652,51.105116386584314],[17.02275730728925,51.10510973629946],[17.022843384698124,51.10519430271774],[17.0226946302171,51.10525081830411]]]}}]}
