{
  "type": "FeatureCollection",
  "features": [
    {
      "type": "Feature",
      "id": "27535317",
      "properties": {
        "INSPIREID": "27535317"
      },
      "geometry": {
        "type": "Polygon",
        "coordinates": [
          [
            [
              -1.4605731468261143,
              53.37123579867525
            ],
            [
              -1.4607528755218113,
              53.37110346046434
            ],
            [
              -1.4607887088241565,
              53.371077078573634
            ],
            [
              -1.4608504429537972,
              53.3710670022732
            ],
            [
              -1.4608295216204064,
              53.371057469676686
            ],
            [
              -1.4608093347233795,
              53.371049288699396
            ],
            [
              -1.4607809159844585,
              53.371038373939086
            ],
            [
              -1.4607524915870684,
              53.37102790858216
            ],
            [
              -1.4607420167569078,
              53.37102426580113
            ],
            [
              -1.4607060949620823,
              53.371012418273665
            ],
            [
              -1.4606626757745849,
              53.37099918857143
            ],
            [
              -1.4606536868237237,
              53.37099690079981
            ],
            [
              -1.4606222283405188,
              53.37098866888877
            ],
            [
              -1.4606079906407394,
              53.3709854585379
            ],
            [
              -1.460587758422372,
              53.37098087280423
            ],
            [
              -1.46056752053341,
              53.37097673647725
            ],
            [
              -1.4605622717822793,
              53.370975813899
            ],
            [
              -1.4604940607412893,
              53.37096202272032
            ],
            [
              -1.4604235783876767,
              53.37094956954843
            ],
            [
              -1.4603988318749133,
              53.37094541282351
            ],
            [
              -1.4603681476296932,
              53.37093538660024
            ],
            [
              -1.460312050631259,
              53.37091445907917
            ],
            [
              -1.4602649936987127,
              53.37089177464229
            ],
            [
              -1.460230705636222,
              53.370869597331414
            ],
            [
              -1.4601896887164945,
              53.37084469298303
            ],
            [
              -1.4601621580140483,
              53.37082299562959
            ],
            [
              -1.4601436332593836,
              53.37080223785006
            ],
            [
              -1.4601333743575549,
              53.37078151743171
            ],
            [
              -1.4601261609792375,
              53.37075766472872
            ],
            [
              -1.460127896718751,
              53.370739245707775
            ],
            [
              -1.4601326552490375,
              53.37071949204331
            ],
            [
              -1.460138939368716,
              53.37069794753143
            ],
            [
              -1.4601397135244105,
              53.370696153287646
            ],
            [
              -1.4601521851956556,
              53.37066070423453
            ],
            [
              -1.4601553499638746,
              53.37064813433755
            ],
            [
              -1.4601585033718116,
              53.370636463260674
            ],
            [
              -1.4601601368669093,
              53.370626133621
            ],
            [
              -1.4601587532563325,
              53.370616689215396
            ],
            [
              -1.4601345862655295,
              53.37056669260354
            ],
            [
              -1.460116926662323,
              53.370536950013495
            ],
            [
              -1.4601059391203475,
              53.370514428554756
            ],
            [
              -1.4600803716203068,
              53.37045633575532
            ],
            [
              -1.4600613739585506,
              53.3704135534689
            ],
            [
              -1.4600168203670139,
              53.37031177954498
            ],
            [
              -1.4599774190532047,
              53.37021856817958
            ],
            [
              -1.4599387920636657,
              53.37012356255751
            ],
            [
              -1.4597439733134496,
              53.37013841169607
            ],
            [
              -1.4596236367985507,
              53.37014640656675
            ],
            [
              -1.4595242435771347,
              53.370162136504085
            ],
            [
              -1.4594918696019392,
              53.37016693378873
            ],
            [
              -1.4594376530065052,
              53.370175677126674
            ],
            [
              -1.4593774022082586,
              53.37018619086896
            ],
            [
              -1.4591431672773942,
              53.37022782674941
            ],
            [
              -1.4590723473774745,
              53.37024215762257
            ],
            [
              -1.4590260707199267,
              53.37025291425274
            ],
            [
              -1.4589311241418053,
              53.370273517745275
            ],
            [
              -1.4588420615176665,
              53.37029352760193
            ],
            [
              -1.4588271699774862,
              53.37029687583822
            ],
            [
              -1.4588048478053435,
              53.37030188926904
            ],
            [
              -1.4587661419177158,
              53.370310585733655
            ],
            [
              -1.4587437744176783,
              53.3703156169251
            ],
            [
              -1.4587289130332934,
              53.37031895629709
            ],
            [
              -1.4588402578884283,
              53.370399127863024
            ],
            [
              -1.458843683736473,
              53.37040157033942
            ],
            [
              -1.458903685668365,
              53.37044633634593
            ],
            [
              -1.459353462105396,
              53.37077151759579
            ],
            [
              -1.459409620160683,
              53.37081132214885
            ],
            [
              -1.4594732483730408,
              53.370854666082806
            ],
            [
              -1.4594910873432652,
              53.37087020740805
            ],
            [
              -1.459591110920362,
              53.37093546867704
            ],
            [
              -1.4596653758848823,
              53.3709815572503
            ],
            [
              -1.459729407496083,
              53.3710168130266
            ],
            [
              -1.4597343329215753,
              53.37101953192199
            ],
            [
              -1.4597963037941815,
              53.37105136262819
            ],
            [
              -1.4598596409977462,
              53.371082120835325
            ],
            [
              -1.4598675608537315,
              53.37108575213909
            ],
            [
              -1.4599327186737234,
              53.37111517023349
            ],
            [
              -1.4599993953821604,
              53.37114333673935
            ],
            [
              -1.460066984138852,
              53.371170698346496
            ],
            [
              -1.4601199320914466,
              53.37119107242375
            ],
            [
              -1.4602005598382504,
              53.37122136928373
            ],
            [
              -1.4602185082570753,
              53.37122828182687
            ],
            [
              -1.4602698224742752,
              53.37124712037189
            ],
            [
              -1.4603838208328028,
              53.37128898357559
            ],
            [
              -1.4603944346329827,
              53.37129352588716
            ],
            [
              -1.4604760967584764,
              53.371313355380565
            ],
            [
              -1.460482919051227,
              53.37131464461924
            ],
            [
              -1.4605529862534015,
              53.37132788688584
            ],
            [
              -1.4605608581961953,
              53.371329369624036
            ],
            [
              -1.460646471728117,
              53.371340992173785
            ],
            [
              -1.4606530169908987,
              53.37134160599807
            ],
            [
              -1.4606905324492019,
              53.37134510123215
            ],
            [
              -1.460694645059307,
              53.371345542272465
            ],
            [
              -1.4607165889628242,
              53.37134789752635
            ],
            [
              -1.4607164060165476,
              53.37134572143136
            ],
            [
              -1.4607158300700567,
              53.37133895931745
            ],
            [
              -1.4607158167431102,
              53.37133882442657
            ],
            [
              -1.460715921248519,
              53.37133054629236
            ],
            [
              -1.4607038595887296,
              53.371312109907805
            ],
            [
              -1.4606933192066567,
              53.371294606228936
            ],
            [
              -1.4606781220960632,
              53.37128166576533
            ],
            [
              -1.4606537203614847,
              53.37126685003526
            ],
            [
              -1.4605731468261143,
              53.37123579867525
            ]
          ]
        ]
      }
    },
    {
      "type": "Feature",
      "id": "55793458",
      "properties": {
        "INSPIREID": "55793458"
      },
      "geometry": {
        "type": "Polygon",
        "coordinates": [
          [
            [
              -1.4569570685237956,
              53.36931067543047
            ],
            [
              -1.4569564274861033,
              53.36933745889869
            ],
            [
              -1.456955450398925,
              53.369348115076775
            ],
            [
              -1.456863848637795,
              53.36938823765519
            ],
            [
              -1.456863000258615,
              53.36939231467542
            ],
            [
              -1.4568582089303472,
              53.36940271979978
            ],
            [
              -1.4568504210815543,
              53.369412392198704
            ],
            [
              -1.4568417601002415,
              53.36941981344648
            ],
            [
              -1.4568305488750943,
              53.36942686354635
            ],
            [
              -1.4568178473864617,
              53.36943291810821
            ],
            [
              -1.4568038070605505,
              53.36943788793309
            ],
            [
              -1.4567955140614626,
              53.36944000750692
            ],
            [
              -1.4567798457601566,
              53.36944299240631
            ],
            [
              -1.4567634443280406,
              53.36944453577388
            ],
            [
              -1.456747060039319,
              53.36944473090934
            ],
            [
              -1.4567306951815526,
              53.36944339804867
            ],
            [
              -1.4566762144284788,
              53.36943748731909
            ],
            [
              -1.4566496520462846,
              53.369434400198706
            ],
            [
              -1.4565750768331747,
              53.36942498228781
            ],
            [
              -1.4565327701938593,
              53.369419036998764
            ],
            [
              -1.4564591253211632,
              53.36940737606901
            ],
            [
              -1.456444430753785,
              53.36940470246286
            ],
            [
              -1.4564193895372106,
              53.36940018401924
            ],
            [
              -1.4563562771138907,
              53.36938758220418
            ],
            [
              -1.456278038781002,
              53.36937077668298
            ],
            [
              -1.455801797845402,
              53.369262001367176
            ],
            [
              -1.455535951678548,
              53.36920155404469
            ],
            [
              -1.455466130959895,
              53.36918469647669
            ],
            [
              -1.455389138004772,
              53.36916457022263
            ],
            [
              -1.4553428601188405,
              53.36915186486139
            ],
            [
              -1.4552672427407416,
              53.36912994705762
            ],
            [
              -1.4551928460353363,
              53.369106596578895
            ],
            [
              -1.4551344764777376,
              53.369086303429235
            ],
            [
              -1.4551273207530684,
              53.36909705724729
            ],
            [
              -1.4551189238966706,
              53.369109675056215
            ],
            [
              -1.455094300346884,
              53.3691466681493
            ],
            [
              -1.4550864245187292,
              53.36915849732571
            ],
            [
              -1.4550788089809588,
              53.369169950162984
            ],
            [
              -1.4550828037431163,
              53.369171361641406
            ],
            [
              -1.45507372956657,
              53.369185234777504
            ],
            [
              -1.4550649927693233,
              53.36919857911778
            ],
            [
              -1.4551947403401915,
              53.36924089669858
            ],
            [
              -1.4552014743911,
              53.369243174597194
            ],
            [
              -1.4552621095339104,
              53.36926142861859
            ],
            [
              -1.4553175306800852,
              53.36927606334181
            ],
            [
              -1.4554628693436915,
              53.36931088323258
            ],
            [
              -1.4555775033721148,
              53.36933747313472
            ],
            [
              -1.4557295937352244,
              53.36937322234894
            ],
            [
              -1.4558786844187275,
              53.36940850826624
            ],
            [
              -1.4560307867340774,
              53.36944335827777
            ],
            [
              -1.456196369023613,
              53.36948186496177
            ],
            [
              -1.4563836626408415,
              53.36952676234494
            ],
            [
              -1.456568725267298,
              53.36956985153788
            ],
            [
              -1.4568159674418366,
              53.36962805464479
            ],
            [
              -1.4568766666748414,
              53.369641364338584
            ],
            [
              -1.456919377587185,
              53.36965099671795
            ],
            [
              -1.4570331934816114,
              53.3696829747278
            ],
            [
              -1.4571298068304013,
              53.369708582333075
            ],
            [
              -1.4571559980388333,
              53.36971724066441
            ],
            [
              -1.457232277496647,
              53.36974635124905
            ],
            [
              -1.457342945478715,
              53.36978955055381
            ],
            [
              -1.457472950914989,
              53.36984856785583
            ],
            [
              -1.457538533992914,
              53.36989156216634
            ],
            [
              -1.4576071057824165,
              53.369935918321104
            ],
            [
              -1.4577203924154392,
              53.37000969080578
            ],
            [
              -1.457802755308184,
              53.37007230262903
            ],
            [
              -1.4578080248738532,
              53.370076308553735
            ],
            [
              -1.4578324883848977,
              53.37010862618541
            ],
            [
              -1.4578399974105953,
              53.370118547862276
            ],
            [
              -1.4578677260897037,
              53.37012451640015
            ],
            [
              -1.4578999177205019,
              53.37013410067604
            ],
            [
              -1.4579365666117012,
              53.37014775009633
            ],
            [
              -1.4579567126139767,
              53.37015907742816
            ],
            [
              -1.457964178998678,
              53.37016288657568
            ],
            [
              -1.4579938908439511,
              53.3701783921251
            ],
            [
              -1.458023455845974,
              53.37019362733912
            ],
            [
              -1.4580425681365894,
              53.37020351177055
            ],
            [
              -1.4581410784389193,
              53.37025744161881
            ],
            [
              -1.4581769065432804,
              53.37027657035823
            ],
            [
              -1.4582918529345876,
              53.37033812516716
            ],
            [
              -1.4583145560921544,
              53.37035403929332
            ],
            [
              -1.4583879390875607,
              53.370405490934424
            ],
            [
              -1.4584125194049968,
              53.370422716918306
            ],
            [
              -1.4585093552181148,
              53.370489070260575
            ],
            [
              -1.4585570356396345,
              53.37052174468464
            ],
            [
              -1.4587202077070143,
              53.370633548892435
            ],
            [
              -1.458747020280109,
              53.37065254671144
            ],
            [
              -1.458825203828129,
              53.370709529917605
            ],
            [
              -1.4588741142502093,
              53.37074480752519
            ],
            [
              -1.4588966929426468,
              53.3707610895121
            ],
            [
              -1.4589093535586417,
              53.37077013558812
            ],
            [
              -1.458967459248586,
              53.37081039860963
            ],
            [
              -1.45898310288799,
              53.37082125593406
            ],
            [
              -1.4589957635401067,
              53.37083030200092
            ],
            [
              -1.4590061983331797,
              53.37083709080494
            ],
            [
              -1.459008429888929,
              53.3708388986564
            ],
            [
              -1.459030779603468,
              53.370854280708706
            ],
            [
              -1.4590553665843897,
              53.370871021197395
            ],
            [
              -1.4590836766475863,
              53.3708904751578
            ],
            [
              -1.4591320992698997,
              53.370923952705326
            ],
            [
              -1.4591469972405164,
              53.37093435719524
            ],
            [
              -1.4592184871194904,
              53.370985916596986
            ],
            [
              -1.4592743788830944,
              53.37102302339153
            ],
            [
              -1.4593295477395107,
              53.37105787970796
            ],
            [
              -1.4593326787784728,
              53.37105987139952
            ],
            [
              -1.4593735417006066,
              53.371085045006446
            ],
            [
              -1.4594160612626903,
              53.37110995643614
            ],
            [
              -1.4594735472362188,
              53.371139879379506
            ],
            [
              -1.4595288301248996,
              53.37116574740338
            ],
            [
              -1.4595485591392683,
              53.37117446584837
            ],
            [
              -1.4595788984371467,
              53.37118799632003
            ],
            [
              -1.4596416561296233,
              53.37121704416393
            ],
            [
              -1.4596924873769488,
              53.37123839761279
            ],
            [
              -1.4597433300425853,
              53.371258852219995
            ],
            [
              -1.4597814663363071,
              53.37127385610367
            ],
            [
              -1.4598121222705056,
              53.37128612952765
            ],
            [
              -1.4598442527063427,
              53.3713006567911
            ],
            [
              -1.4598689084518242,
              53.37131200419187
            ],
            [
              -1.4600121952571625,
              53.37136730350042
            ],
            [
              -1.4600446816820192,
              53.37137983682433
            ],
            [
              -1.4602684836834912,
              53.37130430951392
            ],
            [
              -1.4603944346329827,
              53.37129352588716
            ],
            [
              -1.4603838208328028,
              53.37128898357559
            ],
            [
              -1.4603503243702578,
              53.37127668847536
            ],
            [
              -1.4602698224742752,
              53.37124712037189
            ],
            [
              -1.4602185082570753,
              53.37122828182687
            ],
            [
              -1.4602005598382504,
              53.37122136928373
            ],
            [
              -1.4601199320914466,
              53.37119107242375
            ],
            [
              -1.460066984138852,
              53.371170698346496
            ],
            [
              -1.4599993953821604,
              53.37114333673935
            ],
            [
              -1.4599327186737234,
              53.37111517023349
            ],
            [
              -1.4598675608537315,
              53.37108575213909
            ],
            [
              -1.4598596409977462,
              53.371082120835325
            ],
            [
              -1.4597963037941815,
              53.37105136262819
            ],
            [
              -1.4597343329215753,
              53.37101953192199
            ],
            [
              -1.459729407496083,
              53.3710168130266
            ],
            [
              -1.4596653758848823,
              53.3709815572503
            ],
            [
              -1.459591110920362,
              53.37093546867704
            ],
            [
              -1.4594910873432652,
              53.37087020740805
            ],
            [
              -1.4594732483730408,
              53.370854666082806
            ],
            [
              -1.459409620160683,
              53.37081132214885
            ],
            [
              -1.459353462105396,
              53.37077151759579
            ],
            [
              -1.458903685668365,
              53.37044633634593
            ],
            [
              -1.458843683736473,
              53.37040157033942
            ],
            [
              -1.4588402578884283,
              53.370399127863024
            ],
            [
              -1.4587289130332934,
              53.37031895629709
            ],
            [
              -1.4587437744176783,
              53.3703156169251
            ],
            [
              -1.4587661419177158,
              53.370310585733655
            ],
            [
              -1.4588048478053435,
              53.37030188926904
            ],
            [
              -1.4588271699774862,
              53.37029687583822
            ],
            [
              -1.4587831902767043,
              53.37026511716273
            ],
            [
              -1.4586902887427513,
              53.37019548301248
            ],
            [
              -1.4585712003986346,
              53.37010496613961
            ],
            [
              -1.4585581028646362,
              53.370094839399336
            ],
            [
              -1.4584646556169205,
              53.37002088801167
            ],
            [
              -1.458316611432332,
              53.36990273410651
            ],
            [
              -1.4582715094040761,
              53.369868282521864
            ],
            [
              -1.4582208697188268,
              53.369832008055695
            ],
            [
              -1.4582144633395788,
              53.3698275745223
            ],
            [
              -1.4581621592228269,
              53.36979219135206
            ],
            [
              -1.4581588936452938,
              53.36979015407511
            ],
            [
              -1.4581074346830236,
              53.3697580555969
            ],
            [
              -1.4580974682078154,
              53.369752293551045
            ],
            [
              -1.4580819219239298,
              53.36974328822504
            ],
            [
              -1.4580684586452752,
              53.36973594627299
            ],
            [
              -1.4580350542414817,
              53.369717727368624
            ],
            [
              -1.457986670090507,
              53.36969323825754
            ],
            [
              -1.45793676832952,
              53.36966991077203
            ],
            [
              -1.4578850461080752,
              53.369647923309834
            ],
            [
              -1.4578759244166573,
              53.3696442864174
            ],
            [
              -1.457845561660224,
              53.369632732917644
            ],
            [
              -1.457825220022798,
              53.369625000164696
            ],
            [
              -1.4577732974337048,
              53.369606966780154
            ],
            [
              -1.4577191115063814,
              53.36958964219359
            ],
            [
              -1.4576611673923519,
              53.36957239040348
            ],
            [
              -1.4576023033653205,
              53.369556572602235
            ],
            [
              -1.457542217712137,
              53.36954227730532
            ],
            [
              -1.4575362223512858,
              53.369540991653416
            ],
            [
              -1.4574807555784706,
              53.36952986335622
            ],
            [
              -1.4574246705779286,
              53.36952008053231
            ],
            [
              -1.4573679707698002,
              53.369511373534905
            ],
            [
              -1.457312007558458,
              53.36950383839096
            ],
            [
              -1.457247175367787,
              53.36949644269029
            ],
            [
              -1.457212723261876,
              53.36949330186278
            ],
            [
              -1.4572151654814032,
              53.369484432108
            ],
            [
              -1.4572236724733554,
              53.36945363946464
            ],
            [
              -1.457023452776056,
              53.36938039713513
            ],
            [
              -1.4570291681420708,
              53.369344585096464
            ],
            [
              -1.4569669895606288,
              53.36930580371112
            ],
            [
              -1.456947754487696,
              53.369293806197376
            ],
            [
              -1.4569570685237956,
              53.36931067543047
            ]
          ]
        ]
      }
    },
    {
      "type": "Feature",
      "id": "27585748",
      "properties": {
        "INSPIREID": "27585748"
      },
      "geometry": {
        "type": "Polygon",
        "coordinates": [
          [
            [
              -1.457776154587337,
              53.370116010850495
            ],
            [
              -1.4577348260733474,
              53.37011582320991
            ],
            [
              -1.4576656662152632,
              53.37011775635626
            ],
            [
              -1.4569168559551444,
              53.37014491532095
            ],
            [
              -1.4567034071405824,
              53.37015562087067
            ],
            [
              -1.4567031833727468,
              53.37015430749993
            ],
            [
              -1.4567033018263402,
              53.37015562938032
            ],
            [
              -1.4567070610485429,
              53.37019093618778
            ],
            [
              -1.4567080017123466,
              53.37019969547812
            ],
            [
              -1.456693691675609,
              53.37021048875227
            ],
            [
              -1.4566837216457225,
              53.37021801189752
            ],
            [
              -1.4566609615650423,
              53.37023498691933
            ],
            [
              -1.4566579215513555,
              53.370237669704466
            ],
            [
              -1.4566344157362987,
              53.37025419189264
            ],
            [
              -1.45659116692023,
              53.3702868039399
            ],
            [
              -1.456582064004072,
              53.370293504059966
            ],
            [
              -1.45657903541485,
              53.370295288023286
            ],
            [
              -1.45656082385525,
              53.37030913767069
            ],
            [
              -1.456525920715197,
              53.370335495566145
            ],
            [
              -1.4565137834655004,
              53.37034442905264
            ],
            [
              -1.4565023804894155,
              53.37035471418701
            ],
            [
              -1.4564916660445069,
              53.37036994624843
            ],
            [
              -1.4564915802784677,
              53.37037668739642
            ],
            [
              -1.4564928177010252,
              53.370385744666436
            ],
            [
              -1.456494328709404,
              53.37039692451883
            ],
            [
              -1.4565031343452486,
              53.37041359371869
            ],
            [
              -1.4565628112514457,
              53.37050734793828
            ],
            [
              -1.4566490256603135,
              53.37064167208836
            ],
            [
              -1.4565073855123123,
              53.370672479139294
            ],
            [
              -1.4564749520548759,
              53.37067953150414
            ],
            [
              -1.4563023524191612,
              53.37071964455581
            ],
            [
              -1.4562996264222912,
              53.37072126809261
            ],
            [
              -1.4561244084628924,
              53.37082535065731
            ],
            [
              -1.4559411462975997,
              53.37093552662567
            ],
            [
              -1.4559918437172494,
              53.37096721807082
            ],
            [
              -1.4561610823266646,
              53.37107315681302
            ],
            [
              -1.456377308293124,
              53.37120717421538
            ],
            [
              -1.4564711233132681,
              53.37126631549357
            ],
            [
              -1.456553248955604,
              53.37131808669302
            ],
            [
              -1.4566688203410854,
              53.37138962337198
            ],
            [
              -1.4567279421023345,
              53.37134989253092
            ],
            [
              -1.4567400681640301,
              53.371341857844406
            ],
            [
              -1.4568219389616237,
              53.371286050743244
            ],
            [
              -1.4568780146506308,
              53.37124945202491
            ],
            [
              -1.456993745879427,
              53.37119020329545
            ],
            [
              -1.457048204163065,
              53.37116258585984
            ],
            [
              -1.4570922170373133,
              53.37114085347063
            ],
            [
              -1.4571139968817928,
              53.37113007612713
            ],
            [
              -1.4571146193494047,
              53.37112958457718
            ],
            [
              -1.4571334363842952,
              53.37112014207
            ],
            [
              -1.4571569574377763,
              53.37110835690815
            ],
            [
              -1.4572302921825802,
              53.371097355434465
            ],
            [
              -1.4572326011964127,
              53.37109661087578
            ],
            [
              -1.457236359036655,
              53.37109539649928
            ],
            [
              -1.4576196188727966,
              53.371038504221126
            ],
            [
              -1.4576524756672566,
              53.37103362873726
            ],
            [
              -1.4576545838175727,
              53.371033314716655
            ],
            [
              -1.457855067448887,
              53.37100355544924
            ],
            [
              -1.4579266199299363,
              53.370990846590644
            ],
            [
              -1.45794997168647,
              53.37098645821792
            ],
            [
              -1.457965034758057,
              53.37098382996661
            ],
            [
              -1.4580034438716838,
              53.37097726274012
            ],
            [
              -1.4580411072325208,
              53.3709702426814
            ],
            [
              -1.4580795220235259,
              53.370963226020415
            ],
            [
              -1.4581179368019852,
              53.370956209347064
            ],
            [
              -1.4581563515678964,
              53.370949192661264
            ],
            [
              -1.4581947606213326,
              53.37094262537305
            ],
            [
              -1.4582324239205453,
              53.37093560525377
            ],
            [
              -1.4582585007369908,
              53.370930842667335
            ],
            [
              -1.458259692637131,
              53.370934039067976
            ],
            [
              -1.4582572060394514,
              53.37093456711183
            ],
            [
              -1.458351379691371,
              53.37091816736773
            ],
            [
              -1.458428949113008,
              53.370905036060456
            ],
            [
              -1.45858183349096,
              53.37087876307481
            ],
            [
              -1.4586383225611343,
              53.370868682117674
            ],
            [
              -1.4587994953008376,
              53.37084064867952
            ],
            [
              -1.4588326383837593,
              53.37083450675957
            ],
            [
              -1.458967459248586,
              53.37081039860963
            ],
            [
              -1.4589093535586417,
              53.37077013558812
            ],
            [
              -1.4588742795667307,
              53.3707448082742
            ],
            [
              -1.4588253249691459,
              53.37070945855679
            ],
            [
              -1.4588014806154876,
              53.3706922449831
            ],
            [
              -1.458747020280109,
              53.37065254671144
            ],
            [
              -1.4587202077070143,
              53.370633548892435
            ],
            [
              -1.4585801451102174,
              53.37053763363526
            ],
            [
              -1.4585775084969015,
              53.37053577000706
            ],
            [
              -1.4585734109186324,
              53.37053296492923
            ],
            [
              -1.458568508740201,
              53.37052960789198
            ],
            [
              -1.4585570356396345,
              53.37052174468464
            ],
            [
              -1.4585093552181148,
              53.370489070260575
            ],
            [
              -1.4584125194049968,
              53.370422716918306
            ],
            [
              -1.4583879390875607,
              53.370405490934424
            ],
            [
              -1.4583145560921544,
              53.37035403929332
            ],
            [
              -1.4582918529345876,
              53.37033812516716
            ],
            [
              -1.4582284383171753,
              53.37030416578538
            ],
            [
              -1.4581769065432804,
              53.37027657035823
            ],
            [
              -1.4581410784389193,
              53.37025744161881
            ],
            [
              -1.4580425681365894,
              53.37020351177055
            ],
            [
              -1.458023455845974,
              53.37019362733912
            ],
            [
              -1.4579938908439511,
              53.3701783921251
            ],
            [
              -1.457964178998678,
              53.37016288657568
            ],
            [
              -1.4579567126139767,
              53.37015907742816
            ],
            [
              -1.4579409092441988,
              53.37015018777115
            ],
            [
              -1.4579365666117012,
              53.37014775009633
            ],
            [
              -1.4578999177205019,
              53.37013410067604
            ],
            [
              -1.4578677260897037,
              53.37012451640015
            ],
            [
              -1.4578399974105953,
              53.370118547862276
            ],
            [
              -1.457815963135479,
              53.3701175398842
            ],
            [
              -1.457776154587337,
              53.370116010850495
            ]
          ]
        ]
      }
    }
  ]
}
