{
  "type": "FeatureCollection",
  "features": [
    {
      "type": "Feature",
      "id": "140415___04403____04",
      "properties": {
        "sourceParcelId": "140415___04403____04"
      },
      "geometry": {
        "type": "Polygon",
        "coordinates": [
          [
            [
              12.374094953480384,
              51.34115410530005
            ],
            [
              12.37415276246023,
              51.34104820199915
            ],
            [
              12.374165085373084,
              51.34083293617964
            ],
            [
              12.374168925535738,
              51.34076602569243
            ],
            [
              12.374179521435652,
              51.340591509111164
            ],
            [
              12.374180863154558,
              51.3405436819043
            ],
            [
              12.374183735552268,
              51.340543674380356
            ],
            [
              12.374184819631045,
              51.34046619702876
            ],
            [
              12.374181947238188,
              51.340466204552826
            ],
            [
              12.374183561946438,
              51.34041837447432
            ],
            [
              12.374195320870482,
              51.340346074289464
            ],
            [
              12.374204079761647,
              51.34029409630799
            ],
            [
              12.374231174138435,
              51.34013239752949
            ],
            [
              12.37424974511313,
              51.34001629624067
            ],
            [
              12.374344945221273,
              51.33985211366187
            ],
            [
              12.374556155189326,
              51.339832620728195
            ],
            [
              12.374596297862384,
              51.339833242189975
            ],
            [
              12.374907918986745,
              51.33984750660805
            ],
            [
              12.375074225348362,
              51.33984938298664
            ],
            [
              12.375126159182855,
              51.33984972001854
            ],
            [
              12.375255400751037,
              51.339849883642195
            ],
            [
              12.375221570092593,
              51.33995489504982
            ],
            [
              12.375213697785156,
              51.34001625577618
            ],
            [
              12.375164807733613,
              51.34001190373695
            ],
            [
              12.375156701000407,
              51.34008289182228
            ],
            [
              12.375154700566773,
              51.34011588208444
            ],
            [
              12.375170009613083,
              51.34044749388255
            ],
            [
              12.37518045930486,
              51.34079629224833
            ],
            [
              12.375266017845528,
              51.34084072540676
            ],
            [
              12.375260676192402,
              51.34090202594646
            ],
            [
              12.375240030650952,
              51.34104667290518
            ],
            [
              12.375236913037932,
              51.34106855745802
            ],
            [
              12.375234672144327,
              51.341103242199296
            ],
            [
              12.37522912806021,
              51.34110326179949
            ],
            [
              12.37522301625074,
              51.34116622695375
            ],
            [
              12.375221051424571,
              51.341200854925894
            ],
            [
              12.375022858956894,
              51.341233178688285
            ],
            [
              12.374788124832106,
              51.34122044998704
            ],
            [
              12.374605794606609,
              51.341209912384706
            ],
            [
              12.37446782324417,
              51.34120011753634
            ],
            [
              12.374382451333421,
              51.34118909185227
            ],
            [
              12.374364851241184,
              51.3411874919083
            ],
            [
              12.374246951507711,
              51.34117575455811
            ],
            [
              12.374094953480384,
              51.34115410530005
            ]
          ]
        ]
      }
    }
  ]
}
