{"type":"FeatureCollection","name":"utrecht-nearest-parcel-near-wup-locator","features":[{"type":"Feature","id":"c9372ee6-3519-5b1a-82e1-f51c4f3e4ac4","properties":{"identificatie_lokaal_id":"26211032670000","kadastrale_gemeente_code":"189","sectie":"C","perceelnummer":10326},"geometry":{"type":"MultiPolygon","coordinates":[[[[5.083240793849758,52.08559583225793],[5.083242429136322,52.08558276779785],[5.0832593264124535,52.08549224741222],[5.083260734719213,52.085484674086835],[5.083262006345873,52.08547789136058],[5.083278297979244,52.0853906051203],[5.083281546530321,52.08537415630989],[5.083293498255979,52.08531147724533],[5.083305707676891,52.085247369737615],[5.083308432753307,52.085232807074775],[5.083320252486748,52.0851680693943],[5.083332329729888,52.085101930234345],[5.0833343836103095,52.085087374828625],[5.0833501841670925,52.08500146248499],[5.083352795122663,52.08498651303875],[5.083383743732434,52.084822659091955],[5.083273152783005,52.08478847097533],[5.083248040148582,52.08478044278697],[5.0830638395650265,52.08472338772419],[5.083039393167483,52.084716089244914],[5.082853762562987,52.084659147007855],[5.082830453532788,52.08465195029019],[5.082621917676708,52.08458859397],[5.082620255715207,52.08458840991447],[5.082579800087315,52.08458392818903],[5.082328700489045,52.08456650733022],[5.082156701137764,52.08455405432135],[5.081999094253419,52.08454270790443],[5.081920524178631,52.08453704870327],[5.081838993840539,52.08453118404409],[5.081760175910713,52.08452550611776],[5.081679476837928,52.08451969743035],[5.081599740251496,52.08451395409925],[5.081522336870965,52.08450837854949],[5.081441127479999,52.08450253242316],[5.081363053338043,52.084496910088596],[5.081284308414805,52.08449124102115],[5.08120078049282,52.08448522692706],[5.081144684135095,52.08448088387162],[5.081110023122552,52.084478196325705],[5.080855280510431,52.084460304473296],[5.080835844054939,52.084560911561134],[5.080825860787448,52.084612630038386],[5.080815051755584,52.08466775285356],[5.080804895644618,52.08471913831977],[5.08079526792728,52.084767927600765],[5.080775453415265,52.08486830898945],[5.080820939518891,52.0848732358357],[5.080993294481417,52.08488501760938],[5.080975449231796,52.08497911248297],[5.080963098164984,52.08504425301996],[5.0809587541718315,52.085067152369746],[5.080934593615887,52.08519502603625],[5.080930294900074,52.08521770079997],[5.080906225163694,52.08534507136098],[5.0809019264189175,52.08536774612308],[5.0808779168477685,52.08549482921313],[5.080873618074086,52.08551750397364],[5.080849396208347,52.08564573697852],[5.0808450974055415,52.08566841173742],[5.080821042140281,52.08579572838187],[5.080816743308523,52.085818403139136],[5.080817428718695,52.08581844986085],[5.0807783067675345,52.086034511648606],[5.0807615510848,52.086127027403066],[5.0805700002855785,52.086113865139524],[5.080553047162412,52.086203189580125],[5.080543253851475,52.08625476470585],[5.080533672538769,52.08630520788299],[5.080523984885577,52.08635626197224],[5.080514479436091,52.08640627391638],[5.080504640294283,52.086458136536834],[5.0804954823235935,52.08650640569418],[5.0804813296564255,52.08658091605255],[5.0804631414869865,52.08668220939011],[5.080447680044687,52.08676458091165],[5.080437186010837,52.086820432529436],[5.080427191234046,52.08687368788851],[5.080417560277712,52.08692494883827],[5.080407383777828,52.086979165447005],[5.080396934830748,52.08703481045086],[5.080381200473289,52.08711864630695],[5.080374933164202,52.08714747275877],[5.080360803477118,52.087222828035536],[5.080360727628938,52.08722325027809],[5.080354748420624,52.08722283025237],[5.080332601638951,52.08734172990203],[5.080023896873081,52.0873182041008],[5.080110684234072,52.08685222724045],[5.080157484130138,52.08659796835409],[5.080382980524476,52.08539105101628],[5.080516076009422,52.08469616877802],[5.080551404390424,52.084507834403084],[5.080722564804486,52.08361390176066],[5.080794240920224,52.083226305944834],[5.080921814063577,52.082731016193],[5.080992635173598,52.08245937334637],[5.081031947073807,52.08232154420923],[5.081316640904519,52.08229494148425],[5.081756960180036,52.08216692430629],[5.082109580653363,52.08213566005269],[5.082556129859195,52.08209699763719],[5.083361259905361,52.082027647163216],[5.083345881328915,52.08198927331943],[5.084514651980114,52.08178760325959],[5.084739013108118,52.081748496698374],[5.085239772540649,52.08167234803755],[5.0853739198078065,52.081647866468366],[5.0856249779597205,52.08162371983736],[5.0858488906469645,52.08163143796778],[5.086025925535246,52.081678853158124],[5.086062923874776,52.08168729761084],[5.086121814789661,52.08170949581606],[5.086196180532669,52.08174310343889],[5.086272671804063,52.08177521542928],[5.086467492154411,52.0818594096751],[5.086562664759108,52.08190345138547],[5.0866756169146505,52.08195682304078],[5.086736518053091,52.081975224099395],[5.086736296871954,52.081975574071116],[5.086818949125339,52.08202016788677],[5.086959322838247,52.08211573630981],[5.0870119661925575,52.0821581862959],[5.087099656466127,52.082223896773655],[5.087146700834346,52.082265918993045],[5.087214362891544,52.08238139938066],[5.087424183633686,52.08257250755748],[5.087708464149469,52.082840544831626],[5.087621252089301,52.08288177630161],[5.08756842894692,52.082907356974864],[5.087559482086638,52.08291227768308],[5.087458406086775,52.08291709001425],[5.087432575233848,52.08291831861911],[5.0871941870988575,52.08292964838587],[5.087182995284289,52.08314971120786],[5.087181635022908,52.08317633944951],[5.087181602289556,52.083176869663355],[5.087179573979812,52.083216097503346],[5.087179455224495,52.08321857791322],[5.0871766659702224,52.08327338017178],[5.086943326225293,52.08326911896184],[5.086816445214038,52.08326680038029],[5.086733384672843,52.083265285439],[5.086651038933898,52.08326378124957],[5.086568401422307,52.08326227625849],[5.086493480666994,52.08326090773844],[5.086414504681581,52.083259456919436],[5.086336943584279,52.08325804561084],[5.086228326021307,52.08325606062307],[5.086176969707302,52.08327811209953],[5.086106343720952,52.08330843730891],[5.086046925311463,52.08333395551554],[5.086021539697177,52.08334485613121],[5.085976637961976,52.08336379615555],[5.085914559676087,52.0833899816057],[5.08584911623105,52.08341758752702],[5.085784579825091,52.08344480924341],[5.085739880378923,52.08346401034934],[5.085727955661173,52.08346913002975],[5.085396312281047,52.08368989175753],[5.085369954296041,52.08369998081563],[5.085272131369587,52.083788865184275],[5.085261212860462,52.08379835560489],[5.085230408422979,52.08382739810764],[5.085205166369036,52.08385370449668],[5.085191470043942,52.08386621678028],[5.08511813608653,52.083934365319074],[5.085004217793307,52.084040860822974],[5.084944886134817,52.08409217450587],[5.084935093703247,52.08410124534305],[5.084891960016632,52.08414119464634],[5.084863654399019,52.08416741221283],[5.084848956887747,52.08418124313752],[5.084805480995198,52.08422215325656],[5.084764016567535,52.08426117203336],[5.0847198503283275,52.084302745467994],[5.0846808628270415,52.08434222896288],[5.084640082723311,52.08438357736616],[5.084620963855982,52.08440396720637],[5.084602325262941,52.08442452904978],[5.084583872483964,52.08444565761662],[5.084565929218988,52.08446694927408],[5.0845532036867755,52.084482555876825],[5.084531851531001,52.084509564188856],[5.084511425651878,52.084535514280994],[5.084488459679718,52.0845638396903],[5.084456577915292,52.08460317058174],[5.084416780781909,52.08465226916158],[5.084395815511279,52.08467813695521],[5.084361649111939,52.08472087742527],[5.084231660197822,52.084877457449196],[5.084098746924571,52.08504131015854],[5.084085257918689,52.085061885158474],[5.084043371388621,52.08511346793772],[5.084004603932458,52.085161193846616],[5.083965880466677,52.08520887491524],[5.083925994534331,52.085258000062346],[5.083889845706981,52.085302496958256],[5.0838540938953205,52.08534652748402],[5.083787586591626,52.08542713226219],[5.08378372489376,52.085447965693795],[5.0837737606654825,52.08550165284741],[5.083763932535542,52.08555463029126],[5.083754548960662,52.08560659322453],[5.083744369433239,52.0856618976756],[5.08373468999518,52.08571445305855],[5.083724934964172,52.085767394733345],[5.083715225142352,52.08582012080928],[5.0837050612653,52.08587525452191],[5.083693185186881,52.08593974940968],[5.083687834153776,52.085969342385056],[5.0836767646989784,52.08602891387652],[5.083667088210896,52.08608101086636],[5.083656942950873,52.08613553343094],[5.083646887949269,52.08618965176279],[5.083636742273809,52.086244228252184],[5.0836270353535005,52.0862964959324],[5.083616980401085,52.08635059628439],[5.083607001118358,52.08640429236618],[5.083596638922017,52.086456360617404],[5.083585084387427,52.08651427703942],[5.083580618163255,52.08653816485277],[5.083566410447688,52.08661509322489],[5.0835571688302,52.0866654206688],[5.083547230673716,52.08671948536043],[5.0835337470789845,52.08679289226286],[5.083513868858702,52.08690128228842],[5.083498701353086,52.08698630643912],[5.083488933315509,52.08704108162014],[5.0834783612235634,52.08710038472243],[5.083468425992974,52.08715613917119],[5.083458779178844,52.087210240554434],[5.0834433384035185,52.08729680095231],[5.082933744950161,52.08726339044927],[5.082950796179507,52.087171872850014],[5.082960745531614,52.087118428417774],[5.082969771123725,52.08706994302257],[5.082980340749513,52.087013246502245],[5.082991319804177,52.08695426806377],[5.083007810858347,52.08686570608625],[5.083027824076695,52.08676124428422],[5.0830451932782115,52.086659382200295],[5.083047339861902,52.08664623817134],[5.0830598474249875,52.08658130456691],[5.0830723400561055,52.08651641586242],[5.083074996174056,52.08650343493258],[5.083086265099489,52.08643826443858],[5.083097154459801,52.086375268080175],[5.083101350995442,52.08636104177921],[5.0831155492966635,52.086270577379196],[5.083116869685607,52.08626306674615],[5.083117931966784,52.08625703848137],[5.0831343695871904,52.08616767639983],[5.0831370679175105,52.08615277212672],[5.083160542467515,52.08602623549403],[5.083163532523069,52.0860091928081],[5.083187453586162,52.08588348422276],[5.083190443988231,52.0858663876082],[5.083213918845872,52.085739761079594],[5.083217036500318,52.08572540615811],[5.083240793849758,52.08559583225793]],[[5.085678464123968,52.08304117945979],[5.0856810607635765,52.08303904693613],[5.085689655133229,52.08303017969799],[5.085705673642243,52.08302156513665],[5.085721308233084,52.083013632686004],[5.085755550430978,52.08299823377309],[5.085784195154313,52.082986460714636],[5.085974528250875,52.08291868267136],[5.085975540875202,52.08291996156732],[5.086077453455221,52.082884080823504],[5.086165975415811,52.08285436757973],[5.086363178211412,52.082793185731816],[5.086938016654626,52.08263197583814],[5.087090639628315,52.08258947331338],[5.087071020849039,52.082569397906994],[5.087069075670177,52.08257012098993],[5.086740201810483,52.0822500533034],[5.086551344165838,52.08207277609606],[5.086384548821003,52.08197973732447],[5.086253630700836,52.08193616148503],[5.0859619118466535,52.08189319935391],[5.085665352021167,52.08187809618374],[5.085366055514452,52.0818924122666],[5.085141527675798,52.0819280951318],[5.085113224380495,52.08193258855716],[5.0851130808014435,52.08193224664179],[5.084995353530752,52.08195112548825],[5.084028747893599,52.08210609697418],[5.0834441719438335,52.08218822633909],[5.082416341681695,52.08229595620876],[5.082308991881026,52.08230739908804],[5.082021791153488,52.08233800640856],[5.081474441454923,52.08239633202805],[5.081470775595019,52.0823969247231],[5.081455802169849,52.08239982499545],[5.081441218029508,52.08240340038236],[5.081427096177995,52.0824076420853],[5.081413524453719,52.08241250539175],[5.081400590449517,52.08241798154104],[5.0813883381767155,52.082424034695244],[5.081376855412654,52.08243062912988],[5.081366200757544,52.082437729044855],[5.081356432750293,52.08244530762795],[5.081347595587021,52.082453302077475],[5.081339747806879,52.08246168558121],[5.081332933606242,52.08247039533738],[5.081327196997283,52.08247939550802],[5.081322552876399,52.08248864119144],[5.081319045440257,52.08249806958592],[5.081316675058184,52.08250762676379],[5.081315456565322,52.08251727681145],[5.081315419631277,52.08252694790104],[5.081316535386683,52.08253659501728],[5.081318818789607,52.08254616427037],[5.081404208280995,52.082857769198945],[5.081423688823125,52.08287210180423],[5.0823354220333945,52.08349651080878],[5.082345981258591,52.083503431978905],[5.082468730451178,52.08358767112159],[5.08256350527763,52.0836536729226],[5.082684358069884,52.08372728301624],[5.082700862923176,52.083737365342834],[5.08271799786618,52.08374704483051],[5.082718965331886,52.083746373222645],[5.082760916527762,52.083766803633],[5.0827601097255375,52.08376744869182],[5.082765985733338,52.08377010636398],[5.082787904392486,52.083780022896796],[5.082816388797425,52.0837920056622],[5.082845504644564,52.08380338784887],[5.082848793708431,52.083804582767854],[5.082875222816164,52.083814160393246],[5.082905528844599,52.08382430528126],[5.082936364433724,52.08383381337396],[5.08296733641019,52.08384257579915],[5.083005417080678,52.08385079929779],[5.083043881725305,52.08385834068003],[5.083082672047168,52.08386519080704],[5.083121758866396,52.08387134960328],[5.083130081124702,52.08387256648466],[5.083159377998081,52.083876650732925],[5.083188898537872,52.08388002549176],[5.0832186135034325,52.08388269967364],[5.083248479248171,52.083884655189756],[5.083278451942271,52.08388590091504],[5.083308473349942,52.083886418723196],[5.083338499580299,52.08388622647716],[5.083365655843879,52.08388542462493],[5.083394007803645,52.0838847157287],[5.08342230622671,52.08388329662873],[5.083450478227179,52.083881158149204],[5.083478479975363,52.08387830916538],[5.083506267702625,52.08387474956465],[5.083533797518359,52.08387049721027],[5.0835529034965505,52.083867094997075],[5.083598372437332,52.0838572443127],[5.083643452025559,52.083846718501626],[5.083688098431196,52.08383552643957],[5.083730192271444,52.083824246897116],[5.083817550412918,52.08380100384339],[5.083905125289419,52.08377805788946],[5.083969610937476,52.08376287212014],[5.0840345150575414,52.08374836149825],[5.084099808474013,52.08373452594818],[5.084115908212279,52.083731232759746],[5.084146833076205,52.08372543405143],[5.084161192022154,52.083722828464566],[5.084180064647331,52.08371939858574],[5.084183642862968,52.083718832545415],[5.084213612421623,52.083714064994226],[5.084247432694232,52.083709424176206],[5.084281496227678,52.08370548504434],[5.084315744606442,52.08370225643652],[5.084328166828914,52.08370126370926],[5.0844199847986395,52.083689383621994],[5.084523739844476,52.08367704875503],[5.084530863738263,52.08367641091469],[5.084539729139376,52.08367497760511],[5.084548219905845,52.083672851250334],[5.084549637961502,52.083672423462644],[5.084557199101153,52.08366969251877],[5.084561819634992,52.083668167417386],[5.08458666234669,52.08365996214855],[5.084597963867132,52.08365209961707],[5.084658823983973,52.08361205210212],[5.084683943088968,52.083595326814894],[5.0847095888755,52.08359133000602],[5.084745233717081,52.083584374800225],[5.084783166867598,52.08357126861362],[5.084808828341512,52.083560629626554],[5.084838241534299,52.083547492579804],[5.084863553621229,52.08353457869848],[5.084899681681341,52.083514394219996],[5.085032161718941,52.08342870887131],[5.085254657362474,52.08330182786408],[5.085306684086299,52.08327562600899],[5.085359218753906,52.08324981191926],[5.08553992781806,52.08315994417979],[5.085559662762403,52.08314973926839],[5.085588703787421,52.083135468582974],[5.085605481773473,52.08312457300393],[5.085633067050463,52.08310549894426],[5.085652509428898,52.08308457946776],[5.085662565751692,52.08306876817898],[5.085665773558747,52.08306470477995],[5.085668690133364,52.08306055974312],[5.085673483778345,52.083052815283935],[5.085677170183721,52.0830448432903],[5.085678464123968,52.08304117945979]],[[5.0821002203481145,52.08443917522707],[5.082138306504497,52.084442365689696],[5.082233879597552,52.084449237182966],[5.082280990484191,52.08445334076544],[5.0826032509115615,52.08447598792566],[5.0826503915999455,52.08441784893266],[5.082665498369815,52.08439973202089],[5.08279687458599,52.0842392744338],[5.082813497805776,52.0842191211225],[5.08285987906638,52.08416101603579],[5.0826059895319915,52.083996543442666],[5.082511083333406,52.0839347208023],[5.081872090568157,52.083518806570964],[5.081855955552734,52.08350801502633],[5.081809735944671,52.08347821663384],[5.081806758208775,52.083476303445146],[5.081704863070954,52.08341063311506],[5.081613322760134,52.083409604911004],[5.081609690150524,52.08341172567176],[5.081597298536682,52.083418919973276],[5.081587624953909,52.08341264817406],[5.081487319010489,52.08347104436975],[5.08146731056864,52.083482685985445],[5.0814769405669304,52.08348893071715],[5.081464080097555,52.08349641140765],[5.081410309251615,52.08352768531588],[5.081379959649049,52.08354534008833],[5.081378597465955,52.08354612750648],[5.081369489970073,52.08354027959815],[5.081270619631999,52.083597735584135],[5.081280234915609,52.08360399826981],[5.081281344346164,52.08360817162211],[5.081298758275722,52.08367302093096],[5.08135025091776,52.08368907243958],[5.0813381259549155,52.08370419489992],[5.08130691608249,52.08374309526337],[5.081306312769324,52.08374384869741],[5.081247991023712,52.083725847007614],[5.081233396922467,52.083743614535344],[5.081213597096339,52.083737523149956],[5.0812279140113406,52.083719754905246],[5.081117835289783,52.08368597054524],[5.081062717051138,52.08375418184184],[5.081048297382485,52.08377203069248],[5.081076700652504,52.08378087682558],[5.081067769629011,52.083791882019],[5.081066007978258,52.08379134714711],[5.081048440528097,52.0838129448446],[5.081050201933502,52.08381351566848],[5.081026498660065,52.08384271932747],[5.080997743008168,52.08383419583831],[5.080942697902571,52.08390232637499],[5.081052266158193,52.08393614552347],[5.081071440931299,52.08394191174139],[5.081132280844253,52.08396079189988],[5.081131103630329,52.08396226289007],[5.081114534662013,52.083982919439904],[5.081089578165128,52.08401403431987],[5.081037752706039,52.083997541418],[5.080943893650157,52.08403030188722],[5.080939857321957,52.08403171151946],[5.080919850469114,52.084030275377174],[5.0809039425366604,52.08411419178144],[5.080919283039907,52.084115301220045],[5.080919025548978,52.084116684716676],[5.08090093164354,52.08421302596631],[5.080900659254612,52.08421445436463],[5.080885187537916,52.08421332660658],[5.080869599515004,52.08429737865655],[5.0808848523601435,52.08429851483596],[5.080884791541893,52.08429887420145],[5.080882262839554,52.08431234976334],[5.080935822739986,52.08435471495557],[5.081089993446922,52.084367042564246],[5.081155406298905,52.08437227268864],[5.081176114949831,52.0843735128744],[5.0821002203481145,52.08443917522707]]]]}}]}
