{
  "type": "FeatureCollection",
  "name": "Bukit Mertajam safe cadastral point sample",
  "crs": {
    "type": "name",
    "properties": {
      "name": "urn:ogc:def:crs:OGC:1.3:CRS84"
    }
  },
  "features": [
    {
      "type": "Feature",
      "id": "0701060003760",
      "properties": {
        "FID": 330428,
        "UPI": "0701060003760"
      },
      "geometry": {
        "type": "Polygon",
        "coordinates": [
          [
            [
              100.42299105918536,
              5.370651464076112
            ],
            [
              100.42273481812246,
              5.371330906668072
            ],
            [
              100.42238506192238,
              5.372318649965923
            ],
            [
              100.42227776934668,
              5.372618371906903
            ],
            [
              100.42212461229924,
              5.3730417971584545
            ],
            [
              100.42187340746972,
              5.373743890543046
            ],
            [
              100.421757052102,
              5.374094063145363
            ],
            [
              100.42153334835857,
              5.374807818838492
            ],
            [
              100.4213485129818,
              5.375376394678659
            ],
            [
              100.42119467257321,
              5.375969056521889
            ],
            [
              100.42135547731066,
              5.375939167487126
            ],
            [
              100.42165992717223,
              5.375882782318564
            ],
            [
              100.42197458685263,
              5.375791572141516
            ],
            [
              100.42229850751022,
              5.375806559278949
            ],
            [
              100.42269339350541,
              5.37577466798843
            ],
            [
              100.42295946546648,
              5.3756811575859444
            ],
            [
              100.42355757929158,
              5.375407586402842
            ],
            [
              100.42429451212938,
              5.375049283452273
            ],
            [
              100.42428725460073,
              5.3750274096432324
            ],
            [
              100.42454379789366,
              5.37492632152675
            ],
            [
              100.42481631683698,
              5.374809723071416
            ],
            [
              100.4248747071888,
              5.374784774525788
            ],
            [
              100.42533845922493,
              5.374669759589793
            ],
            [
              100.42554777511637,
              5.374679262818845
            ],
            [
              100.4263241406976,
              5.3749043075138445
            ],
            [
              100.42635873393947,
              5.3749153162702115
            ],
            [
              100.42684606314226,
              5.375070443898538
            ],
            [
              100.42689915367022,
              5.375087337430176
            ],
            [
              100.42744610157163,
              5.375225338144797
            ],
            [
              100.42744622243876,
              5.375383552577319
            ],
            [
              100.42835675742506,
              5.375368144157438
            ],
            [
              100.42874883005545,
              5.375354127103299
            ],
            [
              100.42877845150147,
              5.375097594239654
            ],
            [
              100.42879843928588,
              5.374923544042137
            ],
            [
              100.42884593264229,
              5.374004347538364
            ],
            [
              100.42882156581314,
              5.373704688083465
            ],
            [
              100.42889280474097,
              5.372779719643183
            ],
            [
              100.42890195030282,
              5.372624298437373
            ],
            [
              100.42895648948262,
              5.372224198127419
            ],
            [
              100.42901012723298,
              5.3718307173858975
            ],
            [
              100.42911013317442,
              5.3712507387041555
            ],
            [
              100.42912270153127,
              5.371121053306147
            ],
            [
              100.4291192042258,
              5.370438832784598
            ],
            [
              100.42911777643617,
              5.3701628897882925
            ],
            [
              100.42813808656685,
              5.370143891977113
            ],
            [
              100.42735227129477,
              5.370054276696951
            ],
            [
              100.42692418983265,
              5.370041693391314
            ],
            [
              100.42598343238863,
              5.370155056238219
            ],
            [
              100.42467285789,
              5.370444920443457
            ],
            [
              100.42379990361712,
              5.3706351980589275
            ],
            [
              100.4233147954091,
              5.37065733600915
            ],
            [
              100.42309288721422,
              5.370653250537917
            ],
            [
              100.42299105918536,
              5.370651464076112
            ]
          ]
        ]
      }
    }
  ]
}
