{"type":"FeatureCollection","name":"homel-nearby-wfs-safe-id-geometry-evidence","features":[{"type":"Feature","id":6722720,"properties":{"object_id":6722720},"geometry":{"type":"Polygon","coordinates":[[[30.9781844609612,52.4375236433763],[30.978076440408,52.4375336398976],[30.9780755582142,52.4375303220312],[30.9779737701216,52.4375408780603],[30.97791550565,52.4375466707836],[30.977805294185,52.437558006236],[30.9777814456406,52.4375607825173],[30.9778493396604,52.4378373329566],[30.9779226722221,52.4381144045869],[30.9779692475316,52.4381079715327],[30.978016500204,52.4381055679853],[30.9780742007618,52.4381001753023],[30.9780575723717,52.4380458250849],[30.9780681768775,52.4380173567827],[30.9780454127715,52.4378465599454],[30.9782626123072,52.4378356520512],[30.978257543469,52.4378052912292],[30.9781844609612,52.4375236433763]]]}}]}
