{"type":"FeatureCollection","name":"juiz-de-fora-point-sample","crs":null,"features":[{"type":"Feature","id":70049,"properties":{"OBJECTID":70049},"geometry":{"type":"Polygon","coordinates":[[[-43.360815498999955,-21.750755693349873],[-43.360811903999945,-21.750750943349864],[-43.360729463999974,-21.75064200034987],[-43.360654103999934,-21.750542414349855],[-43.360652912999974,-21.75054113234988],[-43.36073671099996,-21.750474580349852],[-43.36101296699997,-21.750262912349896],[-43.36119622799998,-21.750122676349903],[-43.36119310899994,-21.75011842334987],[-43.36124928399994,-21.750074012349884],[-43.36142612599997,-21.7499351793499],[-43.36145000699997,-21.749916430349902],[-43.36148300499996,-21.749890526349866],[-43.36155973499996,-21.74995880634986],[-43.36164555099998,-21.750036940349894],[-43.36176368399998,-21.750153400349905],[-43.361850464999975,-21.75023549434989],[-43.361972084999934,-21.75035058734987],[-43.36203202799993,-21.75041780534989],[-43.36208447699994,-21.7504805533499],[-43.36215477999997,-21.7505665543499],[-43.362242587999965,-21.75067405434985],[-43.36233830499999,-21.750788800349856],[-43.36240739899995,-21.750873265349835],[-43.36259970699996,-21.751099836349873],[-43.362642452999985,-21.75112569834985],[-43.36268738799998,-21.75114243834988],[-43.36276433699993,-21.75115377234984],[-43.36282376999998,-21.751161638349867],[-43.36290445099996,-21.751170570349824],[-43.36299907399996,-21.75118259834986],[-43.36307238499995,-21.751191442349885],[-43.36314354499996,-21.751201011349867],[-43.363226297999965,-21.751211044349837],[-43.363307332999966,-21.75122085234985],[-43.36338736699997,-21.75123058734985],[-43.36353312199998,-21.75125017034988],[-43.36364691099993,-21.75126479434984],[-43.36375906699993,-21.751276713349878],[-43.36379969699993,-21.751280669349878],[-43.36383495599995,-21.751284102349835],[-43.36383659299997,-21.751286917349848],[-43.363842845999955,-21.751294233349835],[-43.363852442999985,-21.751304248349832],[-43.36386702299995,-21.75131808834984],[-43.36388600499998,-21.751337597349867],[-43.363902712999966,-21.75135456634986],[-43.36392113499995,-21.751371479349825],[-43.36395238799998,-21.751394438349863],[-43.363965549999925,-21.751405968349857],[-43.363981979999956,-21.751421233349863],[-43.36400330099997,-21.751444763349824],[-43.364027954999976,-21.75147350934988],[-43.364039189999964,-21.751484872349877],[-43.36404650599997,-21.751493607349875],[-43.364058298999964,-21.75150779034983],[-43.36408464799996,-21.751540921349843],[-43.36409594899993,-21.751553100349852],[-43.36410732799993,-21.75156409434983],[-43.36412405699997,-21.75157639934987],[-43.364141994999954,-21.751589975349823],[-43.36415310399997,-21.75159733834983],[-43.36418436599996,-21.751618297349875],[-43.36419868499996,-21.751626655349824],[-43.36421785299996,-21.75163676034982],[-43.364239878999975,-21.75164682134984],[-43.36426909599993,-21.751661762349848],[-43.36428727499998,-21.751669564349825],[-43.364302314999975,-21.75167659534987],[-43.36431806499996,-21.75168437334987],[-43.364339804999936,-21.751694504349818],[-43.364371140999936,-21.751714724349828],[-43.36438466599998,-21.751724924349848],[-43.36439847899993,-21.75173446134983],[-43.36441863299996,-21.75174776234986],[-43.36444248699996,-21.75176420734982],[-43.36445699999996,-21.751777158349856],[-43.36446588699994,-21.751786203349813],[-43.36450176199998,-21.75181350134984],[-43.36451270899994,-21.75182508434984],[-43.36452230299994,-21.75183591334985],[-43.36454311199998,-21.751862253349834],[-43.364555189999976,-21.751876365349865],[-43.36456535999997,-21.75188594134983],[-43.36458023399996,-21.751897857349846],[-43.36458947199998,-21.751908387349836],[-43.364596280999926,-21.75191904134982],[-43.36460299799995,-21.751934065349825],[-43.36461140999995,-21.75195354634985],[-43.36463017999995,-21.75198808734984],[-43.36464153199996,-21.75200485734985],[-43.36465955599994,-21.752031096349818],[-43.364682326999976,-21.75206574834982],[-43.36469261299993,-21.752081102349855],[-43.36471330499995,-21.752117289349826],[-43.364731640999935,-21.752153454349806],[-43.364744737999956,-21.752178906349844],[-43.36476086499994,-21.752213864349812],[-43.36476706899998,-21.752231696349842],[-43.36477108799994,-21.75224343534983],[-43.364777023999984,-21.75225726534984],[-43.364787354999976,-21.752278766349832],[-43.36480820299994,-21.752312066349806],[-43.36481883099998,-21.752330977349846],[-43.36483158499994,-21.75235361134985],[-43.36484220099993,-21.75237511434982],[-43.364861057999974,-21.75240998434981],[-43.36487060599995,-21.75243822634985],[-43.36487564299994,-21.752461315349805],[-43.36487546699993,-21.75248449734982],[-43.364635333999956,-21.75243034734984],[-43.36432775299994,-21.75235283434983],[-43.36417190999998,-21.752312969349806],[-43.363783575999946,-21.75221658134984],[-43.36357732999994,-21.752164217349836],[-43.36333579099994,-21.752103538349846],[-43.363147940999966,-21.75205529734984],[-43.362958951999985,-21.752006610349845],[-43.36273573799997,-21.751950053349848],[-43.36186118699993,-21.75172733434983],[-43.36185772599998,-21.751718681349825],[-43.36175142499997,-21.75161507534985],[-43.36144916599994,-21.751281283349854],[-43.36147643999993,-21.751260578349857],[-43.361374842999965,-21.751161415349852],[-43.36128125499994,-21.751070069349865],[-43.36118365799996,-21.75097481034984],[-43.36108539199996,-21.750878896349853],[-43.36098689999994,-21.75078276334986],[-43.36089034199995,-21.750851315349873],[-43.360815498999955,-21.750755693349873]]]}}]}
