{
  "type": "FeatureCollection",
  "features": [
    {
      "type": "Feature",
      "id": "42889273",
      "properties": {
        "INSPIREID": "42889273"
      },
      "geometry": {
        "type": "Polygon",
        "coordinates": [
          [
            [
              -1.1259981539869757,
              52.63085751830521
            ],
            [
              -1.1259916313051253,
              52.630702842176994
            ],
            [
              -1.1258165198098875,
              52.63064485969085
            ],
            [
              -1.1257881762119868,
              52.6306354718263
            ],
            [
              -1.125787769904067,
              52.63063806693969
            ],
            [
              -1.1255997375435436,
              52.63086814534709
            ],
            [
              -1.1256134608431827,
              52.63092611523748
            ],
            [
              -1.125638192164967,
              52.631030770507266
            ],
            [
              -1.1257459428669674,
              52.63110293703258
            ],
            [
              -1.1259981539869757,
              52.63085751830521
            ]
          ]
        ]
      }
    },
    {
      "type": "Feature",
      "id": "42888920",
      "properties": {
        "INSPIREID": "42888920"
      },
      "geometry": {
        "type": "Polygon",
        "coordinates": [
          [
            [
              -1.1260563239786536,
              52.63097841329333
            ],
            [
              -1.1259981539869757,
              52.63085751830521
            ],
            [
              -1.1257459428669674,
              52.63110293703258
            ],
            [
              -1.1260585234002813,
              52.631359048168086
            ],
            [
              -1.1261677638713408,
              52.63126301338742
            ],
            [
              -1.1261676092441775,
              52.631262616687295
            ],
            [
              -1.1261124351289238,
              52.63112851057111
            ],
            [
              -1.1261023267341277,
              52.63111674903312
            ],
            [
              -1.126096596548588,
              52.631107716778835
            ],
            [
              -1.1260909021726562,
              52.631096886788136
            ],
            [
              -1.126086649296251,
              52.63108786542683
            ],
            [
              -1.1260831440254258,
              52.63107840007814
            ],
            [
              -1.1260797103714673,
              52.63106533925705
            ],
            [
              -1.1260693736135385,
              52.63102795452918
            ],
            [
              -1.1260563239786536,
              52.63097841329333
            ]
          ]
        ]
      }
    },
    {
      "type": "Feature",
      "id": "43065828",
      "properties": {
        "INSPIREID": "43065828"
      },
      "geometry": {
        "type": "Polygon",
        "coordinates": [
          [
            [
              -1.1256134458910638,
              52.63092612411715
            ],
            [
              -1.1255997375435436,
              52.63086814534709
            ],
            [
              -1.125787769904067,
              52.63063806693969
            ],
            [
              -1.1257881762119868,
              52.6306354718263
            ],
            [
              -1.1260269615060972,
              52.630375578977834
            ],
            [
              -1.1261289092201738,
              52.63041116700373
            ],
            [
              -1.1261582772711638,
              52.63042178498128
            ],
            [
              -1.1261815835439317,
              52.630430380456666
            ],
            [
              -1.1264487187560597,
              52.630528911398585
            ],
            [
              -1.126463078392012,
              52.63051192724842
            ],
            [
              -1.1260526550406786,
              52.63036149232846
            ],
            [
              -1.1260504480730442,
              52.63036102655356
            ],
            [
              -1.1260493887285956,
              52.6303608029816
            ],
            [
              -1.1260203518279484,
              52.63034691505806
            ],
            [
              -1.1260142394672095,
              52.63034372348129
            ],
            [
              -1.1260095373421115,
              52.63034910078617
            ],
            [
              -1.1259954534318646,
              52.630364846295315
            ],
            [
              -1.1258577586930998,
              52.6305187015158
            ],
            [
              -1.1258394006283015,
              52.63050869508487
            ],
            [
              -1.125771815327601,
              52.63057491135679
            ],
            [
              -1.1255383805241927,
              52.63080492444382
            ],
            [
              -1.1254653012580456,
              52.63087245749288
            ],
            [
              -1.1254740671032797,
              52.63087966023874
            ],
            [
              -1.125577572202162,
              52.63096391411409
            ],
            [
              -1.125606990493633,
              52.63093272909054
            ],
            [
              -1.1256134458910638,
              52.63092612411715
            ]
          ]
        ]
      }
    }
  ]
}
