{
  "type": "FeatureCollection",
  "name": "Selska–Drniška – rekonstrukcija izvedenog stanja",
  "bbox": [
    15.943814564,
    45.792325262,
    15.944133327,
    45.793234095
  ],
  "reconstruction": {
    "schema": "consensus-builder.reconstruction.v1",
    "proposal": {
      "proposalId": "pionir-selska-drniska-observed",
      "city": "zagreb",
      "name": "Selska–Drniška – rekonstrukcija izvedenog stanja",
      "title": "Selska–Drniška – rekonstrukcija izvedenog stanja",
      "description": "Rekonstrukcija triju izvedenih stambeno-poslovnih zgrada na aktualnoj k.č. 5652/1, MB 339270, k.o. Trešnjevka. Tlocrti su deduplicirane DGU geometrije, a visine su iz podudarnih GDI objekata snimljenih 2008. Pionirova službena referenca navodi podrum i šest nadzemnih etaža u svakoj zgradi te poslovnu namjenu prizemlja. Broj stanova i točan datum završetka nisu pronađeni.",
      "author": "zagreb.lol – lokalna analiza",
      "type": "building",
      "goal": "single",
      "primaryType": "Urban Rule",
      "typologyType": "single",
      "lifecycleStatus": "Active",
      "createdAt": "2026-08-13T00:00:00.000Z",
      "updatedAt": "2026-08-13T00:00:00.000Z",
      "tags": [
        "buildings",
        "research",
        "reconstruction",
        "observed-built-state",
        "pionir-reference"
      ],
      "parentParcelIds": [
        "HR-339270-5652/1"
      ],
      "cadastreParcelIds": [
        "HR-339270-5652/1"
      ],
      "parcelIds": [
        "HR-339270-5652/1"
      ],
      "acceptedParcelIds": [],
      "bounds": [
        15.943814564,
        45.792325262,
        15.944133327,
        45.793234095
      ],
      "source": {
        "projectPage": "https://pionir.hr/reference/stambeno-poslovni-objekti/",
        "projectImages": [
          "https://pionir.hr/wp-content/uploads/2023/11/01-3.jpg",
          "https://pionir.hr/wp-content/uploads/2023/11/02-3.jpg",
          "https://pionir.hr/wp-content/uploads/2023/11/03-3.jpg",
          "https://pionir.hr/wp-content/uploads/2023/11/04-2.jpg"
        ],
        "parcel": "k.č. 5652/1, MB 339270, k.o. Trešnjevka; DGU parcel id 41279125",
        "identificationBasis": "Pionirov naziv i fotografije + točan sklop od tri zgrade uz križanje Selske ceste i Drniške ulice",
        "companyRoles": {
          "gipPionir": "objavio projekt u vlastitim referencama",
          "piba": "Pionir navodi da je projekt ostvaren u suradnji s tvrtkom PIBA d.o.o.; točna ugovorna uloga nije utvrđena"
        },
        "completionEvidence": "podudarni GDI objekti imaju godinu snimanja 2008.; to je najkasnija sigurna granica završetka, a ne točan datum",
        "footprintBasis": "current DGU legal building geometry, deduplicated by geom_hash",
        "heightBasis": "matched GDI surveyed objects",
        "sourceStatistics": {
          "observedBuiltState": {
            "parcelAreaM2": 1855.8996423677136,
            "aboveGroundFootprintAreaM2": 697.5985575137239,
            "siteCoveragePercent": 37.58816164346817,
            "aboveGroundVolumes": 3
          },
          "floorCountProxy": {
            "aboveGroundGbpM2": 4185.591345167949,
            "kin": 2.2552896986542166,
            "method": "aktualni DGU tlocrt × šest dokumentiranih nadzemnih etaža; nije GBP iz dozvole"
          },
          "caveat": "Broj stanova i točan datum završetka nisu utvrđeni. GDI snimanje iz 2008. dokazuje samo da je kompleks tada već bio izgrađen."
        }
      }
    },
    "buildingProposal": {
      "parentParcelIds": [
        "HR-339270-5652/1"
      ],
      "parentParcelNumbers": [
        {
          "id": "HR-339270-5652/1",
          "number": "5652/1",
          "cadastre": "Trešnjevka"
        }
      ],
      "createdFrom": "single-building",
      "typologyType": "single",
      "blockName": "SPO Selska–Drniška – izvedeno stanje",
      "parameters": {
        "typology": "single",
        "floorHeightM": 3,
        "geometryBasis": "observed-built-state",
        "sourceStatistics": {
          "observedBuiltState": {
            "parcelAreaM2": 1855.8996423677136,
            "aboveGroundFootprintAreaM2": 697.5985575137239,
            "siteCoveragePercent": 37.58816164346817,
            "aboveGroundVolumes": 3
          },
          "floorCountProxy": {
            "aboveGroundGbpM2": 4185.591345167949,
            "kin": 2.2552896986542166,
            "method": "aktualni DGU tlocrt × šest dokumentiranih nadzemnih etaža; nije GBP iz dozvole"
          },
          "caveat": "Broj stanova i točan datum završetka nisu utvrđeni. GDI snimanje iz 2008. dokazuje samo da je kompleks tada već bio izgrađen."
        }
      },
      "ancestorKey": "HR-339270-5652/1",
      "takeWholeParcels": true,
      "metadata": {
        "sourceStatistics": {
          "observedBuiltState": {
            "parcelAreaM2": 1855.8996423677136,
            "aboveGroundFootprintAreaM2": 697.5985575137239,
            "siteCoveragePercent": 37.58816164346817,
            "aboveGroundVolumes": 3
          },
          "floorCountProxy": {
            "aboveGroundGbpM2": 4185.591345167949,
            "kin": 2.2552896986542166,
            "method": "aktualni DGU tlocrt × šest dokumentiranih nadzemnih etaža; nije GBP iz dozvole"
          },
          "caveat": "Broj stanova i točan datum završetka nisu utvrđeni. GDI snimanje iz 2008. dokazuje samo da je kompleks tada već bio izgrađen."
        }
      }
    }
  },
  "features": [
    {
      "type": "Feature",
      "properties": {
        "id": "HR-339270-5652/1",
        "cestica_id": 41279125,
        "maticni_broj_ko": 339270,
        "broj_cestice": "5652/1",
        "areaM2": 1855.9364000011446,
        "source": "DGU katastar, aktualna čestica",
        "consensus:role": "site"
      },
      "geometry": {
        "type": "MultiPolygon",
        "coordinates": [
          [
            [
              [
                15.94410387,
                45.792772792
              ],
              [
                15.944100224,
                45.792816145
              ],
              [
                15.94409044,
                45.792933431
              ],
              [
                15.944090146,
                45.792937118
              ],
              [
                15.944082247,
                45.793032909
              ],
              [
                15.944081813,
                45.793037765
              ],
              [
                15.944068648,
                45.793197595
              ],
              [
                15.944061982,
                45.793234095
              ],
              [
                15.943814564,
                45.793176023
              ],
              [
                15.943833747,
                45.793019102
              ],
              [
                15.943838559,
                45.792936254
              ],
              [
                15.943840735,
                45.792898473
              ],
              [
                15.943847807,
                45.792808258
              ],
              [
                15.943850874,
                45.792771471
              ],
              [
                15.943863736,
                45.792629275
              ],
              [
                15.943866492,
                45.792585019
              ],
              [
                15.943867997,
                45.792562981
              ],
              [
                15.943872607,
                45.792435772
              ],
              [
                15.943876341,
                45.792396559
              ],
              [
                15.943887265,
                45.792332816
              ],
              [
                15.943888112,
                45.792325262
              ],
              [
                15.94400895,
                45.792332329
              ],
              [
                15.944008339,
                45.792367958
              ],
              [
                15.94400745,
                45.792379741
              ],
              [
                15.944133327,
                45.792384582
              ],
              [
                15.944124299,
                45.792503402
              ],
              [
                15.944123853,
                45.792509518
              ],
              [
                15.944111587,
                45.792669353
              ],
              [
                15.944111428,
                45.792672501
              ],
              [
                15.944106109,
                45.79274167
              ],
              [
                15.944104172,
                45.792768295
              ],
              [
                15.94410387,
                45.792772792
              ]
            ]
          ]
        ]
      }
    },
    {
      "type": "Feature",
      "properties": {
        "name": "Zgrada 1 (sjeverna)",
        "block": "SPO Selska–Drniška – izvedeno stanje",
        "type": "proposedBuildingSingle",
        "footprintMode": "polygon",
        "height": 23.3319,
        "heightM": 23.3319,
        "floors": 6,
        "storeys": 6,
        "basementStoreys": 1,
        "floorCountBasis": "Pionirova službena referenca navodi podrum i šest nadzemnih etaža",
        "heightBasis": "GDI izmjerena visina, snimanje 2008.",
        "color": "#2f6fed",
        "source": "aktualni, po geom_hashu deduplicirani DGU tlocrt + podudarna GDI visina",
        "programme": "mixed-use",
        "groundFloorUse": "commercial",
        "groundFloorHeightM": 4,
        "apartmentCount": null,
        "apartmentCountStatus": "nije objavljen u pronađenim izvorima",
        "positionalLabel": "north",
        "positionalLabelBasis": "interni naziv prema položaju, nije oznaka iz dozvole",
        "dguBuildingId": 14430817,
        "dguBuildingNumber": "36945",
        "dguBuildingType": "KUĆA",
        "dguFootprintAreaM2": 232.4368499987156,
        "dguGeometryHash": "acd7b3ff9e93cf629f04ad7679553ebf",
        "dguDuplicateRowsCollapsed": 1,
        "gdiObjectId": 320725,
        "gdiSurveyYear": 2008,
        "gdiHeightM": 23.3319,
        "gdiMatchOverlapRatio": 0.9893483410373083,
        "overtureId": "bd27bac4-f114-475a-81a4-e3dac6e3cf72",
        "osmId": "w294382755",
        "osmDeclaredHeightM": 25,
        "osmDeclaredFloors": null,
        "osmClass": "apartments",
        "osmDguOverlapRatio": 0.9600231486226761,
        "geometryBasis": "observed-built-footprint",
        "consensus:role": "building",
        "consensus:index": 0
      },
      "geometry": {
        "type": "MultiPolygon",
        "coordinates": [
          [
            [
              [
                15.944068648,
                45.793197595
              ],
              [
                15.94390111,
                45.793191111
              ],
              [
                15.943913891,
                45.793031189
              ],
              [
                15.944081813,
                45.793037765
              ],
              [
                15.944068648,
                45.793197595
              ]
            ]
          ]
        ]
      }
    },
    {
      "type": "Feature",
      "properties": {
        "name": "Zgrada 2 (središnja)",
        "block": "SPO Selska–Drniška – izvedeno stanje",
        "type": "proposedBuildingSingle",
        "footprintMode": "polygon",
        "height": 23.6608,
        "heightM": 23.6608,
        "floors": 6,
        "storeys": 6,
        "basementStoreys": 1,
        "floorCountBasis": "Pionirova službena referenca navodi podrum i šest nadzemnih etaža",
        "heightBasis": "GDI izmjerena visina, snimanje 2008.",
        "color": "#d63384",
        "source": "aktualni, po geom_hashu deduplicirani DGU tlocrt + podudarna GDI visina",
        "programme": "mixed-use",
        "groundFloorUse": "commercial",
        "groundFloorHeightM": 4,
        "apartmentCount": null,
        "apartmentCountStatus": "nije objavljen u pronađenim izvorima",
        "positionalLabel": "middle",
        "positionalLabelBasis": "interni naziv prema položaju, nije oznaka iz dozvole",
        "dguBuildingId": 14430818,
        "dguBuildingNumber": "36946",
        "dguBuildingType": "KUĆA",
        "dguFootprintAreaM2": 231.9678500060557,
        "dguGeometryHash": "8b5998b7ac8f21155d9b3ab33640c07d",
        "dguDuplicateRowsCollapsed": 1,
        "gdiObjectId": 320726,
        "gdiSurveyYear": 2008,
        "gdiHeightM": 23.6608,
        "gdiMatchOverlapRatio": 0.992088048936174,
        "overtureId": "bd9024a8-5427-4a0b-a0fa-836ae1be4ebe",
        "osmId": "w294382753",
        "osmDeclaredHeightM": 25,
        "osmDeclaredFloors": null,
        "osmClass": "apartments",
        "osmDguOverlapRatio": 0.9999999999999999,
        "geometryBasis": "observed-built-footprint",
        "consensus:role": "building",
        "consensus:index": 1
      },
      "geometry": {
        "type": "MultiPolygon",
        "coordinates": [
          [
            [
              [
                15.944098294,
                45.792816135
              ],
              [
                15.94409044,
                45.792933431
              ],
              [
                15.943922131,
                45.792926943
              ],
              [
                15.943930808,
                45.79281757
              ],
              [
                15.943934912,
                45.792767021
              ],
              [
                15.944102318,
                45.792773684
              ],
              [
                15.944098294,
                45.792816135
              ]
            ]
          ]
        ]
      }
    },
    {
      "type": "Feature",
      "properties": {
        "name": "Zgrada 3 (južna)",
        "block": "SPO Selska–Drniška – izvedeno stanje",
        "type": "proposedBuildingSingle",
        "footprintMode": "polygon",
        "height": 23.7478,
        "heightM": 23.7478,
        "floors": 6,
        "storeys": 6,
        "basementStoreys": 1,
        "floorCountBasis": "Pionirova službena referenca navodi podrum i šest nadzemnih etaža",
        "heightBasis": "GDI izmjerena visina, snimanje 2008.",
        "color": "#198754",
        "source": "aktualni, po geom_hashu deduplicirani DGU tlocrt + podudarna GDI visina",
        "programme": "mixed-use",
        "groundFloorUse": "commercial",
        "groundFloorHeightM": 4,
        "apartmentCount": null,
        "apartmentCountStatus": "nije objavljen u pronađenim izvorima",
        "positionalLabel": "south",
        "positionalLabelBasis": "interni naziv prema položaju, nije oznaka iz dozvole",
        "dguBuildingId": 14430819,
        "dguBuildingNumber": "36947",
        "dguBuildingType": "KUĆA",
        "dguFootprintAreaM2": 233.20814999892,
        "dguGeometryHash": "897d1ad002cddc685cc213cf1658dbb0",
        "dguDuplicateRowsCollapsed": 1,
        "gdiObjectId": 320727,
        "gdiSurveyYear": 2008,
        "gdiHeightM": 23.7478,
        "gdiMatchOverlapRatio": 0.988745406318158,
        "overtureId": "4acb12f4-e300-43f6-a89d-79622c499321",
        "osmId": "w294382754",
        "osmDeclaredHeightM": 25,
        "osmDeclaredFloors": null,
        "osmClass": "apartments",
        "osmDguOverlapRatio": 0.9983655201801012,
        "geometryBasis": "observed-built-footprint",
        "consensus:role": "building",
        "consensus:index": 2
      },
      "geometry": {
        "type": "MultiPolygon",
        "coordinates": [
          [
            [
              [
                15.943943151,
                45.792662864
              ],
              [
                15.943955674,
                45.792502941
              ],
              [
                15.944123853,
                45.792509518
              ],
              [
                15.944111587,
                45.792669353
              ],
              [
                15.943943151,
                45.792662864
              ]
            ]
          ]
        ]
      }
    }
  ]
}
