{
  "type": "FeatureCollection",
  "name": "Lovinčićeva – volumeni iz lokacijske dozvole",
  "bbox": [16.017168644, 45.799445227, 16.020502185, 45.800910414],
  "reconstruction": {
    "schema": "consensus-builder.reconstruction.v1",
    "proposal": {
      "proposalId": "lovinciceva-location-permit-2019",
      "city": "zagreb",
      "name": "Lovinčićeva – volumeni iz lokacijske dozvole",
      "title": "Lovinčićeva – volumeni iz lokacijske dozvole",
      "description": "Radna rekonstrukcija 12 nadzemnih volumena A–E3 na k.č. 4090/1, k.o. Peščenica, za usporedbu alternativnog urbanog oblika. Položaji su preuzeti iz službenih ISPU geometrija lokacijske dozvole, uz B3 iz građevinske dozvole; etažnost i stanovi iz dozvole. Nacrtana geometrija daje približno 10.348 m² tlocrta, 33,0% izgrađenosti, 90.977 m² nadzemnog GBP-a i kin 2,904. Lokacijska dozvola navodi 11.519 m² tlocrta, 36,8%, 90.603 m² nadzemnog GBP-a, kin 2,9 i 1.370 stanova.",
      "author": "zagreb.lol – lokalna analiza",
      "type": "building",
      "goal": "single",
      "primaryType": "Urban Rule",
      "typologyType": "single",
      "lifecycleStatus": "Active",
      "createdAt": "2026-08-09T00:00:00.000Z",
      "updatedAt": "2026-08-09T00:00:00.000Z",
      "tags": [
        "buildings",
        "research",
        "location-permit"
      ],
      "parentParcelIds": [
        "HR-335533-4090/1"
      ],
      "cadastreParcelIds": [
        "HR-335533-4090/1"
      ],
      "parcelIds": [
        "HR-335533-4090/1"
      ],
      "acceptedParcelIds": [],
      "bounds": [16.017168644, 45.799445227, 16.020502185, 45.800910414],
      "source": {
        "permitClass": "UP/I-350-05/20-001/297",
        "parcel": "k.č. 4090/1, MB 335533, k.o. Peščenica",
        "coordinateSystem": "HTRS96/TM (EPSG:3765), transformed to WGS84 for the app",
        "sourceStatistics": {
          "geometryDerived": {
            "parcelAreaM2": 31332.18082350752,
            "footprintAreaM2": 10347.712901851293,
            "siteCoveragePercent": 33.02583040784617,
            "aboveGroundGbpM2": 90976.46725215742,
            "kin": 2.9036110752910225,
            "apartments": 1370
          },
          "permitStated": {
            "parcelAreaM2": 31332,
            "footprintAreaM2": 11519,
            "siteCoveragePercent": 36.8,
            "aboveGroundGbpM2": 90603,
            "undergroundGbpM2": 9832,
            "totalGbpM2": 100435,
            "kin": 2.9,
            "apartments": 1370
          }
        }
      }
    },
    "buildingProposal": {
      "parentParcelIds": [
        "HR-335533-4090/1"
      ],
      "parentParcelNumbers": [
        {
          "id": "HR-335533-4090/1",
          "number": "4090/1",
          "cadastre": "Peščenica"
        }
      ],
      "createdFrom": "single-building",
      "typologyType": "single",
      "blockName": "Lovinčićeva – k.č. 4090/1",
      "parameters": {
        "typology": "single",
        "floorHeightM": 3,
        "sourceClass": "UP/I-350-05/20-001/297",
        "sourceStatistics": {
          "geometryDerived": {
            "parcelAreaM2": 31332.18082350752,
            "footprintAreaM2": 10347.712901851293,
            "siteCoveragePercent": 33.02583040784617,
            "aboveGroundGbpM2": 90976.46725215742,
            "kin": 2.9036110752910225,
            "apartments": 1370
          },
          "permitStated": {
            "parcelAreaM2": 31332,
            "footprintAreaM2": 11519,
            "siteCoveragePercent": 36.8,
            "aboveGroundGbpM2": 90603,
            "undergroundGbpM2": 9832,
            "totalGbpM2": 100435,
            "kin": 2.9,
            "apartments": 1370
          }
        }
      },
      "ancestorKey": "HR-335533-4090/1",
      "takeWholeParcels": true,
      "metadata": {
        "sourceStatistics": {
          "geometryDerived": {
            "parcelAreaM2": 31332.18082350752,
            "footprintAreaM2": 10347.712901851293,
            "siteCoveragePercent": 33.02583040784617,
            "aboveGroundGbpM2": 90976.46725215742,
            "kin": 2.9036110752910225,
            "apartments": 1370
          },
          "permitStated": {
            "parcelAreaM2": 31332,
            "footprintAreaM2": 11519,
            "siteCoveragePercent": 36.8,
            "aboveGroundGbpM2": 90603,
            "undergroundGbpM2": 9832,
            "totalGbpM2": 100435,
            "kin": 2.9,
            "apartments": 1370
          }
        }
      }
    }
  },
  "features": [
    {
      "type": "Feature",
      "properties": {
        "id": "HR-335533-4090/1",
        "cestica_id": 21358541,
        "maticni_broj_ko": 335533,
        "broj_cestice": "4090/1",
        "consensus:role": "site"
      },
      "geometry": {
        "type": "MultiPolygon",
        "coordinates": [
          [
            [
              [16.017292452, 45.799445227],
              [16.01810411, 45.799483925],
              [16.018989965, 45.799526079],
              [16.019728329, 45.799561308],
              [16.020502185, 45.79959812],
              [16.020479657, 45.799824775],
              [16.02039265, 45.799845015],
              [16.020375635, 45.799848903],
              [16.020371131, 45.799894143],
              [16.020384403, 45.799921553],
              [16.020454927, 45.800068336],
              [16.020441457, 45.80019884],
              [16.020377673, 45.800196143],
              [16.019485073, 45.80015901],
              [16.019416992, 45.800910414],
              [16.017168644, 45.800806816],
              [16.017187312, 45.800641333],
              [16.017206549, 45.800469463],
              [16.017221073, 45.800336894],
              [16.017230003, 45.80025622],
              [16.017242992, 45.800256725],
              [16.017246027, 45.800232983],
              [16.01725389, 45.80021628],
              [16.01724862, 45.800066801],
              [16.017270351, 45.799710484],
              [16.01727369, 45.799666408],
              [16.017284466, 45.799520956],
              [16.017284886, 45.799516999],
              [16.017285331, 45.799510162],
              [16.017292452, 45.799445227]
            ]
          ]
        ]
      },
      "areaM2": 31332.581500005246
    },
    {
      "type": "Feature",
      "properties": {
        "name": "A",
        "block": "Lovinčićeva – k.č. 4090/1",
        "type": "proposedBuildingSingle",
        "footprintMode": "polygon",
        "height": 27,
        "heightM": 27,
        "floors": 9,
        "storeys": 9,
        "apartments": 160,
        "color": "#2f6fed",
        "source": "ISPU lokacijska dozvola",
        "sourceLayerId": 134407,
        "footprintAreaM2": 1471.1932999987234,
        "consensus:role": "building",
        "consensus:index": 0
      },
      "geometry": {
        "type": "Polygon",
        "coordinates": [
          [
            [16.019600354, 45.799752966],
            [16.01969307, 45.799757135],
            [16.019693503, 45.799751738],
            [16.01987366, 45.799760054],
            [16.01989474, 45.799747095],
            [16.019911466, 45.799761832],
            [16.019885254, 45.800042819],
            [16.020139483, 45.800054414],
            [16.020181839, 45.799601005],
            [16.019709649, 45.799579405],
            [16.019710209, 45.799574009],
            [16.019617495, 45.79956975],
            [16.019600354, 45.799752966]
          ]
        ]
      }
    },
    {
      "type": "Feature",
      "properties": {
        "name": "B1",
        "block": "Lovinčićeva – k.č. 4090/1",
        "type": "proposedBuildingSingle",
        "footprintMode": "polygon",
        "height": 27,
        "heightM": 27,
        "floors": 9,
        "storeys": 9,
        "apartments": 64,
        "color": "#d63384",
        "source": "ISPU lokacijska dozvola",
        "sourceLayerId": 165452,
        "footprintAreaM2": 538.1673000025957,
        "consensus:role": "building",
        "consensus:index": 1
      },
      "geometry": {
        "type": "Polygon",
        "coordinates": [
          [
            [16.018480672, 45.799899149],
            [16.018461124, 45.80010746],
            [16.018758946, 45.800121132],
            [16.018778364, 45.799912821],
            [16.018480672, 45.799899149]
          ]
        ]
      }
    },
    {
      "type": "Feature",
      "properties": {
        "name": "B2",
        "block": "Lovinčićeva – k.č. 4090/1",
        "type": "proposedBuildingSingle",
        "footprintMode": "polygon",
        "height": 27,
        "heightM": 27,
        "floors": 9,
        "storeys": 9,
        "apartments": 64,
        "color": "#d63384",
        "source": "ISPU lokacijska dozvola",
        "sourceLayerId": 239440,
        "footprintAreaM2": 538.2625000030047,
        "consensus:role": "building",
        "consensus:index": 2
      },
      "geometry": {
        "type": "Polygon",
        "coordinates": [
          [
            [16.018813923, 45.799532986],
            [16.018516103, 45.799519404],
            [16.018496685, 45.799727715],
            [16.018794506, 45.799741297],
            [16.018813923, 45.799532986]
          ]
        ]
      }
    },
    {
      "type": "Feature",
      "properties": {
        "name": "B3",
        "block": "Lovinčićeva – k.č. 4090/1",
        "type": "proposedBuildingSingle",
        "footprintMode": "polygon",
        "height": 27,
        "heightM": 27,
        "floors": 9,
        "storeys": 9,
        "apartments": 186,
        "color": "#d63384",
        "source": "građevinska dozvola",
        "sourceLayerId": null,
        "footprintAreaM2": 1248.468199997838,
        "consensus:role": "building",
        "consensus:index": 3
      },
      "geometry": {
        "type": "Polygon",
        "coordinates": [
          [
            [16.019045682, 45.800122519],
            [16.019308141, 45.800134511],
            [16.019314229, 45.800069841],
            [16.019302655, 45.800069343],
            [16.019346853, 45.799597045],
            [16.019358298, 45.799597543],
            [16.019361982, 45.799558058],
            [16.019099526, 45.799546066],
            [16.019093438, 45.799610736],
            [16.019097938, 45.799610935],
            [16.019056142, 45.800058048],
            [16.019051641, 45.800057849],
            [16.019045682, 45.800122519]
          ]
        ]
      }
    },
    {
      "type": "Feature",
      "properties": {
        "name": "C1",
        "block": "Lovinčićeva – k.č. 4090/1",
        "type": "proposedBuildingSingle",
        "footprintMode": "polygon",
        "height": 27,
        "heightM": 27,
        "floors": 9,
        "storeys": 9,
        "apartments": 186,
        "color": "#198754",
        "source": "ISPU lokacijska dozvola",
        "sourceLayerId": 103241,
        "footprintAreaM2": 1244.497099991925,
        "consensus:role": "building",
        "consensus:index": 4,
        "floorPlans": {
          "schema": "consensus-builder.building-floor-plans.v2",
          "registration": {
            "corners": [
              [16.017334108139796, 45.80005961093728],
              [16.018186992882573, 45.80009880407497],
              [16.01824321579562, 45.799504205212884],
              [16.017390327629645, 45.79946500865198]
            ],
            "basis": "Uniform scale from the published C1 basement strip to the oriented C1 footprint; the connected CG/C2 garage extends east within the same drawing.",
            "accuracy": "approximate",
            "northInDrawing": "up",
            "sourceBuildingId": "103241",
            "metresPerPdfPoint": 0.254156,
            "maxEdgeResidualM": 0.189,
            "note": "This residual measures outline fit, not surveyed positional accuracy. Balconies and later design changes can differ from the permit footprint.",
            "sharedBasementBuildingIds": [
              "source-layer:103241",
              "source-layer:94321"
            ]
          },
          "layouts": [
            {
              "id": "C1-layout-1",
              "source": {
                "url": "https://pionir.hr/wp-content/katalozi/lovinciceva/garaze/objekt_c2/C2-03.pdf",
                "sha256": "27b6a84663d78c1aad684bf6c5b9d3a84b72e30f57e5ab41cfe584923eb2c5b9",
                "page": 1,
                "crop": [212, 494, 473, 755],
                "wallExtraction": "orthogonal-network",
                "standaloneSwingArcs": true,
                "reviewedFloorOutline": [
                  [0.001916, 0.024904],
                  [0.30728, 0.024904],
                  [0.30728, 0.003831],
                  [0.601533, 0.003831],
                  [0.601533, 0.51341],
                  [0.637931, 0.51341],
                  [0.637931, 0.585057],
                  [0.601533, 0.585057],
                  [0.601533, 0.648276],
                  [0.996169, 0.648276],
                  [0.996169, 0.996169],
                  [0.005747, 0.996169],
                  [0.005747, 0.890805],
                  [0.01341, 0.890805],
                  [0.01341, 0.130268],
                  [0.001916, 0.130268]
                ],
                "openingClassification": "doors-only"
              },
              "sourceVectorSha256": "59713d2430cf22182b72d1db56478f739d8d8dda5737f4d2e0c55bb7a8b81720",
              "architecture": {
                "schema": "consensus-builder.floor-architecture.v1",
                "dimensionsM": [66.3347, 66.3347],
                "wallHeightM": 2.8,
                "slabThicknessM": 0.2,
                "walls": [
                  [
                    [
                      [0.650564, 0.73212],
                      [0.650564, 0.651167],
                      [0.733326, 0.651167],
                      [0.733326, 0.718327],
                      [0.731517, 0.718327],
                      [0.731517, 0.744557],
                      [0.738377, 0.744557],
                      [0.738377, 0.718327],
                      [0.736568, 0.718327],
                      [0.736568, 0.651167],
                      [0.820234, 0.651167],
                      [0.820234, 0.718327],
                      [0.818425, 0.718327],
                      [0.818425, 0.744557],
                      [0.825284, 0.744557],
                      [0.825284, 0.718327],
                      [0.823475, 0.718327],
                      [0.823475, 0.651167],
                      [0.907142, 0.651167],
                      [0.907142, 0.718327],
                      [0.905258, 0.718327],
                      [0.905258, 0.744557],
                      [0.912192, 0.744557],
                      [0.912192, 0.718327],
                      [0.910308, 0.718327],
                      [0.910308, 0.651167],
                      [0.992618, 0.651167],
                      [0.992618, 0.73212],
                      [0.989452, 0.73212],
                      [0.989452, 0.744557],
                      [0.992618, 0.744557],
                      [0.992618, 0.835083],
                      [0.989452, 0.835083],
                      [0.989452, 0.84752],
                      [0.992618, 0.84752],
                      [0.992618, 0.932543],
                      [0.989452, 0.932543],
                      [0.989452, 0.944528],
                      [0.992618, 0.944528],
                      [0.992618, 0.992768],
                      [0.951689, 0.992768],
                      [0.951689, 0.932543],
                      [0.94988, 0.932543],
                      [0.94988, 0.992768],
                      [0.910308, 0.992768],
                      [0.910308, 0.944528],
                      [0.912644, 0.944528],
                      [0.912644, 0.932543],
                      [0.910308, 0.932543],
                      [0.910308, 0.861314],
                      [0.912192, 0.861314],
                      [0.912192, 0.835083],
                      [0.885961, 0.835083],
                      [0.885961, 0.836967],
                      [0.905258, 0.836967],
                      [0.905258, 0.861314],
                      [0.907142, 0.861314],
                      [0.907142, 0.932543],
                      [0.904805, 0.932543],
                      [0.904805, 0.944528],
                      [0.907142, 0.944528],
                      [0.907142, 0.992768],
                      [0.893348, 0.992768],
                      [0.893348, 0.932543],
                      [0.830334, 0.932543],
                      [0.830334, 0.927041],
                      [0.826641, 0.927041],
                      [0.826641, 0.944528],
                      [0.830334, 0.944528],
                      [0.830334, 0.934428],
                      [0.862972, 0.934428],
                      [0.862972, 0.944528],
                      [0.870811, 0.944528],
                      [0.870811, 0.934428],
                      [0.891464, 0.934428],
                      [0.891464, 0.992768],
                      [0.830334, 0.992768],
                      [0.830334, 0.960131],
                      [0.826641, 0.960131],
                      [0.826641, 0.992768],
                      [0.754959, 0.992768],
                      [0.754959, 0.952367],
                      [0.805988, 0.952367],
                      [0.805988, 0.946337],
                      [0.804104, 0.946337],
                      [0.804104, 0.950483],
                      [0.784356, 0.950483],
                      [0.784356, 0.873223],
                      [0.78624, 0.873223],
                      [0.78624, 0.871414],
                      [0.782547, 0.871414],
                      [0.782547, 0.950483],
                      [0.754959, 0.950483],
                      [0.754959, 0.932543],
                      [0.751266, 0.932543],
                      [0.751266, 0.943171],
                      [0.738829, 0.943171],
                      [0.738829, 0.932543],
                      [0.736568, 0.932543],
                      [0.736568, 0.861314],
                      [0.738377, 0.861314],
                      [0.738377, 0.835083],
                      [0.731517, 0.835083],
                      [0.731517, 0.861314],
                      [0.733326, 0.861314],
                      [0.733326, 0.932543],
                      [0.731065, 0.932543],
                      [0.731065, 0.944528],
                      [0.751266, 0.944528],
                      [0.751266, 0.992768],
                      [0.69285, 0.992768],
                      [0.69285, 0.932543],
                      [0.691041, 0.932543],
                      [0.691041, 0.992768],
                      [0.650564, 0.992768],
                      [0.650564, 0.988623],
                      [0.656519, 0.988623],
                      [0.656519, 0.973472],
                      [0.650564, 0.973472],
                      [0.650564, 0.944528],
                      [0.653805, 0.944528],
                      [0.653805, 0.932543],
                      [0.650564, 0.932543],
                      [0.650564, 0.84752],
                      [0.654258, 0.84752],
                      [0.654258, 0.835083],
                      [0.647323, 0.835083],
                      [0.647323, 0.996462],
                      [0.996311, 0.996462],
                      [0.996311, 0.647474],
                      [0.647323, 0.647474],
                      [0.647323, 0.744557],
                      [0.654258, 0.744557],
                      [0.654258, 0.73212]
                    ]
                  ],
                  [
                    [
                      [0.834028, 0.838776],
                      [0.836289, 0.838776],
                      [0.836289, 0.869605],
                      [0.807345, 0.869605],
                      [0.807345, 0.838776],
                      [0.81428, 0.838776],
                      [0.81428, 0.833274],
                      [0.798601, 0.833274],
                      [0.798601, 0.849329],
                      [0.802295, 0.849329],
                      [0.802295, 0.870962],
                      [0.804104, 0.870962],
                      [0.804104, 0.931187],
                      [0.805988, 0.931187],
                      [0.805988, 0.928925],
                      [0.812395, 0.928925],
                      [0.812395, 0.927041],
                      [0.805988, 0.927041],
                      [0.805988, 0.875107],
                      [0.841415, 0.875107],
                      [0.841415, 0.849329],
                      [0.845033, 0.849329],
                      [0.845033, 0.836967],
                      [0.861615, 0.836967],
                      [0.861615, 0.835083],
                      [0.845033, 0.835083],
                      [0.845033, 0.833274],
                      [0.834028, 0.833274]
                    ]
                  ],
                  [
                    [
                      [0.497477, 0.989602],
                      [0.497477, 0.992768],
                      [0.405971, 0.992768],
                      [0.405971, 0.989602],
                      [0.396776, 0.989602],
                      [0.396776, 0.992768],
                      [0.309868, 0.992768],
                      [0.309868, 0.996462],
                      [0.646419, 0.996462],
                      [0.646419, 0.835083],
                      [0.643253, 0.835083],
                      [0.643253, 0.992768],
                      [0.506221, 0.992768],
                      [0.506221, 0.989602]
                    ]
                  ],
                  [
                    [
                      [0.32645, 0.131153],
                      [0.309416, 0.131153],
                      [0.309416, 0.006558],
                      [0.396776, 0.006558],
                      [0.396776, 0.010251],
                      [0.405971, 0.010251],
                      [0.405971, 0.006558],
                      [0.497477, 0.006558],
                      [0.497477, 0.010251],
                      [0.506221, 0.010251],
                      [0.506221, 0.006558],
                      [0.599083, 0.006558],
                      [0.599083, 0.562451],
                      [0.634962, 0.562451],
                      [0.634962, 0.581294],
                      [0.599083, 0.581294],
                      [0.599083, 0.651167],
                      [0.643253, 0.651167],
                      [0.643253, 0.744557],
                      [0.646419, 0.744557],
                      [0.646419, 0.647474],
                      [0.602776, 0.647474],
                      [0.602776, 0.584988],
                      [0.639107, 0.584988],
                      [0.639107, 0.512326],
                      [0.602776, 0.512326],
                      [0.602776, 0.003392],
                      [0.306175, 0.003392],
                      [0.306175, 0.134394],
                      [0.323209, 0.134394],
                      [0.323209, 0.135751],
                      [0.32645, 0.135751]
                    ],
                    [
                      [0.634962, 0.558305],
                      [0.602776, 0.558305],
                      [0.602776, 0.539461],
                      [0.634962, 0.539461]
                    ],
                    [
                      [0.634962, 0.535315],
                      [0.602776, 0.535315],
                      [0.602776, 0.516472],
                      [0.634962, 0.516472]
                    ]
                  ],
                  [
                    [
                      [0.605038, 0.744557],
                      [0.605038, 0.735362],
                      [0.599083, 0.735362],
                      [0.599083, 0.744557]
                    ]
                  ],
                  [
                    [
                      [0.602324, 0.936237],
                      [0.593128, 0.936237],
                      [0.593128, 0.942191],
                      [0.602324, 0.942191]
                    ]
                  ],
                  [
                    [
                      [0.602324, 0.835083],
                      [0.593128, 0.835083],
                      [0.593128, 0.841565],
                      [0.602324, 0.841565]
                    ]
                  ],
                  [
                    [
                      [0.506221, 0.835083],
                      [0.497477, 0.835083],
                      [0.497477, 0.841565],
                      [0.506221, 0.841565]
                    ]
                  ],
                  [
                    [
                      [0.506221, 0.738075],
                      [0.497477, 0.738075],
                      [0.497477, 0.744557],
                      [0.506221, 0.744557]
                    ]
                  ],
                  [
                    [
                      [0.506221, 0.414866],
                      [0.497477, 0.414866],
                      [0.497477, 0.42082],
                      [0.506221, 0.42082]
                    ]
                  ],
                  [
                    [
                      [0.506221, 0.253035],
                      [0.497477, 0.253035],
                      [0.497477, 0.25899],
                      [0.506221, 0.25899]
                    ]
                  ],
                  [
                    [
                      [0.506221, 0.942191],
                      [0.506221, 0.936237],
                      [0.497477, 0.936237],
                      [0.497477, 0.942191]
                    ]
                  ],
                  [
                    [
                      [0.506221, 0.663604],
                      [0.506221, 0.65765],
                      [0.497477, 0.65765],
                      [0.497477, 0.663604]
                    ]
                  ],
                  [
                    [
                      [0.506221, 0.582651],
                      [0.506221, 0.576697],
                      [0.497477, 0.576697],
                      [0.497477, 0.582651]
                    ]
                  ],
                  [
                    [
                      [0.506221, 0.501773],
                      [0.506221, 0.495819],
                      [0.497477, 0.495819],
                      [0.497477, 0.501773]
                    ]
                  ],
                  [
                    [
                      [0.506221, 0.339943],
                      [0.506221, 0.333913],
                      [0.497477, 0.333913],
                      [0.497477, 0.339943]
                    ]
                  ],
                  [
                    [
                      [0.506221, 0.178112],
                      [0.506221, 0.172082],
                      [0.497477, 0.172082],
                      [0.497477, 0.178112]
                    ]
                  ],
                  [
                    [
                      [0.506221, 0.097159],
                      [0.506221, 0.091204],
                      [0.497477, 0.091204],
                      [0.497477, 0.097159]
                    ]
                  ],
                  [
                    [
                      [0.405971, 0.492125],
                      [0.396776, 0.492125],
                      [0.396776, 0.49808],
                      [0.405971, 0.49808]
                    ]
                  ],
                  [
                    [
                      [0.396776, 0.391876],
                      [0.396776, 0.397831],
                      [0.405971, 0.397831],
                      [0.405971, 0.391876]
                    ]
                  ],
                  [
                    [
                      [0.396776, 0.149545],
                      [0.396776, 0.156027],
                      [0.405971, 0.156027],
                      [0.405971, 0.149545]
                    ]
                  ],
                  [
                    [
                      [0.405971, 0.728879],
                      [0.396776, 0.728879],
                      [0.396776, 0.734834],
                      [0.405971, 0.734834]
                    ]
                  ],
                  [
                    [
                      [0.405971, 0.887017],
                      [0.396776, 0.887017],
                      [0.396776, 0.893047],
                      [0.405971, 0.893047]
                    ]
                  ],
                  [
                    [
                      [0.405971, 0.088415],
                      [0.396776, 0.088415],
                      [0.396776, 0.09437],
                      [0.405971, 0.09437]
                    ]
                  ],
                  [
                    [
                      [0.405971, 0.813978],
                      [0.405971, 0.807948],
                      [0.396776, 0.807948],
                      [0.396776, 0.813978]
                    ]
                  ],
                  [
                    [
                      [0.405971, 0.656217],
                      [0.405971, 0.650263],
                      [0.396776, 0.650263],
                      [0.396776, 0.656217]
                    ]
                  ],
                  [
                    [
                      [0.405971, 0.577149],
                      [0.405971, 0.570742],
                      [0.396776, 0.570742],
                      [0.396776, 0.577149]
                    ]
                  ],
                  [
                    [
                      [0.405971, 0.317405],
                      [0.405971, 0.311451],
                      [0.396776, 0.311451],
                      [0.396776, 0.317405]
                    ]
                  ],
                  [
                    [
                      [0.405971, 0.236452],
                      [0.405971, 0.230498],
                      [0.396776, 0.230498],
                      [0.396776, 0.236452]
                    ]
                  ],
                  [
                    [
                      [0.32645, 0.150977],
                      [0.323209, 0.150977],
                      [0.323209, 0.216704],
                      [0.304366, 0.216704],
                      [0.304366, 0.213463],
                      [0.300672, 0.213463],
                      [0.300672, 0.397831],
                      [0.304366, 0.397831],
                      [0.304366, 0.219945],
                      [0.32645, 0.219945]
                    ]
                  ],
                  [
                    [
                      [0.304366, 0.88566],
                      [0.304366, 0.492125],
                      [0.300672, 0.492125],
                      [0.300672, 0.888901],
                      [0.309868, 0.888901],
                      [0.309868, 0.89674],
                      [0.313561, 0.89674],
                      [0.313561, 0.88566]
                    ]
                  ],
                  [
                    [
                      [0.309416, 0.992768],
                      [0.209166, 0.992768],
                      [0.209166, 0.989602],
                      [0.199971, 0.989602],
                      [0.199971, 0.992768],
                      [0.197257, 0.992768],
                      [0.197257, 0.996462],
                      [0.309416, 0.996462]
                    ]
                  ],
                  [
                    [
                      [0.189418, 0.680187],
                      [0.194468, 0.680187],
                      [0.194468, 0.6728],
                      [0.225297, 0.6728],
                      [0.225297, 0.708679],
                      [0.194468, 0.708679],
                      [0.194468, 0.701292],
                      [0.189418, 0.701292],
                      [0.189418, 0.713729],
                      [0.198162, 0.713729],
                      [0.198162, 0.71697],
                      [0.199971, 0.71697],
                      [0.199971, 0.715086],
                      [0.209166, 0.715086],
                      [0.209166, 0.711844],
                      [0.225297, 0.711844],
                      [0.225297, 0.734382],
                      [0.227106, 0.734382],
                      [0.227106, 0.726618],
                      [0.254693, 0.726618],
                      [0.254693, 0.692548],
                      [0.296526, 0.692548],
                      [0.296526, 0.756014],
                      [0.227106, 0.756014],
                      [0.227106, 0.75006],
                      [0.225297, 0.75006],
                      [0.225297, 0.756014],
                      [0.201855, 0.756014],
                      [0.201855, 0.75006],
                      [0.199971, 0.75006],
                      [0.199971, 0.76521],
                      [0.225749, 0.76521],
                      [0.225749, 0.759708],
                      [0.296526, 0.759708],
                      [0.296526, 0.823174],
                      [0.199971, 0.823174],
                      [0.199971, 0.831842],
                      [0.225749, 0.831842],
                      [0.225749, 0.82634],
                      [0.296526, 0.82634],
                      [0.296526, 0.889806],
                      [0.225749, 0.889806],
                      [0.225749, 0.883851],
                      [0.199971, 0.883851],
                      [0.199971, 0.893047],
                      [0.309416, 0.893047],
                      [0.309416, 0.889806],
                      [0.30022, 0.889806],
                      [0.30022, 0.492125],
                      [0.199971, 0.492125],
                      [0.199971, 0.501321],
                      [0.225749, 0.501321],
                      [0.225749, 0.495291],
                      [0.296526, 0.495291],
                      [0.296526, 0.588681],
                      [0.225749, 0.588681],
                      [0.225749, 0.585892],
                      [0.199971, 0.585892],
                      [0.199971, 0.595088],
                      [0.225749, 0.595088],
                      [0.225749, 0.592375],
                      [0.296526, 0.592375],
                      [0.296526, 0.650715],
                      [0.225297, 0.650715],
                      [0.225297, 0.66775],
                      [0.214217, 0.66775],
                      [0.214217, 0.664961],
                      [0.198162, 0.664961],
                      [0.198162, 0.66775],
                      [0.189418, 0.66775]
                    ],
                    [
                      [0.296526, 0.689383],
                      [0.269919, 0.689383],
                      [0.269919, 0.654408],
                      [0.296526, 0.654408]
                    ],
                    [
                      [0.249643, 0.687498],
                      [0.249643, 0.721568],
                      [0.230347, 0.721568],
                      [0.230347, 0.655765],
                      [0.266226, 0.655765],
                      [0.266226, 0.687498]
                    ]
                  ],
                  [
                    [
                      [0.199971, 0.731668],
                      [0.201855, 0.731668],
                      [0.201855, 0.71697],
                      [0.199971, 0.71697]
                    ]
                  ],
                  [
                    [
                      [0.197257, 0.219945],
                      [0.199971, 0.219945],
                      [0.199971, 0.221302],
                      [0.195373, 0.221302],
                      [0.195373, 0.233739],
                      [0.199971, 0.233739],
                      [0.199971, 0.243387],
                      [0.201855, 0.243387],
                      [0.201855, 0.237884],
                      [0.230799, 0.237884],
                      [0.230799, 0.218061],
                      [0.253336, 0.218061],
                      [0.253336, 0.224091],
                      [0.255145, 0.224091],
                      [0.255145, 0.218061],
                      [0.277683, 0.218061],
                      [0.277683, 0.197408],
                      [0.296526, 0.197408],
                      [0.296526, 0.198312],
                      [0.30022, 0.198312],
                      [0.30022, 0.130249],
                      [0.30527, 0.130249],
                      [0.30527, 0.024045],
                      [0.002789, 0.024045],
                      [0.002789, 0.130249],
                      [0.011985, 0.130249],
                      [0.011985, 0.889806],
                      [0.006407, 0.889806],
                      [0.006407, 0.996462],
                      [0.114947, 0.996462],
                      [0.114947, 0.992768],
                      [0.108013, 0.992768],
                      [0.108013, 0.989602],
                      [0.098817, 0.989602],
                      [0.098817, 0.992768],
                      [0.010553, 0.992768],
                      [0.010553, 0.893499],
                      [0.08231, 0.893499],
                      [0.08231, 0.896212],
                      [0.108013, 0.896212],
                      [0.108013, 0.887017],
                      [0.08231, 0.887017],
                      [0.08231, 0.889806],
                      [0.015603, 0.889806],
                      [0.015603, 0.792798],
                      [0.08231, 0.792798],
                      [0.08231, 0.795586],
                      [0.108013, 0.795586],
                      [0.108013, 0.786843],
                      [0.08231, 0.786843],
                      [0.08231, 0.789556],
                      [0.015603, 0.789556],
                      [0.015603, 0.692548],
                      [0.08231, 0.692548],
                      [0.08231, 0.695337],
                      [0.108013, 0.695337],
                      [0.108013, 0.686141],
                      [0.08231, 0.686141],
                      [0.08231, 0.689383],
                      [0.015603, 0.689383],
                      [0.015603, 0.592375],
                      [0.08231, 0.592375],
                      [0.08231, 0.595088],
                      [0.108013, 0.595088],
                      [0.108013, 0.585892],
                      [0.08231, 0.585892],
                      [0.08231, 0.588681],
                      [0.015603, 0.588681],
                      [0.015603, 0.495291],
                      [0.08231, 0.495291],
                      [0.08231, 0.501321],
                      [0.108013, 0.501321],
                      [0.108013, 0.492125],
                      [0.015603, 0.492125],
                      [0.015603, 0.397831],
                      [0.108013, 0.397831],
                      [0.108013, 0.389087],
                      [0.08231, 0.389087],
                      [0.08231, 0.394665],
                      [0.015603, 0.394665],
                      [0.015603, 0.297657],
                      [0.08231, 0.297657],
                      [0.08231, 0.300823],
                      [0.108013, 0.300823],
                      [0.108013, 0.291627],
                      [0.08231, 0.291627],
                      [0.08231, 0.294416],
                      [0.015603, 0.294416],
                      [0.015603, 0.197408],
                      [0.08231, 0.197408],
                      [0.08231, 0.200649],
                      [0.108013, 0.200649],
                      [0.108013, 0.191453],
                      [0.08231, 0.191453],
                      [0.08231, 0.194167],
                      [0.015603, 0.194167],
                      [0.015603, 0.130249],
                      [0.08231, 0.130249],
                      [0.08231, 0.13349],
                      [0.108013, 0.13349],
                      [0.108013, 0.124294],
                      [0.08231, 0.124294],
                      [0.08231, 0.127083],
                      [0.006407, 0.127083],
                      [0.006407, 0.027286],
                      [0.096104, 0.027286],
                      [0.096104, 0.030979],
                      [0.108013, 0.030979],
                      [0.108013, 0.027286],
                      [0.199971, 0.027286],
                      [0.199971, 0.030979],
                      [0.212408, 0.030979],
                      [0.212408, 0.027286],
                      [0.302104, 0.027286],
                      [0.302104, 0.127083],
                      [0.225749, 0.127083],
                      [0.225749, 0.124294],
                      [0.199971, 0.124294],
                      [0.199971, 0.13349],
                      [0.225749, 0.13349],
                      [0.225749, 0.130249],
                      [0.296526, 0.130249],
                      [0.296526, 0.194167],
                      [0.261628, 0.194167],
                      [0.261628, 0.197408],
                      [0.275874, 0.197408],
                      [0.275874, 0.216252],
                      [0.22899, 0.216252],
                      [0.22899, 0.236],
                      [0.201855, 0.236],
                      [0.201855, 0.200649],
                      [0.225749, 0.200649],
                      [0.225749, 0.197408],
                      [0.243688, 0.197408],
                      [0.243688, 0.194167],
                      [0.225749, 0.194167],
                      [0.225749, 0.191453],
                      [0.199971, 0.191453],
                      [0.199971, 0.210749],
                      [0.197257, 0.210749]
                    ]
                  ],
                  [
                    [
                      [0.198162, 0.273236],
                      [0.189418, 0.273236],
                      [0.189418, 0.285672],
                      [0.194468, 0.285672],
                      [0.194468, 0.278286],
                      [0.225297, 0.278286],
                      [0.225297, 0.314164],
                      [0.194468, 0.314164],
                      [0.194468, 0.306853],
                      [0.189418, 0.306853],
                      [0.189418, 0.319214],
                      [0.198162, 0.319214],
                      [0.198162, 0.322456],
                      [0.214217, 0.322456],
                      [0.214217, 0.319214],
                      [0.225297, 0.319214],
                      [0.225297, 0.334893],
                      [0.296526, 0.334893],
                      [0.296526, 0.394665],
                      [0.225749, 0.394665],
                      [0.225749, 0.389087],
                      [0.199971, 0.389087],
                      [0.199971, 0.397831],
                      [0.30022, 0.397831],
                      [0.30022, 0.213463],
                      [0.296526, 0.213463],
                      [0.296526, 0.294416],
                      [0.256578, 0.294416],
                      [0.256578, 0.245196],
                      [0.255145, 0.245196],
                      [0.255145, 0.239241],
                      [0.253336, 0.239241],
                      [0.253336, 0.260346],
                      [0.225297, 0.260346],
                      [0.225297, 0.27512],
                      [0.209166, 0.27512],
                      [0.209166, 0.271879],
                      [0.201855, 0.271879],
                      [0.201855, 0.258537],
                      [0.199971, 0.258537],
                      [0.199971, 0.27007],
                      [0.198162, 0.27007]
                    ],
                    [
                      [0.230347, 0.263587],
                      [0.253336, 0.263587],
                      [0.253336, 0.297657],
                      [0.296526, 0.297657],
                      [0.296526, 0.331651],
                      [0.230347, 0.331651]
                    ]
                  ],
                  [
                    [
                      [0.196353, 0.997366],
                      [0.170574, 0.997366],
                      [0.170574, 0.998346],
                      [0.196353, 0.998346]
                    ]
                  ],
                  [
                    [
                      [0.191227, 0.990055],
                      [0.182031, 0.990055],
                      [0.182031, 0.992768],
                      [0.191227, 0.992768]
                    ]
                  ],
                  [
                    [
                      [0.142535, 0.998346],
                      [0.16967, 0.998346],
                      [0.16967, 0.992768],
                      [0.178413, 0.992768],
                      [0.178413, 0.990055],
                      [0.169218, 0.990055],
                      [0.169218, 0.992768],
                      [0.142535, 0.992768]
                    ]
                  ],
                  [
                    [
                      [0.14163, 0.997366],
                      [0.115852, 0.997366],
                      [0.115852, 0.998346],
                      [0.14163, 0.998346]
                    ]
                  ]
                ],
                "slabs": [
                  [
                    [
                      [0.001916, 0.130268],
                      [0.01341, 0.130268],
                      [0.01341, 0.890805],
                      [0.005747, 0.890805],
                      [0.005747, 0.996169],
                      [0.996169, 0.996169],
                      [0.996169, 0.648276],
                      [0.601533, 0.648276],
                      [0.601533, 0.585057],
                      [0.637931, 0.585057],
                      [0.637931, 0.51341],
                      [0.601533, 0.51341],
                      [0.601533, 0.003831],
                      [0.30728, 0.003831],
                      [0.30728, 0.024904],
                      [0.001916, 0.024904]
                    ]
                  ]
                ],
                "openings": [
                  {
                    "kind": "door",
                    "a": [0.200913, 0.243387],
                    "b": [0.200913, 0.258537],
                    "depthM": 0.125,
                    "sillM": 0,
                    "heightM": 2.1,
                    "hinge": [0.202066, 0.257859],
                    "openTip": [0.215634, 0.257859],
                    "basis": "CAD door swing; inferred head height"
                  },
                  {
                    "kind": "door",
                    "a": [0.254241, 0.224091],
                    "b": [0.254241, 0.239241],
                    "depthM": 0.12,
                    "sillM": 0,
                    "heightM": 2.1,
                    "hinge": [0.255402, 0.224754],
                    "openTip": [0.268969, 0.224754],
                    "basis": "CAD door swing; inferred head height"
                  },
                  {
                    "kind": "door",
                    "a": [0.226201, 0.734382],
                    "b": [0.226201, 0.75006],
                    "depthM": 0.12,
                    "sillM": 0,
                    "heightM": 2.1,
                    "hinge": [0.227362, 0.73509],
                    "openTip": [0.240915, 0.73509],
                    "basis": "CAD door swing; inferred head height"
                  },
                  {
                    "kind": "door",
                    "a": [0.200913, 0.731668],
                    "b": [0.200913, 0.75006],
                    "depthM": 0.125,
                    "sillM": 0,
                    "heightM": 2.1,
                    "hinge": [0.202066, 0.73509],
                    "openTip": [0.215634, 0.73509],
                    "basis": "CAD door swing; inferred head height"
                  },
                  {
                    "kind": "door",
                    "a": [0.828488, 0.944528],
                    "b": [0.828488, 0.960131],
                    "depthM": 0.245,
                    "sillM": 0,
                    "heightM": 2.1,
                    "hinge": [0.830576, 0.945206],
                    "openTip": [0.844143, 0.945206],
                    "basis": "CAD door swing; inferred head height"
                  },
                  {
                    "kind": "door",
                    "a": [0.812395, 0.927983],
                    "b": [0.826641, 0.927983],
                    "depthM": 0.125,
                    "sillM": 0,
                    "heightM": 2.1,
                    "hinge": [0.82551, 0.928654],
                    "openTip": [0.82551, 0.94085],
                    "basis": "CAD door swing; inferred head height"
                  },
                  {
                    "kind": "door",
                    "a": [0.805046, 0.931187],
                    "b": [0.805046, 0.946337],
                    "depthM": 0.125,
                    "sillM": 0,
                    "heightM": 2.1,
                    "hinge": [0.806214, 0.93188],
                    "openTip": [0.819767, 0.93188],
                    "basis": "CAD door swing; inferred head height"
                  },
                  {
                    "kind": "door",
                    "a": [0.861615, 0.836025],
                    "b": [0.885961, 0.836025],
                    "depthM": 0.125,
                    "sillM": 0,
                    "heightM": 2.1,
                    "hinge": [0.862761, 0.834872],
                    "openTip": [0.862761, 0.823596],
                    "basis": "CAD door swing; inferred head height"
                  },
                  {
                    "kind": "door",
                    "a": [0.78624, 0.872319],
                    "b": [0.804104, 0.872319],
                    "depthM": 0.12,
                    "sillM": 0,
                    "heightM": 2.1,
                    "hinge": [0.801149, 0.873027],
                    "openTip": [0.801149, 0.886595],
                    "basis": "CAD door swing; inferred head height"
                  },
                  {
                    "kind": "door",
                    "a": [0.32483, 0.135751],
                    "b": [0.32483, 0.150977],
                    "depthM": 0.215,
                    "sillM": 0,
                    "heightM": 2.1,
                    "hinge": [0.323451, 0.136475],
                    "openTip": [0.309883, 0.136475],
                    "basis": "CAD door swing; inferred head height"
                  },
                  {
                    "kind": "door",
                    "a": [0.298373, 0.198312],
                    "b": [0.298373, 0.213463],
                    "depthM": 0.245,
                    "sillM": 0,
                    "heightM": 2.1,
                    "hinge": [0.296783, 0.199006],
                    "openTip": [0.283215, 0.199006],
                    "basis": "CAD door swing; inferred head height"
                  }
                ],
                "stairs": [],
                "landings": [],
                "railings": [],
                "inference": {
                  "wallFootprints": "closed CAD outlines",
                  "openings": "CAD swing symbols and adjoining jambs",
                  "verticalDimensions": "estimated",
                  "glazingTypes": "inferred",
                  "stairRise": "paired flights split the storey; single flights use storey height / 18 per tread"
                },
                "quality": {
                  "sourceSwingSymbols": 13,
                  "modelledOpenings": 11,
                  "wallAreaM2": 176.88,
                  "floorAreaM2": 3165.31
                }
              }
            }
          ],
          "floors": [
            {
              "id": "C1-floor--1",
              "level": -1,
              "elevationM": -3,
              "elevationBasis": "estimated",
              "layoutId": "C1-layout-1",
              "source": {
                "url": "https://pionir.hr/wp-content/katalozi/lovinciceva/garaze/objekt_c2/C2-03.pdf",
                "sha256": "27b6a84663d78c1aad684bf6c5b9d3a84b72e30f57e5ab41cfe584923eb2c5b9",
                "page": 1,
                "crop": [212, 494, 473, 755],
                "wallExtraction": "orthogonal-network",
                "standaloneSwingArcs": true,
                "reviewedFloorOutline": [
                  [0.001916, 0.024904],
                  [0.30728, 0.024904],
                  [0.30728, 0.003831],
                  [0.601533, 0.003831],
                  [0.601533, 0.51341],
                  [0.637931, 0.51341],
                  [0.637931, 0.585057],
                  [0.601533, 0.585057],
                  [0.601533, 0.648276],
                  [0.996169, 0.648276],
                  [0.996169, 0.996169],
                  [0.005747, 0.996169],
                  [0.005747, 0.890805],
                  [0.01341, 0.890805],
                  [0.01341, 0.130268],
                  [0.001916, 0.130268]
                ],
                "openingClassification": "doors-only"
              },
              "apartments": []
            }
          ],
          "notes": [
            "Published shared C1/CG/C2 basement, owned once by C1.",
            "Catalogue clear parking height is about 2.80 m; the 3 m storey and 0.20 m slab are estimates.",
            "Walls and doors come from vector outlines. Stair enclosures are drawn but treads are not provided; no stair run is invented.",
            "Above-ground floors have no recovered whole-floor source and retain the original display volume."
          ]
        }
      },
      "geometry": {
        "type": "Polygon",
        "coordinates": [
          [
            [16.017336421, 45.800044318],
            [16.01759515, 45.800056208],
            [16.017601111, 45.799991537],
            [16.01759661, 45.799991339],
            [16.017640822, 45.799519042],
            [16.017648537, 45.799519434],
            [16.017652224, 45.799479859],
            [16.017393497, 45.799468059],
            [16.017387535, 45.799532729],
            [16.017392036, 45.799532928],
            [16.017350226, 45.79998004],
            [16.017342511, 45.799979648],
            [16.017336421, 45.800044318]
          ]
        ]
      }
    },
    {
      "type": "Feature",
      "properties": {
        "name": "C2",
        "block": "Lovinčićeva – k.č. 4090/1",
        "type": "proposedBuildingSingle",
        "footprintMode": "polygon",
        "height": 27,
        "heightM": 27,
        "floors": 9,
        "storeys": 9,
        "apartments": 64,
        "color": "#198754",
        "source": "ISPU lokacijska dozvola",
        "sourceLayerId": 94321,
        "footprintAreaM2": 538.2624999929301,
        "consensus:role": "building",
        "consensus:index": 5
      },
      "geometry": {
        "type": "Polygon",
        "coordinates": [
          [
            [16.01791519, 45.799701149],
            [16.01821301, 45.799714732],
            [16.01823243, 45.799506421],
            [16.017934611, 45.799492838],
            [16.01791519, 45.799701149]
          ]
        ]
      }
    },
    {
      "type": "Feature",
      "properties": {
        "name": "D1",
        "block": "Lovinčićeva – k.č. 4090/1",
        "type": "proposedBuildingSingle",
        "footprintMode": "polygon",
        "height": 24,
        "heightM": 24,
        "floors": 8,
        "storeys": 8,
        "apartments": 64,
        "color": "#fd7e14",
        "source": "ISPU lokacijska dozvola",
        "sourceLayerId": 159992,
        "footprintAreaM2": 538.1535500067878,
        "consensus:role": "building",
        "consensus:index": 6
      },
      "geometry": {
        "type": "Polygon",
        "coordinates": [
          [
            [16.01725584, 45.800809794],
            [16.017553666, 45.800823379],
            [16.017573087, 45.800615158],
            [16.017275263, 45.800601483],
            [16.01725584, 45.800809794]
          ]
        ]
      }
    },
    {
      "type": "Feature",
      "properties": {
        "name": "D2",
        "block": "Lovinčićeva – k.č. 4090/1",
        "type": "proposedBuildingSingle",
        "footprintMode": "polygon",
        "height": 24,
        "heightM": 24,
        "floors": 8,
        "storeys": 8,
        "apartments": 64,
        "color": "#fd7e14",
        "source": "ISPU lokacijska dozvola",
        "sourceLayerId": 122997,
        "footprintAreaM2": 538.2900000033441,
        "consensus:role": "building",
        "consensus:index": 7
      },
      "geometry": {
        "type": "Polygon",
        "coordinates": [
          [
            [16.017821915, 45.800835669],
            [16.01811974, 45.800849343],
            [16.018139289, 45.800641032],
            [16.017841464, 45.800627359],
            [16.017821915, 45.800835669]
          ]
        ]
      }
    },
    {
      "type": "Feature",
      "properties": {
        "name": "D3",
        "block": "Lovinčićeva – k.č. 4090/1",
        "type": "proposedBuildingSingle",
        "footprintMode": "polygon",
        "height": 27,
        "heightM": 27,
        "floors": 9,
        "storeys": 9,
        "apartments": 195,
        "color": "#fd7e14",
        "source": "ISPU lokacijska dozvola",
        "sourceLayerId": 138631,
        "footprintAreaM2": 1309.8864499808858,
        "consensus:role": "building",
        "consensus:index": 8
      },
      "geometry": {
        "type": "Polygon",
        "coordinates": [
          [
            [16.017309984, 45.800230644],
            [16.017291274, 45.800430859],
            [16.017385018, 45.800435215],
            [16.017386444, 45.800419024],
            [16.018051404, 45.800449455],
            [16.018051119, 45.800452603],
            [16.018087126, 45.800454194],
            [16.018085856, 45.800467236],
            [16.018142308, 45.800469814],
            [16.018161015, 45.800269598],
            [16.018068686, 45.800265339],
            [16.018067556, 45.800277032],
            [16.017397454, 45.8002464],
            [16.017397314, 45.800247749],
            [16.01736658, 45.800246359],
            [16.017367722, 45.800233317],
            [16.017309984, 45.800230644]
          ]
        ]
      }
    },
    {
      "type": "Feature",
      "properties": {
        "name": "E1",
        "block": "Lovinčićeva – k.č. 4090/1",
        "type": "proposedBuildingSingle",
        "footprintMode": "polygon",
        "height": 24,
        "heightM": 24,
        "floors": 8,
        "storeys": 8,
        "apartments": 64,
        "color": "#6f42c1",
        "source": "ISPU lokacijska dozvola",
        "sourceLayerId": 9895,
        "footprintAreaM2": 538.2625000043528,
        "consensus:role": "building",
        "consensus:index": 9
      },
      "geometry": {
        "type": "Polygon",
        "coordinates": [
          [
            [16.01837783, 45.800861139],
            [16.018675657, 45.800874721],
            [16.018695075, 45.80066641],
            [16.018397249, 45.800652827],
            [16.01837783, 45.800861139]
          ]
        ]
      }
    },
    {
      "type": "Feature",
      "properties": {
        "name": "E2",
        "block": "Lovinčićeva – k.č. 4090/1",
        "type": "proposedBuildingSingle",
        "footprintMode": "polygon",
        "height": 24,
        "heightM": 24,
        "floors": 8,
        "storeys": 8,
        "apartments": 64,
        "color": "#6f42c1",
        "source": "ISPU lokacijska dozvola",
        "sourceLayerId": 172122,
        "footprintAreaM2": 538.2625000043528,
        "consensus:role": "building",
        "consensus:index": 10
      },
      "geometry": {
        "type": "Polygon",
        "coordinates": [
          [
            [16.018943906, 45.800887008],
            [16.019241733, 45.800900589],
            [16.019261149, 45.800692277],
            [16.018963323, 45.800678697],
            [16.018943906, 45.800887008]
          ]
        ]
      }
    },
    {
      "type": "Feature",
      "properties": {
        "name": "E3",
        "block": "Lovinčićeva – k.č. 4090/1",
        "type": "proposedBuildingSingle",
        "footprintMode": "polygon",
        "height": 27,
        "heightM": 27,
        "floors": 9,
        "storeys": 9,
        "apartments": 195,
        "color": "#6f42c1",
        "source": "ISPU lokacijska dozvola",
        "sourceLayerId": 164994,
        "footprintAreaM2": 1306.1153500136927,
        "consensus:role": "building",
        "consensus:index": 11
      },
      "geometry": {
        "type": "Polygon",
        "coordinates": [
          [
            [16.018444822, 45.800282582],
            [16.018426116, 45.800482798],
            [16.018518446, 45.800487056],
            [16.018520001, 45.800470866],
            [16.019184961, 45.80050129],
            [16.019184677, 45.800504438],
            [16.019220555, 45.800506029],
            [16.019219414, 45.800519071],
            [16.019277152, 45.800521743],
            [16.019295855, 45.800321527],
            [16.019238117, 45.800318855],
            [16.019236987, 45.800330547],
            [16.018531007, 45.800298241],
            [16.018530867, 45.80029959],
            [16.018500004, 45.800298201],
            [16.018501274, 45.800285159],
            [16.018444822, 45.800282582]
          ]
        ]
      }
    }
  ]
}
