{
  "type": "FeatureCollection",
  "name": "Špansko-Sjever A–F – izmjena lokacijske dozvole 2022.",
  "bbox": [
    15.88274333,
    45.80319646,
    15.88562623,
    45.80441261
  ],
  "edozvola": {
    "schema": "consensus-builder.edozvola-source.v1",
    "archivedAt": "2026-08-13",
    "source": "https://oss.uredjenazemlja.hr/OssWebServices/external/eDozvole",
    "sourceService": "public national eDozvola WFS 2.0.0",
    "sourceCrs": "EPSG:3765",
    "outputCrs": "EPSG:4326",
    "geometryOnly": true,
    "caveat": "Public WFS geometry and case metadata are evidence, not a substitute for the signed permit and main project.",
    "note": "Šest nadzemnih volumena kompleksa. Brojevi stanova su opisni podaci lokacijske dozvole i kasnije su se u pojedinim fazama mijenjali.",
    "layerFeatureCounts": {
      "eDozvola_area_polygon": 0,
      "eDozvola_building_line": 0,
      "eDozvola_building_point": 0,
      "eDozvola_building_polygon": 6
    },
    "caseId": "P20221230-1168647-Z06",
    "caseClass": "UP/I-350-05/22-001/121",
    "caseType": "Lokacijska dozvola - izmjena i/ili dopuna",
    "caseStatus": "Arhiva",
    "requestReceivedAt": "2022-04-12",
    "requestCompleteAt": null,
    "decisionName": null,
    "decisionNumber": null,
    "decisionAt": "2022-07-19",
    "finalAt": "2022-08-16"
  },
  "features": [
    {
      "type": "Feature",
      "properties": {
        "predmet_web_id": "P20221230-1168647-Z06",
        "predmet_group_id": "V02",
        "predmet_group": "Lokacijska dozvola",
        "predmet_vrsta_id": "Z06",
        "predmet_vrsta": "Lokacijska dozvola - izmjena i/ili dopuna",
        "predmet_status_id": "ARHIVA",
        "predmet_status": "Arhiva",
        "predmet_klasa": "UP/I-350-05/22-001/121",
        "predmet_dat_promjene": null,
        "predmet_url": null,
        "zahtjev_dat_zaprimanja": "2022-04-12",
        "zahtjev_dat_urednosti": null,
        "zavrsni_akt_naziv": null,
        "zavrsni_akt_urbroj_rjesenja": null,
        "zavrsni_akt_dat_rjesavanja": "2022-07-19",
        "zavrsni_akt_nacin_rjesavanja_id": "NR-01-01",
        "zavrsni_akt_nacin_rjesavanja": "zahtjev usvojen",
        "zavrsni_akt_dat_izvrsnosti": null,
        "zavrsni_akt_dat_pravomocnosti": "2022-08-16",
        "zavrsni_akt_url": null,
        "nadlezno_tijelo_id": "UJ-2101015",
        "nadlezno_tijelo": "Grad Zagreb, Gradski ured za obnovu, izgradnju, prostorno uređenje, graditeljstvo i komunalne poslove, Sektor za prostorno uređenje i graditeljstvo, Grad Zagreb, Odjel za prostorno uređenje, Središnji odsjek za prostorno uređenje",
        "lokacija": "[{\"lokacija\": {\"lokacija_kat_cestica\": \"2795/3\", \"lokacija_kat_opcina\": \"Stenjevec\", \"lokacija_mjesto\": \"Zagreb\", \"lokacija_ulica_kucni\": \" Ulica Antuna Šoljana bb\", \"lokacija_zupanija_id\": \"ZUP-21\", \"lokacija_zupanija\": \"Grad Zagreb\", \"lokacija_samouprava_id\": \"1333\", \"lokacija_samouprava\": \"Grad Zagreb\", \"lokacija_mjesto_id\": null, \"lokacija_kat_opcina_id\": \"335592\"}}, {\"lokacija\": {\"lokacija_kat_cestica\": \"2795/3\", \"lokacija_kat_opcina\": \"Stenjevec\", \"lokacija_mjesto\": \"Zagreb\", \"lokacija_ulica_kucni\": \" Ulica Vilima Korajca bb\", \"lokacija_zupanija_id\": \"ZUP-21\", \"lokacija_zupanija\": \"Grad Zagreb\", \"lokacija_samouprava_id\": \"1333\", \"lokacija_samouprava\": \"Grad Zagreb\", \"lokacija_mjesto_id\": null, \"lokacija_kat_opcina_id\": \"335592\"}}]",
        "gradjevina_zahvat_id": null,
        "gradjevina_zahvat": null,
        "gradjevina_zahvat_dodatno": null,
        "gradjevina_namjena_id": "sn",
        "gradjevina_namjena": "stambene namjene",
        "gradjevina_namjena_dodatno": "142 stana",
        "gradjevina_skupina_id": null,
        "gradjevina_skupina": null,
        "gradjevina_ibz": null,
        "gradjevina_gbp": null,
        "gradjevina_volumen": null,
        "gradjevina_etaze": null,
        "gradjevina_br_jedinica_id": null,
        "gradjevina_br_jedinica": null,
        "gradjevina_nkvg_id": null,
        "gradjevina_nkvg": null,
        "troskovi_gradjenja_id": null,
        "troskovi_gradjenja": null,
        "edozvola:sourceLayer": "eDozvola_building_polygon",
        "edozvola:sourceFeatureId": "eDozvola_building_polygon.180327",
        "edozvola:geometryAreaM2": 1082.85
      },
      "geometry": {
        "type": "Polygon",
        "coordinates": [
          [
            [
              15.88327523,
              45.80416202
            ],
            [
              15.88325162,
              45.80435427
            ],
            [
              15.88335537,
              45.8043605
            ],
            [
              15.8833565,
              45.80435151
            ],
            [
              15.88384172,
              45.80438067
            ],
            [
              15.88384059,
              45.80438966
            ],
            [
              15.88394435,
              45.80439589
            ],
            [
              15.88396795,
              45.80420373
            ],
            [
              15.8838642,
              45.8041975
            ],
            [
              15.8838632,
              45.8042064
            ],
            [
              15.88372434,
              45.8041981
            ],
            [
              15.88350578,
              45.80418495
            ],
            [
              15.88337785,
              45.80417724
            ],
            [
              15.88337898,
              45.80416825
            ],
            [
              15.88327523,
              45.80416202
            ]
          ]
        ]
      }
    },
    {
      "type": "Feature",
      "properties": {
        "predmet_web_id": "P20221230-1168647-Z06",
        "predmet_group_id": "V02",
        "predmet_group": "Lokacijska dozvola",
        "predmet_vrsta_id": "Z06",
        "predmet_vrsta": "Lokacijska dozvola - izmjena i/ili dopuna",
        "predmet_status_id": "ARHIVA",
        "predmet_status": "Arhiva",
        "predmet_klasa": "UP/I-350-05/22-001/121",
        "predmet_dat_promjene": null,
        "predmet_url": null,
        "zahtjev_dat_zaprimanja": "2022-04-12",
        "zahtjev_dat_urednosti": null,
        "zavrsni_akt_naziv": null,
        "zavrsni_akt_urbroj_rjesenja": null,
        "zavrsni_akt_dat_rjesavanja": "2022-07-19",
        "zavrsni_akt_nacin_rjesavanja_id": "NR-01-01",
        "zavrsni_akt_nacin_rjesavanja": "zahtjev usvojen",
        "zavrsni_akt_dat_izvrsnosti": null,
        "zavrsni_akt_dat_pravomocnosti": "2022-08-16",
        "zavrsni_akt_url": null,
        "nadlezno_tijelo_id": "UJ-2101015",
        "nadlezno_tijelo": "Grad Zagreb, Gradski ured za obnovu, izgradnju, prostorno uređenje, graditeljstvo i komunalne poslove, Sektor za prostorno uređenje i graditeljstvo, Grad Zagreb, Odjel za prostorno uređenje, Središnji odsjek za prostorno uređenje",
        "lokacija": "[{\"lokacija\": {\"lokacija_kat_cestica\": \"2795/3\", \"lokacija_kat_opcina\": \"Stenjevec\", \"lokacija_mjesto\": \"Zagreb\", \"lokacija_ulica_kucni\": \" Ulica Antuna Šoljana bb\", \"lokacija_zupanija_id\": \"ZUP-21\", \"lokacija_zupanija\": \"Grad Zagreb\", \"lokacija_samouprava_id\": \"1333\", \"lokacija_samouprava\": \"Grad Zagreb\", \"lokacija_mjesto_id\": null, \"lokacija_kat_opcina_id\": \"335592\"}}, {\"lokacija\": {\"lokacija_kat_cestica\": \"2795/3\", \"lokacija_kat_opcina\": \"Stenjevec\", \"lokacija_mjesto\": \"Zagreb\", \"lokacija_ulica_kucni\": \" Ulica Vilima Korajca bb\", \"lokacija_zupanija_id\": \"ZUP-21\", \"lokacija_zupanija\": \"Grad Zagreb\", \"lokacija_samouprava_id\": \"1333\", \"lokacija_samouprava\": \"Grad Zagreb\", \"lokacija_mjesto_id\": null, \"lokacija_kat_opcina_id\": \"335592\"}}]",
        "gradjevina_zahvat_id": null,
        "gradjevina_zahvat": null,
        "gradjevina_zahvat_dodatno": null,
        "gradjevina_namjena_id": "sn",
        "gradjevina_namjena": "stambene namjene",
        "gradjevina_namjena_dodatno": "116 stanova",
        "gradjevina_skupina_id": null,
        "gradjevina_skupina": null,
        "gradjevina_ibz": null,
        "gradjevina_gbp": null,
        "gradjevina_volumen": null,
        "gradjevina_etaze": null,
        "gradjevina_br_jedinica_id": null,
        "gradjevina_br_jedinica": null,
        "gradjevina_nkvg_id": null,
        "gradjevina_nkvg": null,
        "troskovi_gradjenja_id": null,
        "troskovi_gradjenja": null,
        "edozvola:sourceLayer": "eDozvola_building_polygon",
        "edozvola:sourceFeatureId": "eDozvola_building_polygon.180341",
        "edozvola:geometryAreaM2": 900.15
      },
      "geometry": {
        "type": "Polygon",
        "coordinates": [
          [
            [
              15.88435999,
              45.80416589
            ],
            [
              15.88433653,
              45.80435697
            ],
            [
              15.88433639,
              45.80435805
            ],
            [
              15.88444014,
              45.80436428
            ],
            [
              15.88444114,
              45.80435537
            ],
            [
              15.88480602,
              45.80437723
            ],
            [
              15.88480489,
              45.80438622
            ],
            [
              15.88490865,
              45.80439244
            ],
            [
              15.88491091,
              45.80437347
            ],
            [
              15.88493225,
              45.80420019
            ],
            [
              15.88482849,
              45.80419397
            ],
            [
              15.88482736,
              45.80420296
            ],
            [
              15.88446262,
              45.80418111
            ],
            [
              15.88446374,
              45.80417212
            ],
            [
              15.88436089,
              45.80416598
            ],
            [
              15.88435999,
              45.80416589
            ]
          ]
        ]
      }
    },
    {
      "type": "Feature",
      "properties": {
        "predmet_web_id": "P20221230-1168647-Z06",
        "predmet_group_id": "V02",
        "predmet_group": "Lokacijska dozvola",
        "predmet_vrsta_id": "Z06",
        "predmet_vrsta": "Lokacijska dozvola - izmjena i/ili dopuna",
        "predmet_status_id": "ARHIVA",
        "predmet_status": "Arhiva",
        "predmet_klasa": "UP/I-350-05/22-001/121",
        "predmet_dat_promjene": null,
        "predmet_url": null,
        "zahtjev_dat_zaprimanja": "2022-04-12",
        "zahtjev_dat_urednosti": null,
        "zavrsni_akt_naziv": null,
        "zavrsni_akt_urbroj_rjesenja": null,
        "zavrsni_akt_dat_rjesavanja": "2022-07-19",
        "zavrsni_akt_nacin_rjesavanja_id": "NR-01-01",
        "zavrsni_akt_nacin_rjesavanja": "zahtjev usvojen",
        "zavrsni_akt_dat_izvrsnosti": null,
        "zavrsni_akt_dat_pravomocnosti": "2022-08-16",
        "zavrsni_akt_url": null,
        "nadlezno_tijelo_id": "UJ-2101015",
        "nadlezno_tijelo": "Grad Zagreb, Gradski ured za obnovu, izgradnju, prostorno uređenje, graditeljstvo i komunalne poslove, Sektor za prostorno uređenje i graditeljstvo, Grad Zagreb, Odjel za prostorno uređenje, Središnji odsjek za prostorno uređenje",
        "lokacija": "[{\"lokacija\": {\"lokacija_kat_cestica\": \"2795/3\", \"lokacija_kat_opcina\": \"Stenjevec\", \"lokacija_mjesto\": \"Zagreb\", \"lokacija_ulica_kucni\": \" Ulica Antuna Šoljana bb\", \"lokacija_zupanija_id\": \"ZUP-21\", \"lokacija_zupanija\": \"Grad Zagreb\", \"lokacija_samouprava_id\": \"1333\", \"lokacija_samouprava\": \"Grad Zagreb\", \"lokacija_mjesto_id\": null, \"lokacija_kat_opcina_id\": \"335592\"}}, {\"lokacija\": {\"lokacija_kat_cestica\": \"2795/3\", \"lokacija_kat_opcina\": \"Stenjevec\", \"lokacija_mjesto\": \"Zagreb\", \"lokacija_ulica_kucni\": \" Ulica Vilima Korajca bb\", \"lokacija_zupanija_id\": \"ZUP-21\", \"lokacija_zupanija\": \"Grad Zagreb\", \"lokacija_samouprava_id\": \"1333\", \"lokacija_samouprava\": \"Grad Zagreb\", \"lokacija_mjesto_id\": null, \"lokacija_kat_opcina_id\": \"335592\"}}]",
        "gradjevina_zahvat_id": null,
        "gradjevina_zahvat": null,
        "gradjevina_zahvat_dodatno": null,
        "gradjevina_namjena_id": "sn",
        "gradjevina_namjena": "stambene namjene",
        "gradjevina_namjena_dodatno": "188 stanova",
        "gradjevina_skupina_id": null,
        "gradjevina_skupina": null,
        "gradjevina_ibz": null,
        "gradjevina_gbp": null,
        "gradjevina_volumen": null,
        "gradjevina_etaze": null,
        "gradjevina_br_jedinica_id": null,
        "gradjevina_br_jedinica": null,
        "gradjevina_nkvg_id": null,
        "gradjevina_nkvg": null,
        "troskovi_gradjenja_id": null,
        "troskovi_gradjenja": null,
        "edozvola:sourceLayer": "eDozvola_building_polygon",
        "edozvola:sourceFeatureId": "eDozvola_building_polygon.180371",
        "edozvola:geometryAreaM2": 1462.03
      },
      "geometry": {
        "type": "Polygon",
        "coordinates": [
          [
            [
              15.88382776,
              45.80319646
            ],
            [
              15.88381885,
              45.80326902
            ],
            [
              15.88383171,
              45.80326972
            ],
            [
              15.88376853,
              45.80378398
            ],
            [
              15.88375568,
              45.80378319
            ],
            [
              15.88374677,
              45.80385575
            ],
            [
              15.88402011,
              45.80387216
            ],
            [
              15.88402165,
              45.80387226
            ],
            [
              15.88403055,
              45.8037997
            ],
            [
              15.8840177,
              45.80379891
            ],
            [
              15.88408087,
              45.80328474
            ],
            [
              15.88409373,
              45.80328553
            ],
            [
              15.88410263,
              45.80321297
            ],
            [
              15.88382776,
              45.80319646
            ]
          ]
        ]
      }
    },
    {
      "type": "Feature",
      "properties": {
        "predmet_web_id": "P20221230-1168647-Z06",
        "predmet_group_id": "V02",
        "predmet_group": "Lokacijska dozvola",
        "predmet_vrsta_id": "Z06",
        "predmet_vrsta": "Lokacijska dozvola - izmjena i/ili dopuna",
        "predmet_status_id": "ARHIVA",
        "predmet_status": "Arhiva",
        "predmet_klasa": "UP/I-350-05/22-001/121",
        "predmet_dat_promjene": null,
        "predmet_url": null,
        "zahtjev_dat_zaprimanja": "2022-04-12",
        "zahtjev_dat_urednosti": null,
        "zavrsni_akt_naziv": null,
        "zavrsni_akt_urbroj_rjesenja": null,
        "zavrsni_akt_dat_rjesavanja": "2022-07-19",
        "zavrsni_akt_nacin_rjesavanja_id": "NR-01-01",
        "zavrsni_akt_nacin_rjesavanja": "zahtjev usvojen",
        "zavrsni_akt_dat_izvrsnosti": null,
        "zavrsni_akt_dat_pravomocnosti": "2022-08-16",
        "zavrsni_akt_url": null,
        "nadlezno_tijelo_id": "UJ-2101015",
        "nadlezno_tijelo": "Grad Zagreb, Gradski ured za obnovu, izgradnju, prostorno uređenje, graditeljstvo i komunalne poslove, Sektor za prostorno uređenje i graditeljstvo, Grad Zagreb, Odjel za prostorno uređenje, Središnji odsjek za prostorno uređenje",
        "lokacija": "[{\"lokacija\": {\"lokacija_kat_cestica\": \"2795/3\", \"lokacija_kat_opcina\": \"Stenjevec\", \"lokacija_mjesto\": \"Zagreb\", \"lokacija_ulica_kucni\": \" Ulica Antuna Šoljana bb\", \"lokacija_zupanija_id\": \"ZUP-21\", \"lokacija_zupanija\": \"Grad Zagreb\", \"lokacija_samouprava_id\": \"1333\", \"lokacija_samouprava\": \"Grad Zagreb\", \"lokacija_mjesto_id\": null, \"lokacija_kat_opcina_id\": \"335592\"}}, {\"lokacija\": {\"lokacija_kat_cestica\": \"2795/3\", \"lokacija_kat_opcina\": \"Stenjevec\", \"lokacija_mjesto\": \"Zagreb\", \"lokacija_ulica_kucni\": \" Ulica Vilima Korajca bb\", \"lokacija_zupanija_id\": \"ZUP-21\", \"lokacija_zupanija\": \"Grad Zagreb\", \"lokacija_samouprava_id\": \"1333\", \"lokacija_samouprava\": \"Grad Zagreb\", \"lokacija_mjesto_id\": null, \"lokacija_kat_opcina_id\": \"335592\"}}]",
        "gradjevina_zahvat_id": null,
        "gradjevina_zahvat": null,
        "gradjevina_zahvat_dodatno": null,
        "gradjevina_namjena_id": "sn",
        "gradjevina_namjena": "stambene namjene",
        "gradjevina_namjena_dodatno": "188 stanova",
        "gradjevina_skupina_id": null,
        "gradjevina_skupina": null,
        "gradjevina_ibz": null,
        "gradjevina_gbp": null,
        "gradjevina_volumen": null,
        "gradjevina_etaze": null,
        "gradjevina_br_jedinica_id": null,
        "gradjevina_br_jedinica": null,
        "gradjevina_nkvg_id": null,
        "gradjevina_nkvg": null,
        "troskovi_gradjenja_id": null,
        "troskovi_gradjenja": null,
        "edozvola:sourceLayer": "eDozvola_building_polygon",
        "edozvola:sourceFeatureId": "eDozvola_building_polygon.180574",
        "edozvola:geometryAreaM2": 1461.97
      },
      "geometry": {
        "type": "Polygon",
        "coordinates": [
          [
            [
              15.88535135,
              45.80373681
            ],
            [
              15.88534924,
              45.80375362
            ],
            [
              15.88534245,
              45.80380937
            ],
            [
              15.8853553,
              45.80381016
            ],
            [
              15.88529214,
              45.80432432
            ],
            [
              15.88527941,
              45.80432363
            ],
            [
              15.88527065,
              45.80439511
            ],
            [
              15.88527051,
              45.8043961
            ],
            [
              15.88554526,
              45.80441261
            ],
            [
              15.88555416,
              45.80434013
            ],
            [
              15.88554131,
              45.80433934
            ],
            [
              15.88560447,
              45.80382509
            ],
            [
              15.88561732,
              45.80382588
            ],
            [
              15.88562623,
              45.80375331
            ],
            [
              15.88535135,
              45.80373681
            ]
          ]
        ]
      }
    },
    {
      "type": "Feature",
      "properties": {
        "predmet_web_id": "P20221230-1168647-Z06",
        "predmet_group_id": "V02",
        "predmet_group": "Lokacijska dozvola",
        "predmet_vrsta_id": "Z06",
        "predmet_vrsta": "Lokacijska dozvola - izmjena i/ili dopuna",
        "predmet_status_id": "ARHIVA",
        "predmet_status": "Arhiva",
        "predmet_klasa": "UP/I-350-05/22-001/121",
        "predmet_dat_promjene": null,
        "predmet_url": null,
        "zahtjev_dat_zaprimanja": "2022-04-12",
        "zahtjev_dat_urednosti": null,
        "zavrsni_akt_naziv": null,
        "zavrsni_akt_urbroj_rjesenja": null,
        "zavrsni_akt_dat_rjesavanja": "2022-07-19",
        "zavrsni_akt_nacin_rjesavanja_id": "NR-01-01",
        "zavrsni_akt_nacin_rjesavanja": "zahtjev usvojen",
        "zavrsni_akt_dat_izvrsnosti": null,
        "zavrsni_akt_dat_pravomocnosti": "2022-08-16",
        "zavrsni_akt_url": null,
        "nadlezno_tijelo_id": "UJ-2101015",
        "nadlezno_tijelo": "Grad Zagreb, Gradski ured za obnovu, izgradnju, prostorno uređenje, graditeljstvo i komunalne poslove, Sektor za prostorno uređenje i graditeljstvo, Grad Zagreb, Odjel za prostorno uređenje, Središnji odsjek za prostorno uređenje",
        "lokacija": "[{\"lokacija\": {\"lokacija_kat_cestica\": \"2795/3\", \"lokacija_kat_opcina\": \"Stenjevec\", \"lokacija_mjesto\": \"Zagreb\", \"lokacija_ulica_kucni\": \" Ulica Antuna Šoljana bb\", \"lokacija_zupanija_id\": \"ZUP-21\", \"lokacija_zupanija\": \"Grad Zagreb\", \"lokacija_samouprava_id\": \"1333\", \"lokacija_samouprava\": \"Grad Zagreb\", \"lokacija_mjesto_id\": null, \"lokacija_kat_opcina_id\": \"335592\"}}, {\"lokacija\": {\"lokacija_kat_cestica\": \"2795/3\", \"lokacija_kat_opcina\": \"Stenjevec\", \"lokacija_mjesto\": \"Zagreb\", \"lokacija_ulica_kucni\": \" Ulica Vilima Korajca bb\", \"lokacija_zupanija_id\": \"ZUP-21\", \"lokacija_zupanija\": \"Grad Zagreb\", \"lokacija_samouprava_id\": \"1333\", \"lokacija_samouprava\": \"Grad Zagreb\", \"lokacija_mjesto_id\": null, \"lokacija_kat_opcina_id\": \"335592\"}}]",
        "gradjevina_zahvat_id": null,
        "gradjevina_zahvat": null,
        "gradjevina_zahvat_dodatno": null,
        "gradjevina_namjena_id": "sn",
        "gradjevina_namjena": "stambene namjene",
        "gradjevina_namjena_dodatno": "116 stanova",
        "gradjevina_skupina_id": null,
        "gradjevina_skupina": null,
        "gradjevina_ibz": null,
        "gradjevina_gbp": null,
        "gradjevina_volumen": null,
        "gradjevina_etaze": null,
        "gradjevina_br_jedinica_id": null,
        "gradjevina_br_jedinica": null,
        "gradjevina_nkvg_id": null,
        "gradjevina_nkvg": null,
        "troskovi_gradjenja_id": null,
        "troskovi_gradjenja": null,
        "edozvola:sourceLayer": "eDozvola_building_polygon",
        "edozvola:sourceFeatureId": "eDozvola_building_polygon.180590",
        "edozvola:geometryAreaM2": 900.05
      },
      "geometry": {
        "type": "Polygon",
        "coordinates": [
          [
            [
              15.88441567,
              45.80371242
            ],
            [
              15.88439221,
              45.80390359
            ],
            [
              15.88439311,
              45.80390369
            ],
            [
              15.88449584,
              45.80390982
            ],
            [
              15.88449696,
              45.80390083
            ],
            [
              15.88486184,
              45.80392277
            ],
            [
              15.88486071,
              45.80393167
            ],
            [
              15.88496434,
              45.8039379
            ],
            [
              15.88496618,
              45.80392252
            ],
            [
              15.8849861,
              45.80376111
            ],
            [
              15.88498794,
              45.80374574
            ],
            [
              15.88488431,
              45.80373951
            ],
            [
              15.88488318,
              45.8037485
            ],
            [
              15.88451844,
              45.80372656
            ],
            [
              15.88451944,
              45.80371757
            ],
            [
              15.88441581,
              45.80371134
            ],
            [
              15.88441567,
              45.80371242
            ]
          ]
        ]
      }
    },
    {
      "type": "Feature",
      "properties": {
        "predmet_web_id": "P20221230-1168647-Z06",
        "predmet_group_id": "V02",
        "predmet_group": "Lokacijska dozvola",
        "predmet_vrsta_id": "Z06",
        "predmet_vrsta": "Lokacijska dozvola - izmjena i/ili dopuna",
        "predmet_status_id": "ARHIVA",
        "predmet_status": "Arhiva",
        "predmet_klasa": "UP/I-350-05/22-001/121",
        "predmet_dat_promjene": null,
        "predmet_url": null,
        "zahtjev_dat_zaprimanja": "2022-04-12",
        "zahtjev_dat_urednosti": null,
        "zavrsni_akt_naziv": null,
        "zavrsni_akt_urbroj_rjesenja": null,
        "zavrsni_akt_dat_rjesavanja": "2022-07-19",
        "zavrsni_akt_nacin_rjesavanja_id": "NR-01-01",
        "zavrsni_akt_nacin_rjesavanja": "zahtjev usvojen",
        "zavrsni_akt_dat_izvrsnosti": null,
        "zavrsni_akt_dat_pravomocnosti": "2022-08-16",
        "zavrsni_akt_url": null,
        "nadlezno_tijelo_id": "UJ-2101015",
        "nadlezno_tijelo": "Grad Zagreb, Gradski ured za obnovu, izgradnju, prostorno uređenje, graditeljstvo i komunalne poslove, Sektor za prostorno uređenje i graditeljstvo, Grad Zagreb, Odjel za prostorno uređenje, Središnji odsjek za prostorno uređenje",
        "lokacija": "[{\"lokacija\": {\"lokacija_kat_cestica\": \"2795/3\", \"lokacija_kat_opcina\": \"Stenjevec\", \"lokacija_mjesto\": \"Zagreb\", \"lokacija_ulica_kucni\": \" Ulica Antuna Šoljana bb\", \"lokacija_zupanija_id\": \"ZUP-21\", \"lokacija_zupanija\": \"Grad Zagreb\", \"lokacija_samouprava_id\": \"1333\", \"lokacija_samouprava\": \"Grad Zagreb\", \"lokacija_mjesto_id\": null, \"lokacija_kat_opcina_id\": \"335592\"}}, {\"lokacija\": {\"lokacija_kat_cestica\": \"2795/3\", \"lokacija_kat_opcina\": \"Stenjevec\", \"lokacija_mjesto\": \"Zagreb\", \"lokacija_ulica_kucni\": \" Ulica Vilima Korajca bb\", \"lokacija_zupanija_id\": \"ZUP-21\", \"lokacija_zupanija\": \"Grad Zagreb\", \"lokacija_samouprava_id\": \"1333\", \"lokacija_samouprava\": \"Grad Zagreb\", \"lokacija_mjesto_id\": null, \"lokacija_kat_opcina_id\": \"335592\"}}]",
        "gradjevina_zahvat_id": null,
        "gradjevina_zahvat": null,
        "gradjevina_zahvat_dodatno": null,
        "gradjevina_namjena_id": "mn_01",
        "gradjevina_namjena": "mješovite namjene (stambeno poslovna)",
        "gradjevina_namjena_dodatno": "146 stanova i 8 poslovnih prostora uredske namjene",
        "gradjevina_skupina_id": null,
        "gradjevina_skupina": null,
        "gradjevina_ibz": null,
        "gradjevina_gbp": null,
        "gradjevina_volumen": null,
        "gradjevina_etaze": null,
        "gradjevina_br_jedinica_id": null,
        "gradjevina_br_jedinica": null,
        "gradjevina_nkvg_id": null,
        "gradjevina_nkvg": null,
        "troskovi_gradjenja_id": null,
        "troskovi_gradjenja": null,
        "edozvola:sourceLayer": "eDozvola_building_polygon",
        "edozvola:sourceFeatureId": "eDozvola_building_polygon.180619",
        "edozvola:geometryAreaM2": 1479.83
      },
      "geometry": {
        "type": "Polygon",
        "coordinates": [
          [
            [
              15.88274333,
              45.80380445
            ],
            [
              15.88274488,
              45.80380455
            ],
            [
              15.88284709,
              45.80381068
            ],
            [
              15.88284809,
              45.80380168
            ],
            [
              15.88337496,
              45.80383332
            ],
            [
              15.88338938,
              45.80371571
            ],
            [
              15.88341524,
              45.80350574
            ],
            [
              15.88342809,
              45.80350644
            ],
            [
              15.883437,
              45.80343397
            ],
            [
              15.88332296,
              45.80342714
            ],
            [
              15.88332749,
              45.8033901
            ],
            [
              15.88328069,
              45.80338723
            ],
            [
              15.88327616,
              45.80342428
            ],
            [
              15.88316212,
              45.80341746
            ],
            [
              15.88315322,
              45.80348993
            ],
            [
              15.88316762,
              45.80349082
            ],
            [
              15.88318163,
              45.80349171
            ],
            [
              15.88317922,
              45.80351194
            ],
            [
              15.88316508,
              45.80351105
            ],
            [
              15.88316354,
              45.80351095
            ],
            [
              15.88315887,
              45.80354899
            ],
            [
              15.88316041,
              45.80354909
            ],
            [
              15.88318201,
              45.80355037
            ],
            [
              15.88317524,
              45.80360469
            ],
            [
              15.88315377,
              45.8036034
            ],
            [
              15.88315222,
              45.8036033
            ],
            [
              15.88314714,
              45.80364412
            ],
            [
              15.88286957,
              45.80362742
            ],
            [
              15.8828707,
              45.80361843
            ],
            [
              15.88276694,
              45.8036122
            ],
            [
              15.88274333,
              45.80380445
            ]
          ]
        ]
      }
    }
  ]
}
