{
  "name": "Špansko-Sjever A–F – aktualno DGU stanje",
  "type": "FeatureCollection",
  "context": {
    "note": "Contains six above-ground buildings, three underground-garage polygons and one transformer polygon.",
    "schema": "consensus-builder.reconstruction-context.v1",
    "capturedAt": "2026-08-13T00:00:00.000Z",
    "plannedGeometry": "location-permit-amendment-2022.geojson"
  },
  "features": [
    {
      "type": "Feature",
      "geometry": {
        "type": "MultiPolygon",
        "coordinates": [
          [
            [
              [
                15.883499353,
                45.803274369
              ],
              [
                15.883778928,
                45.803179599
              ],
              [
                15.883899152,
                45.803138856
              ],
              [
                15.884239289,
                45.803023536
              ],
              [
                15.884299258,
                45.803080277
              ],
              [
                15.88424131,
                45.803552448
              ],
              [
                15.884305207,
                45.803556302
              ],
              [
                15.884733335,
                45.803582002
              ],
              [
                15.884930428,
                45.803593861
              ],
              [
                15.885004612,
                45.80359831
              ],
              [
                15.885074938,
                45.803602557
              ],
              [
                15.885237189,
                45.803612338
              ],
              [
                15.885275631,
                45.803614615
              ],
              [
                15.885276477,
                45.803607871
              ],
              [
                15.885277323,
                45.803601127
              ],
              [
                15.885321036,
                45.803603791
              ],
              [
                15.885552842,
                45.803617725
              ],
              [
                15.885678195,
                45.803625238
              ],
              [
                15.885677349,
                45.803631982
              ],
              [
                15.885643146,
                45.803911185
              ],
              [
                15.885605851,
                45.804214216
              ],
              [
                15.885583948,
                45.804392618
              ],
              [
                15.885580383,
                45.804400967
              ],
              [
                15.885572461,
                45.804407673
              ],
              [
                15.88556148,
                45.804411843
              ],
              [
                15.885550534,
                45.804412773
              ],
              [
                15.885382701,
                45.804407282
              ],
              [
                15.885093977,
                45.80439781
              ],
              [
                15.884772691,
                45.804389512
              ],
              [
                15.884514502,
                45.804387762
              ],
              [
                15.884368726,
                45.804388776
              ],
              [
                15.88430838,
                45.80438944
              ],
              [
                15.884298593,
                45.80437859
              ],
              [
                15.884291519,
                45.804366765
              ],
              [
                15.884203896,
                45.804367642
              ],
              [
                15.884197839,
                45.804380207
              ],
              [
                15.884188705,
                45.804391855
              ],
              [
                15.884094629,
                45.804394587
              ],
              [
                15.883969529,
                45.804398951
              ],
              [
                15.883891016,
                45.804402127
              ],
              [
                15.883798078,
                45.804406575
              ],
              [
                15.883643341,
                45.804415188
              ],
              [
                15.883488972,
                45.804425423
              ],
              [
                15.883326215,
                45.804437952
              ],
              [
                15.883163696,
                45.804452281
              ],
              [
                15.883103937,
                45.804458077
              ],
              [
                15.883059503,
                45.804462426
              ],
              [
                15.883044691,
                45.804463966
              ],
              [
                15.883046819,
                45.804445981
              ],
              [
                15.883083712,
                45.804145738
              ],
              [
                15.883105759,
                45.803966618
              ],
              [
                15.882934249,
                45.803956334
              ],
              [
                15.882657699,
                45.803939813
              ],
              [
                15.882657862,
                45.80391345
              ],
              [
                15.882658076,
                45.803894106
              ],
              [
                15.882659962,
                45.80387477
              ],
              [
                15.882663059,
                45.803850582
              ],
              [
                15.882676274,
                45.803737369
              ],
              [
                15.882688531,
                45.803641067
              ],
              [
                15.882695008,
                45.803590444
              ],
              [
                15.882699835,
                45.803572744
              ],
              [
                15.882709668,
                45.803556061
              ],
              [
                15.882723985,
                45.803541111
              ],
              [
                15.882742265,
                45.803528433
              ],
              [
                15.88278653,
                45.803515985
              ],
              [
                15.882822044,
                45.80350376
              ],
              [
                15.883064429,
                45.803421748
              ],
              [
                15.883280471,
                45.803348501
              ],
              [
                15.883499353,
                45.803274369
              ]
            ]
          ]
        ]
      },
      "properties": {
        "id": "HR-340057-2795/3",
        "areaM2": 23451.925300006213,
        "source": "DGU katastar, aktualna čestica",
        "cestica_id": 40366554,
        "broj_cestice": "2795/3",
        "context:role": "site",
        "maticni_broj_ko": 340057
      }
    },
    {
      "type": "Feature",
      "geometry": {
        "type": "MultiPolygon",
        "coordinates": [
          [
            [
              [
                15.884102633,
                45.803212927
              ],
              [
                15.884093729,
                45.803285493
              ],
              [
                15.884080872,
                45.803284703
              ],
              [
                15.884017698,
                45.803798867
              ],
              [
                15.884030555,
                45.803799656
              ],
              [
                15.88402165,
                45.803872222
              ],
              [
                15.884020107,
                45.803872123
              ],
              [
                15.883746773,
                45.803855713
              ],
              [
                15.883755678,
                45.803783147
              ],
              [
                15.883768534,
                45.803783936
              ],
              [
                15.883831711,
                45.803269683
              ],
              [
                15.883818854,
                45.803268984
              ],
              [
                15.883827759,
                45.803196418
              ],
              [
                15.88392547,
                45.803202254
              ],
              [
                15.883954268,
                45.803204029
              ],
              [
                15.883976124,
                45.803205317
              ],
              [
                15.884004923,
                45.803207091
              ],
              [
                15.884102633,
                45.803212927
              ]
            ]
          ]
        ]
      },
      "properties": {
        "source": "DGU katastar, aktualna zgrada",
        "context:role": "above-ground-building",
        "dguBuildingId": 13391445,
        "dguBuildingType": "STAMBENA ZGRADA",
        "footprintAreaM2": 1462.0861500064048,
        "dguBuildingNumber": "1101"
      }
    },
    {
      "type": "Feature",
      "geometry": {
        "type": "MultiPolygon",
        "coordinates": [
          [
            [
              [
                15.883275226,
                45.804161979
              ],
              [
                15.883378981,
                45.804168207
              ],
              [
                15.883377852,
                45.804177199
              ],
              [
                15.883505777,
                45.804184908
              ],
              [
                15.883724343,
                45.804198054
              ],
              [
                15.883863197,
                45.804206361
              ],
              [
                15.883864196,
                45.804197459
              ],
              [
                15.883967951,
                45.804203687
              ],
              [
                15.883959608,
                45.804271937
              ],
              [
                15.883957069,
                45.804292168
              ],
              [
                15.883955229,
                45.804307365
              ],
              [
                15.883952691,
                45.804327507
              ],
              [
                15.883944347,
                45.804395846
              ],
              [
                15.883840592,
                45.804389618
              ],
              [
                15.883841721,
                45.804380626
              ],
              [
                15.883356503,
                45.804351465
              ],
              [
                15.883355374,
                45.804360457
              ],
              [
                15.883251619,
                45.804354228
              ],
              [
                15.88325176,
                45.804353149
              ],
              [
                15.883275086,
                45.804163058
              ],
              [
                15.883275226,
                45.804161979
              ]
            ]
          ]
        ]
      },
      "properties": {
        "source": "DGU katastar, aktualna zgrada",
        "context:role": "above-ground-building",
        "dguBuildingId": 13391446,
        "dguBuildingType": "STAMBENA ZGRADA",
        "footprintAreaM2": 1082.8780500211378,
        "dguBuildingNumber": "1099"
      }
    },
    {
      "type": "Feature",
      "geometry": {
        "type": "MultiPolygon",
        "coordinates": [
          [
            [
              [
                15.884463743,
                45.804172077
              ],
              [
                15.884462615,
                45.804181069
              ],
              [
                15.884827364,
                45.804202919
              ],
              [
                15.884828493,
                45.804193927
              ],
              [
                15.884932247,
                45.804200154
              ],
              [
                15.884910914,
                45.80437343
              ],
              [
                15.884908646,
                45.804392404
              ],
              [
                15.884804891,
                45.804386176
              ],
              [
                15.884806019,
                45.804377184
              ],
              [
                15.88444114,
                45.804355334
              ],
              [
                15.884440142,
                45.804364236
              ],
              [
                15.884336387,
                45.804358009
              ],
              [
                15.884336527,
                45.80435693
              ],
              [
                15.884359989,
                45.804165849
              ],
              [
                15.884360888,
                45.804165944
              ],
              [
                15.884463743,
                45.804172077
              ]
            ]
          ]
        ]
      },
      "properties": {
        "source": "DGU katastar, aktualna zgrada",
        "context:role": "above-ground-building",
        "dguBuildingId": 13391447,
        "dguBuildingType": "STAMBENA ZGRADA",
        "footprintAreaM2": 900.1820500247195,
        "dguBuildingNumber": "1094"
      }
    },
    {
      "type": "Feature",
      "geometry": {
        "type": "MultiPolygon",
        "coordinates": [
          [
            [
              [
                15.884884312,
                45.80373947
              ],
              [
                15.884987938,
                45.803745697
              ],
              [
                15.884986096,
                45.803761073
              ],
              [
                15.88496618,
                45.803922479
              ],
              [
                15.884964338,
                45.803937856
              ],
              [
                15.884860712,
                45.80393163
              ],
              [
                15.88486184,
                45.803922728
              ],
              [
                15.884496965,
                45.803900787
              ],
              [
                15.884495836,
                45.803909779
              ],
              [
                15.88439311,
                45.803903647
              ],
              [
                15.884392211,
                45.803903552
              ],
              [
                15.884415673,
                45.803712382
              ],
              [
                15.884415813,
                45.803711303
              ],
              [
                15.884519438,
                45.80371753
              ],
              [
                15.884518439,
                45.803726522
              ],
              [
                15.884883184,
                45.803748462
              ],
              [
                15.884884312,
                45.80373947
              ]
            ]
          ]
        ]
      },
      "properties": {
        "source": "DGU katastar, aktualna zgrada",
        "context:role": "above-ground-building",
        "dguBuildingId": 13391448,
        "dguBuildingType": "STAMBENA ZGRADA",
        "footprintAreaM2": 900.0589000049318,
        "dguBuildingNumber": "1093"
      }
    },
    {
      "type": "Feature",
      "geometry": {
        "type": "MultiPolygon",
        "coordinates": [
          [
            [
              [
                15.885279412,
                45.804323585
              ],
              [
                15.885292141,
                45.804324283
              ],
              [
                15.885355304,
                45.803810119
              ],
              [
                15.885342447,
                45.80380933
              ],
              [
                15.885349236,
                45.803753579
              ],
              [
                15.88535135,
                45.803736765
              ],
              [
                15.885626228,
                45.80375327
              ],
              [
                15.885617325,
                45.803825835
              ],
              [
                15.885604468,
                45.803825046
              ],
              [
                15.885541307,
                45.8043393
              ],
              [
                15.885554164,
                45.804340089
              ],
              [
                15.885545262,
                45.804412565
              ],
              [
                15.88527051,
                45.804396061
              ],
              [
                15.885270649,
                45.804395072
              ],
              [
                15.885279412,
                45.804323585
              ]
            ]
          ]
        ]
      },
      "properties": {
        "source": "DGU katastar, aktualna zgrada",
        "context:role": "above-ground-building",
        "dguBuildingId": 13391449,
        "dguBuildingType": "STAMBENA ZGRADA",
        "footprintAreaM2": 1462.0047999865988,
        "dguBuildingNumber": "1091"
      }
    },
    {
      "type": "Feature",
      "geometry": {
        "type": "MultiPolygon",
        "coordinates": [
          [
            [
              [
                15.883355825,
                45.803981465
              ],
              [
                15.883179302,
                45.803970794
              ],
              [
                15.883177892,
                45.803982034
              ],
              [
                15.883147293,
                45.803980159
              ],
              [
                15.883148831,
                45.80396901
              ],
              [
                15.882706044,
                45.803942414
              ],
              [
                15.882707747,
                45.803928026
              ],
              [
                15.882723818,
                45.803929013
              ],
              [
                15.882762558,
                45.803613034
              ],
              [
                15.88282967,
                45.803617085
              ],
              [
                15.882931752,
                45.803623215
              ],
              [
                15.882930753,
                45.803632118
              ],
              [
                15.883148545,
                45.803645261
              ],
              [
                15.883167902,
                45.803488351
              ],
              [
                15.883155045,
                45.803487562
              ],
              [
                15.883166204,
                45.803397373
              ],
              [
                15.883279214,
                45.803404191
              ],
              [
                15.883281325,
                45.803387736
              ],
              [
                15.883325552,
                45.803390405
              ],
              [
                15.88332344,
                45.803406859
              ],
              [
                15.883437864,
                45.803413776
              ],
              [
                15.883426834,
                45.803503966
              ],
              [
                15.883413978,
                45.803503176
              ],
              [
                15.883394052,
                45.803665032
              ],
              [
                15.883424009,
                45.803666814
              ],
              [
                15.883549876,
                45.803674331
              ],
              [
                15.88356839,
                45.803675421
              ],
              [
                15.88352952,
                45.80399194
              ],
              [
                15.883394267,
                45.803983742
              ],
              [
                15.88339299,
                45.803994532
              ],
              [
                15.883354548,
                45.803992255
              ],
              [
                15.883355825,
                45.803981465
              ]
            ]
          ]
        ]
      },
      "properties": {
        "source": "DGU katastar, aktualna zgrada",
        "context:role": "underground-garage",
        "dguBuildingId": 13391592,
        "dguBuildingType": "PODZEMNA GARAŽA",
        "footprintAreaM2": 2828.3578499961027,
        "dguBuildingNumber": "1115"
      }
    },
    {
      "type": "Feature",
      "geometry": {
        "type": "MultiPolygon",
        "coordinates": [
          [
            [
              [
                15.884030555,
                45.803799656
              ],
              [
                15.88402165,
                45.803872222
              ],
              [
                15.884020107,
                45.803872123
              ],
              [
                15.88400739,
                45.803975441
              ],
              [
                15.884001878,
                45.804020311
              ],
              [
                15.883949937,
                45.804017152
              ],
              [
                15.883905066,
                45.804014481
              ],
              [
                15.883893754,
                45.804037005
              ],
              [
                15.883876929,
                45.804057789
              ],
              [
                15.88385524,
                45.804076208
              ],
              [
                15.883829339,
                45.804091725
              ],
              [
                15.883799872,
                45.804103893
              ],
              [
                15.883767873,
                45.804112269
              ],
              [
                15.883734375,
                45.804116677
              ],
              [
                15.883724343,
                45.804198054
              ],
              [
                15.883863197,
                45.804206361
              ],
              [
                15.883864196,
                45.804197459
              ],
              [
                15.883967951,
                45.804203687
              ],
              [
                15.883959608,
                45.804271937
              ],
              [
                15.88396565,
                45.804272329
              ],
              [
                15.883963241,
                45.804292472
              ],
              [
                15.883957069,
                45.804292168
              ],
              [
                15.883955229,
                45.804307365
              ],
              [
                15.8839614,
                45.804307758
              ],
              [
                15.883958862,
                45.8043279
              ],
              [
                15.883952691,
                45.804327507
              ],
              [
                15.883944347,
                45.804395846
              ],
              [
                15.883840592,
                45.804389618
              ],
              [
                15.883841721,
                45.804380626
              ],
              [
                15.883356503,
                45.804351465
              ],
              [
                15.883355374,
                45.804360457
              ],
              [
                15.883251619,
                45.804354228
              ],
              [
                15.88325176,
                45.804353149
              ],
              [
                15.883223861,
                45.804351469
              ],
              [
                15.883247186,
                45.804161377
              ],
              [
                15.883275086,
                45.804163058
              ],
              [
                15.883275226,
                45.804161979
              ],
              [
                15.883378981,
                45.804168207
              ],
              [
                15.883377852,
                45.804177199
              ],
              [
                15.883505777,
                45.804184908
              ],
              [
                15.88352104,
                45.804060908
              ],
              [
                15.883506254,
                45.804060019
              ],
              [
                15.883511058,
                45.804021083
              ],
              [
                15.883525843,
                45.804021973
              ],
              [
                15.88352952,
                45.80399194
              ],
              [
                15.88356839,
                45.803675421
              ],
              [
                15.883549876,
                45.803674331
              ],
              [
                15.88355327,
                45.803646546
              ],
              [
                15.883571784,
                45.803647635
              ],
              [
                15.883601174,
                45.803409168
              ],
              [
                15.883582531,
                45.803408078
              ],
              [
                15.88358592,
                45.803380742
              ],
              [
                15.883604434,
                45.803381832
              ],
              [
                15.883619835,
                45.803256933
              ],
              [
                15.883818854,
                45.803268984
              ],
              [
                15.883827759,
                45.803196418
              ],
              [
                15.88392547,
                45.803202254
              ],
              [
                15.883926451,
                45.803194881
              ],
              [
                15.883955251,
                45.803196566
              ],
              [
                15.883954268,
                45.803204029
              ],
              [
                15.883976124,
                45.803205317
              ],
              [
                15.883976979,
                45.803197853
              ],
              [
                15.884005906,
                45.803199628
              ],
              [
                15.884004923,
                45.803207091
              ],
              [
                15.884102633,
                45.803212927
              ],
              [
                15.884093729,
                45.803285493
              ],
              [
                15.884080872,
                45.803284703
              ],
              [
                15.884017698,
                45.803798867
              ],
              [
                15.884030555,
                45.803799656
              ]
            ]
          ]
        ]
      },
      "properties": {
        "source": "DGU katastar, aktualna zgrada",
        "context:role": "underground-garage",
        "dguBuildingId": 13391593,
        "dguBuildingType": "PODZEMNA GARAŽA",
        "footprintAreaM2": 4769.277450012596,
        "dguBuildingNumber": "1098"
      }
    },
    {
      "type": "Feature",
      "geometry": {
        "type": "MultiPolygon",
        "coordinates": [
          [
            [
              [
                15.885554164,
                45.804340089
              ],
              [
                15.885545262,
                45.804412565
              ],
              [
                15.88527051,
                45.804396061
              ],
              [
                15.885270649,
                45.804395072
              ],
              [
                15.884910914,
                45.80437343
              ],
              [
                15.884908646,
                45.804392404
              ],
              [
                15.884804891,
                45.804386176
              ],
              [
                15.884806019,
                45.804377184
              ],
              [
                15.88444114,
                45.804355334
              ],
              [
                15.884440142,
                45.804364236
              ],
              [
                15.884336387,
                45.804358009
              ],
              [
                15.884336527,
                45.80435693
              ],
              [
                15.884207958,
                45.804349218
              ],
              [
                15.884214885,
                45.804292748
              ],
              [
                15.884150729,
                45.804288893
              ],
              [
                15.884223079,
                45.803700816
              ],
              [
                15.884415673,
                45.803712382
              ],
              [
                15.884415813,
                45.803711303
              ],
              [
                15.884519438,
                45.80371753
              ],
              [
                15.884518439,
                45.803726522
              ],
              [
                15.884883184,
                45.803748462
              ],
              [
                15.884884312,
                45.80373947
              ],
              [
                15.884987938,
                45.803745697
              ],
              [
                15.884986096,
                45.803761073
              ],
              [
                15.88512752,
                45.803769573
              ],
              [
                15.885129929,
                45.80374943
              ],
              [
                15.885333065,
                45.803761681
              ],
              [
                15.885334193,
                45.803752689
              ],
              [
                15.885349236,
                45.803753579
              ],
              [
                15.88535135,
                45.803736765
              ],
              [
                15.885626228,
                45.80375327
              ],
              [
                15.885617325,
                45.803825835
              ],
              [
                15.885604468,
                45.803825046
              ],
              [
                15.885541307,
                45.8043393
              ],
              [
                15.885554164,
                45.804340089
              ]
            ],
            [
              [
                15.88439311,
                45.803903647
              ],
              [
                15.884390432,
                45.803924868
              ],
              [
                15.884420879,
                45.803928811
              ],
              [
                15.88444948,
                45.803936883
              ],
              [
                15.884475467,
                45.80394863
              ],
              [
                15.884497557,
                45.803963776
              ],
              [
                15.884514987,
                45.803981596
              ],
              [
                15.884527248,
                45.804001368
              ],
              [
                15.884533576,
                45.804022547
              ],
              [
                15.884533982,
                45.804044144
              ],
              [
                15.884528344,
                45.804065439
              ],
              [
                15.884516931,
                45.804085443
              ],
              [
                15.884500006,
                45.804103618
              ],
              [
                15.884478479,
                45.804119068
              ],
              [
                15.884453,
                45.804131258
              ],
              [
                15.884424603,
                45.804139743
              ],
              [
                15.88439432,
                45.804144259
              ],
              [
                15.88436344,
                45.804144543
              ],
              [
                15.884360888,
                45.804165944
              ],
              [
                15.884463743,
                45.804172077
              ],
              [
                15.884462615,
                45.804181069
              ],
              [
                15.884827364,
                45.804202919
              ],
              [
                15.884828493,
                45.804193927
              ],
              [
                15.884932247,
                45.804200154
              ],
              [
                15.884989846,
                45.804203613
              ],
              [
                15.884988998,
                45.804210537
              ],
              [
                15.885024225,
                45.804212706
              ],
              [
                15.885023231,
                45.804221249
              ],
              [
                15.885071701,
                45.804224119
              ],
              [
                15.885086408,
                45.804103536
              ],
              [
                15.88507368,
                45.804102747
              ],
              [
                15.885078631,
                45.804062013
              ],
              [
                15.885091488,
                45.804062802
              ],
              [
                15.885107604,
                45.803930979
              ],
              [
                15.885070705,
                45.803928801
              ],
              [
                15.885069711,
                45.803937254
              ],
              [
                15.885027412,
                45.803934776
              ],
              [
                15.885028406,
                45.803926234
              ],
              [
                15.88496618,
                45.803922479
              ],
              [
                15.884964338,
                45.803937856
              ],
              [
                15.884860712,
                45.80393163
              ],
              [
                15.88486184,
                45.803922728
              ],
              [
                15.884496965,
                45.803900787
              ],
              [
                15.884495836,
                45.803909779
              ],
              [
                15.88439311,
                45.803903647
              ]
            ]
          ]
        ]
      },
      "properties": {
        "source": "DGU katastar, aktualna zgrada",
        "context:role": "underground-garage",
        "dguBuildingId": 13391594,
        "dguBuildingType": "PODZEMNA GARAŽA",
        "footprintAreaM2": 6218.559700019505,
        "dguBuildingNumber": "1092"
      }
    },
    {
      "type": "Feature",
      "geometry": {
        "type": "MultiPolygon",
        "coordinates": [
          [
            [
              [
                15.883428666,
                45.803501186
              ],
              [
                15.883444223,
                45.80350208
              ],
              [
                15.883424009,
                45.803666814
              ],
              [
                15.883400835,
                45.803854836
              ],
              [
                15.882902894,
                45.803824884
              ],
              [
                15.882904171,
                45.803814093
              ],
              [
                15.882806203,
                45.803808165
              ],
              [
                15.88282967,
                45.803617085
              ],
              [
                15.882829811,
                45.803615916
              ],
              [
                15.882927779,
                45.803621844
              ],
              [
                15.882928765,
                45.803614111
              ],
              [
                15.883149257,
                45.803627359
              ],
              [
                15.883166218,
                45.803489332
              ],
              [
                15.883153362,
                45.803488543
              ],
              [
                15.883164802,
                45.803396195
              ],
              [
                15.883277811,
                45.803403014
              ],
              [
                15.883279923,
                45.803386559
              ],
              [
                15.883327235,
                45.803389424
              ],
              [
                15.883325124,
                45.803405879
              ],
              [
                15.883439547,
                45.803412795
              ],
              [
                15.883428666,
                45.803501186
              ]
            ]
          ]
        ]
      },
      "properties": {
        "source": "DGU katastar, aktualna zgrada",
        "context:role": "above-ground-building",
        "dguBuildingId": 13391664,
        "dguBuildingType": "ZGRADA MJEŠOVITE UPORABE",
        "footprintAreaM2": 1639.023000020573,
        "dguBuildingNumber": "1114"
      }
    },
    {
      "type": "Feature",
      "geometry": {
        "type": "MultiPolygon",
        "coordinates": [
          [
            [
              [
                15.884163405,
                45.803990859
              ],
              [
                15.884154463,
                45.804055146
              ],
              [
                15.884090827,
                45.804050844
              ],
              [
                15.884099769,
                45.803986557
              ],
              [
                15.884163405,
                45.803990859
              ]
            ]
          ]
        ]
      },
      "properties": {
        "source": "DGU katastar, aktualna zgrada",
        "context:role": "transformer",
        "dguBuildingId": 13391744,
        "dguBuildingType": "TRAFOSTANICA",
        "footprintAreaM2": 35.67409999937172,
        "dguBuildingNumber": "1097"
      }
    }
  ]
}
