{"type": "FeatureCollection", "metadata": {"title": "Candlestick Point development blocks (D4D Appendix B block plans)", "note": "Polygons are property-line blocks minus the hatched/dashed mid-block easements, matching the D4D block-area tables; land_use and height attributes are area overlays with the land_use and height_zones layers.", "crs": "EPSG:4326 (lon, lat)", "generated": "2026-10-09", "georeferencing": "see georeferencing.json in this folder"}, "features": [{"type": "Feature", "properties": {"block_id": "AG-1", "neighborhood": "Alice Griffith", "block": "1", "area_acres_table": 1.45, "area_acres_polygon": 1.449, "gross_area_acres_polygon": 1.545, "mid_block_easement_excluded": true, "dimension_labels_ft": [305.0, 40.0], "source_figure": "Figure 7.1 / Table 7.1", "pdf_page": 279, "land_use": "Residential Density II", "land_use_share": 1.0, "land_use_source": "DDA Exhibit A Development Plan (May 2025)", "height_zones_2024": [{"height_ft": 65, "share": 1.0}], "max_height_ft_2024": 65, "towers": [], "source_document": "Candlestick Point Design for Development, 2024 amendment compilation (CP_D4D_2024_Amendment.pdf), Appendix B", "georef_rms_m": 0.37, "confidence": "high"}, "geometry": {"type": "Polygon", "coordinates": [[[-122.3842619, 37.7196802], [-122.3850428, 37.7201224], [-122.3853517, 37.719778], [-122.3854591, 37.7196583], [-122.384599, 37.7191721], [-122.3842395, 37.7195734], [-122.3842284, 37.7195882], [-122.3842236, 37.7195984], [-122.3842212, 37.719609], [-122.384221, 37.7196198], [-122.3842226, 37.7196305], [-122.3842261, 37.7196411], [-122.3842312, 37.7196512], [-122.3842378, 37.7196608], [-122.3842456, 37.7196695], [-122.3842619, 37.7196802]]]}}, {"type": "Feature", "properties": {"block_id": "AG-6", "neighborhood": "Alice Griffith", "block": "6", "area_acres_table": 0.8, "area_acres_polygon": 0.8, "gross_area_acres_polygon": 0.873, "mid_block_easement_excluded": true, "dimension_labels_ft": [159.4], "source_figure": "Figure 7.1 / Table 7.1", "pdf_page": 279, "land_use": "Residential Density I", "land_use_share": 1.0, "land_use_source": "Addendum 7 Fig 3 (2024)", "height_zones_2024": [{"height_ft": 40, "share": 1.0}], "max_height_ft_2024": 40, "towers": [], "source_document": "Candlestick Point Design for Development, 2024 amendment compilation (CP_D4D_2024_Amendment.pdf), Appendix B", "georef_rms_m": 0.37, "confidence": "high"}, "geometry": {"type": "Polygon", "coordinates": [[[-122.3864339, 37.7171311], [-122.3868828, 37.7173847], [-122.3873212, 37.7168958], [-122.3868724, 37.7166415], [-122.3864339, 37.7171311]]]}}, {"type": "Feature", "properties": {"block_id": "AG-4", "neighborhood": "Alice Griffith", "block": "4", "area_acres_table": 1.23, "area_acres_polygon": 1.23, "gross_area_acres_polygon": 1.23, "mid_block_easement_excluded": false, "dimension_labels_ft": [], "source_figure": "Figure 7.1 / Table 7.1", "pdf_page": 279, "land_use": "Residential Density II", "land_use_share": 0.99, "land_use_source": "DDA Exhibit A Development Plan (May 2025)", "height_zones_2024": [{"height_ft": 65, "share": 1.0}], "max_height_ft_2024": 65, "towers": [], "source_document": "Candlestick Point Design for Development, 2024 amendment compilation (CP_D4D_2024_Amendment.pdf), Appendix B", "georef_rms_m": 0.37, "confidence": "high"}, "geometry": {"type": "Polygon", "coordinates": [[[-122.3865831, 37.7183735], [-122.3857416, 37.7178975], [-122.385382, 37.7182987], [-122.3862236, 37.7187747], [-122.3865831, 37.7183735]]]}}, {"type": "Feature", "properties": {"block_id": "AG-9", "neighborhood": "Alice Griffith", "block": "9", "area_acres_table": 1.02, "area_acres_polygon": 1.024, "gross_area_acres_polygon": 1.024, "mid_block_easement_excluded": false, "dimension_labels_ft": [30.0], "source_figure": "Figure 7.1 / Table 7.1", "pdf_page": 279, "land_use": "Residential Density II", "land_use_share": 0.99, "land_use_source": "DDA Exhibit A Development Plan (May 2025)", "height_zones_2024": [{"height_ft": 65, "share": 1.0}], "max_height_ft_2024": 65, "towers": [], "source_document": "Candlestick Point Design for Development, 2024 amendment compilation (CP_D4D_2024_Amendment.pdf), Appendix B", "georef_rms_m": 0.37, "confidence": "high"}, "geometry": {"type": "Polygon", "coordinates": [[[-122.3870768, 37.7192569], [-122.3874364, 37.7188566], [-122.3867355, 37.7184598], [-122.3863759, 37.718861], [-122.3870768, 37.7192569]]]}}, {"type": "Feature", "properties": {"block_id": "AG-20", "neighborhood": "Alice Griffith", "block": "20", "area_acres_table": 1.22, "area_acres_polygon": 1.219, "gross_area_acres_polygon": 1.317, "mid_block_easement_excluded": true, "dimension_labels_ft": [256.1, 62.0], "source_figure": "Figure 7.1 / Table 7.1", "pdf_page": 279, "land_use": "Residential Density II", "land_use_share": 0.99, "land_use_source": "DDA Exhibit A Development Plan (May 2025)", "height_zones_2024": [{"height_ft": 65, "share": 1.0}], "max_height_ft_2024": 65, "towers": [], "source_document": "Candlestick Point Design for Development, 2024 amendment compilation (CP_D4D_2024_Amendment.pdf), Appendix B", "georef_rms_m": 0.37, "confidence": "high"}, "geometry": {"type": "Polygon", "coordinates": [[[-122.3851573, 37.7201872], [-122.3858772, 37.7205949], [-122.3862939, 37.7201303], [-122.3855738, 37.7197232], [-122.3851573, 37.7201872]]]}}, {"type": "Feature", "properties": {"block_id": "AG-5", "neighborhood": "Alice Griffith", "block": "5", "area_acres_table": 0.81, "area_acres_polygon": 0.815, "gross_area_acres_polygon": 0.815, "mid_block_easement_excluded": false, "dimension_labels_ft": [325.0], "source_figure": "Figure 7.1 / Table 7.1", "pdf_page": 279, "land_use": "Residential Density I", "land_use_share": 0.97, "land_use_source": "Addendum 7 Fig 3 (2024)", "height_zones_2024": [{"height_ft": 40, "share": 1.0}], "max_height_ft_2024": 40, "towers": [], "source_document": "Candlestick Point Design for Development, 2024 amendment compilation (CP_D4D_2024_Amendment.pdf), Appendix B", "georef_rms_m": 0.37, "confidence": "high"}, "geometry": {"type": "Polygon", "coordinates": [[[-122.3869849, 37.7180505], [-122.3860698, 37.7175325], [-122.3858502, 37.7177764], [-122.3867667, 37.7182952], [-122.3869849, 37.7180505]]]}}, {"type": "Feature", "properties": {"block_id": "AG-8", "neighborhood": "Alice Griffith", "block": "8", "area_acres_table": 0.72, "area_acres_polygon": 0.733, "gross_area_acres_polygon": 0.733, "mid_block_easement_excluded": false, "dimension_labels_ft": [292.1], "source_figure": "Figure 7.1 / Table 7.1", "pdf_page": 279, "land_use": "Residential Density I", "land_use_share": 0.99, "land_use_source": "DDA Exhibit A Development Plan (May 2025)", "height_zones_2024": [{"height_ft": 40, "share": 1.0}], "max_height_ft_2024": 40, "towers": [], "source_document": "Candlestick Point Design for Development, 2024 amendment compilation (CP_D4D_2024_Amendment.pdf), Appendix B", "georef_rms_m": 0.37, "confidence": "high"}, "geometry": {"type": "Polygon", "coordinates": [[[-122.387809, 37.7185167], [-122.3877611, 37.7184898], [-122.3869849, 37.7180505], [-122.3867667, 37.7182952], [-122.3875898, 37.7187611], [-122.387809, 37.7185167]]]}}, {"type": "Feature", "properties": {"block_id": "AG-7", "neighborhood": "Alice Griffith", "block": "7", "area_acres_table": 0.82, "area_acres_polygon": 0.818, "gross_area_acres_polygon": 0.892, "mid_block_easement_excluded": true, "dimension_labels_ft": [], "source_figure": "Figure 7.1 / Table 7.1", "pdf_page": 279, "land_use": "Residential Density I", "land_use_share": 1.0, "land_use_source": "Addendum 7 Fig 3 (2024)", "height_zones_2024": [{"height_ft": 40, "share": 1.0}], "max_height_ft_2024": 40, "towers": [], "source_document": "Candlestick Point Design for Development, 2024 amendment compilation (CP_D4D_2024_Amendment.pdf), Appendix B", "georef_rms_m": 0.37, "confidence": "high"}, "geometry": {"type": "Polygon", "coordinates": [[[-122.3874005, 37.716052], [-122.3869537, 37.7165508], [-122.3874005, 37.7168053], [-122.3874004, 37.7168055], [-122.3874016, 37.7168062], [-122.3878505, 37.7163055], [-122.3874005, 37.716052]]]}}, {"type": "Feature", "properties": {"block_id": "AG-11", "neighborhood": "Alice Griffith", "block": "11", "area_acres_table": 1.03, "area_acres_polygon": 1.029, "gross_area_acres_polygon": 1.029, "mid_block_easement_excluded": false, "dimension_labels_ft": [62.0, 248.6], "source_figure": "Figure 7.1 / Table 7.1", "pdf_page": 279, "land_use": "Residential Density II", "land_use_share": 0.99, "land_use_source": "DDA Exhibit A Development Plan (May 2025)", "height_zones_2024": [{"height_ft": 65, "share": 1.0}], "max_height_ft_2024": 65, "towers": [], "source_document": "Candlestick Point Design for Development, 2024 amendment compilation (CP_D4D_2024_Amendment.pdf), Appendix B", "georef_rms_m": 0.37, "confidence": "high"}, "geometry": {"type": "Polygon", "coordinates": [[[-122.3864014, 37.7200102], [-122.3867632, 37.7196071], [-122.3860623, 37.7192102], [-122.3857017, 37.7196133], [-122.3864014, 37.7200102]]]}}, {"type": "Feature", "properties": {"block_id": "AG-12", "neighborhood": "Alice Griffith", "block": "12", "area_acres_table": 1.14, "area_acres_polygon": 1.139, "gross_area_acres_polygon": 1.139, "mid_block_easement_excluded": false, "dimension_labels_ft": [275.0], "source_figure": "Figure 7.1 / Table 7.1", "pdf_page": 279, "land_use": "Residential Density II", "land_use_share": 0.99, "land_use_source": "DDA Exhibit A Development Plan (May 2025)", "height_zones_2024": [{"height_ft": 65, "share": 1.0}], "max_height_ft_2024": 65, "towers": [], "source_document": "Candlestick Point Design for Development, 2024 amendment compilation (CP_D4D_2024_Amendment.pdf), Appendix B", "georef_rms_m": 0.37, "confidence": "high"}, "geometry": {"type": "Polygon", "coordinates": [[[-122.3869378, 37.7197058], [-122.3865772, 37.7201089], [-122.3873521, 37.7205476], [-122.3877138, 37.7201444], [-122.3869378, 37.7197058]]]}}, {"type": "Feature", "properties": {"block_id": "AG-13", "neighborhood": "Alice Griffith", "block": "13", "area_acres_table": 1.13, "area_acres_polygon": 1.137, "gross_area_acres_polygon": 1.137, "mid_block_easement_excluded": false, "dimension_labels_ft": [], "source_figure": "Figure 7.1 / Table 7.1", "pdf_page": 279, "land_use": "Residential Density II", "land_use_share": 0.99, "land_use_source": "DDA Exhibit A Development Plan (May 2025)", "height_zones_2024": [{"height_ft": 65, "share": 1.0}], "max_height_ft_2024": 65, "towers": [], "source_document": "Candlestick Point Design for Development, 2024 amendment compilation (CP_D4D_2024_Amendment.pdf), Appendix B", "georef_rms_m": 0.37, "confidence": "high"}, "geometry": {"type": "Polygon", "coordinates": [[[-122.387611, 37.7189553], [-122.3872515, 37.7193566], [-122.3880298, 37.7197962], [-122.3883893, 37.7193958], [-122.387611, 37.7189553]]]}}, {"type": "Feature", "properties": {"block_id": "AG-14", "neighborhood": "Alice Griffith", "block": "14", "area_acres_table": 0.79, "area_acres_polygon": 0.802, "gross_area_acres_polygon": 0.802, "mid_block_easement_excluded": false, "dimension_labels_ft": [319.0], "source_figure": "Figure 7.1 / Table 7.1", "pdf_page": 279, "land_use": "Residential Density I", "land_use_share": 0.99, "land_use_source": "DDA Exhibit A Development Plan (May 2025)", "height_zones_2024": [{"height_ft": 40, "share": 1.0}], "max_height_ft_2024": 40, "towers": [], "source_document": "Candlestick Point Design for Development, 2024 amendment compilation (CP_D4D_2024_Amendment.pdf), Appendix B", "georef_rms_m": 0.37, "confidence": "high"}, "geometry": {"type": "Polygon", "coordinates": [[[-122.3887929, 37.7190731], [-122.3879416, 37.7185912], [-122.3878937, 37.7185644], [-122.3876738, 37.7188087], [-122.3885736, 37.719318], [-122.3887929, 37.7190731]]]}}, {"type": "Feature", "properties": {"block_id": "AG-15", "neighborhood": "Alice Griffith", "block": "15", "area_acres_table": 0.75, "area_acres_polygon": 0.749, "gross_area_acres_polygon": 0.749, "mid_block_easement_excluded": false, "dimension_labels_ft": [298.0], "source_figure": "Figure 7.1 / Table 7.1", "pdf_page": 279, "land_use": "Residential Density I", "land_use_share": 0.99, "land_use_source": "DDA Exhibit A Development Plan (May 2025)", "height_zones_2024": [{"height_ft": 40, "share": 1.0}], "max_height_ft_2024": 40, "towers": [], "source_document": "Candlestick Point Design for Development, 2024 amendment compilation (CP_D4D_2024_Amendment.pdf), Appendix B", "georef_rms_m": 0.37, "confidence": "high"}, "geometry": {"type": "Polygon", "coordinates": [[[-122.3896329, 37.7195487], [-122.3887929, 37.7190731], [-122.3885736, 37.719318], [-122.3894134, 37.7197934], [-122.3896329, 37.7195487]]]}}, {"type": "Feature", "properties": {"block_id": "AG-16", "neighborhood": "Alice Griffith", "block": "16", "area_acres_table": 1.11, "area_acres_polygon": 1.116, "gross_area_acres_polygon": 1.116, "mid_block_easement_excluded": false, "dimension_labels_ft": [], "source_figure": "Figure 7.1 / Table 7.1", "pdf_page": 279, "land_use": "Community Use", "land_use_share": 0.99, "land_use_source": "DDA Exhibit A Development Plan (May 2025)", "height_zones_2024": [{"height_ft": 65, "share": 0.63}, {"height_ft": 40, "share": 0.37}], "max_height_ft_2024": 65, "towers": [], "source_document": "Candlestick Point Design for Development, 2024 amendment compilation (CP_D4D_2024_Amendment.pdf), Appendix B", "georef_rms_m": 0.37, "confidence": "high"}, "geometry": {"type": "Polygon", "coordinates": [[[-122.3889464, 37.7203148], [-122.3893059, 37.7199144], [-122.3885417, 37.7194821], [-122.3881822, 37.7198824], [-122.3889464, 37.7203148]]]}}, {"type": "Feature", "properties": {"block_id": "AG-17", "neighborhood": "Alice Griffith", "block": "17", "area_acres_table": 1.12, "area_acres_polygon": 1.118, "gross_area_acres_polygon": 1.118, "mid_block_easement_excluded": false, "dimension_labels_ft": [270.0], "source_figure": "Figure 7.1 / Table 7.1", "pdf_page": 279, "land_use": "Residential Density II", "land_use_share": 0.88, "land_use_source": "DDA Exhibit A Development Plan (May 2025)", "height_zones_2024": [{"height_ft": 65, "share": 0.63}, {"height_ft": 40, "share": 0.37}], "max_height_ft_2024": 65, "towers": [], "source_document": "Candlestick Point Design for Development, 2024 amendment compilation (CP_D4D_2024_Amendment.pdf), Appendix B", "georef_rms_m": 0.37, "confidence": "high"}, "geometry": {"type": "Polygon", "coordinates": [[[-122.388271, 37.7210672], [-122.3886328, 37.720664], [-122.3878709, 37.7202334], [-122.3875102, 37.7206365], [-122.388271, 37.7210672]]]}}, {"type": "Feature", "properties": {"block_id": "AG-18", "neighborhood": "Alice Griffith", "block": "18", "area_acres_table": 1.31, "area_acres_polygon": 1.306, "gross_area_acres_polygon": 1.406, "mid_block_easement_excluded": true, "dimension_labels_ft": [278.1, 64.0], "source_figure": "Figure 7.1 / Table 7.1", "pdf_page": 279, "land_use": "Residential Density II", "land_use_share": 0.99, "land_use_source": "DDA Exhibit A Development Plan (May 2025)", "height_zones_2024": [{"height_ft": 65, "share": 0.65}, {"height_ft": 40, "share": 0.35}], "max_height_ft_2024": 65, "towers": [], "source_document": "Candlestick Point Design for Development, 2024 amendment compilation (CP_D4D_2024_Amendment.pdf), Appendix B", "georef_rms_m": 0.37, "confidence": "high"}, "geometry": {"type": "Polygon", "coordinates": [[[-122.3877468, 37.7216519], [-122.388159, 37.7211928], [-122.3873792, 37.7207519], [-122.3869656, 37.7212103], [-122.3877468, 37.7216519]]]}}, {"type": "Feature", "properties": {"block_id": "AG-19", "neighborhood": "Alice Griffith", "block": "19", "area_acres_table": 1.35, "area_acres_polygon": 1.349, "gross_area_acres_polygon": 1.349, "mid_block_easement_excluded": false, "dimension_labels_ft": [40.0, 283.0], "source_figure": "Figure 7.1 / Table 7.1", "pdf_page": 279, "land_use": "Residential Density II", "land_use_share": 0.89, "land_use_source": "DDA Exhibit A Development Plan (May 2025)", "height_zones_2024": [{"height_ft": 65, "share": 1.0}], "max_height_ft_2024": 65, "towers": [], "source_document": "Candlestick Point Design for Development, 2024 amendment compilation (CP_D4D_2024_Amendment.pdf), Appendix B", "georef_rms_m": 0.37, "confidence": "high"}, "geometry": {"type": "Polygon", "coordinates": [[[-122.3860518, 37.7206937], [-122.3868501, 37.721145], [-122.3868967, 37.721093], [-122.3872622, 37.7206857], [-122.3872661, 37.7206813], [-122.3864686, 37.72023], [-122.3860518, 37.7206937]]]}}, {"type": "Feature", "properties": {"block_id": "AG-2", "neighborhood": "Alice Griffith", "block": "2", "area_acres_table": 1.23, "area_acres_polygon": 1.235, "gross_area_acres_polygon": 1.235, "mid_block_easement_excluded": false, "dimension_labels_ft": [54.0, 298.5], "source_figure": "Figure 7.1 / Table 7.1", "pdf_page": 279, "land_use": "Residential Density II", "land_use_share": 0.99, "land_use_source": "DDA Exhibit A Development Plan (May 2025)", "height_zones_2024": [{"height_ft": 65, "share": 1.0}], "max_height_ft_2024": 65, "towers": [], "source_document": "Candlestick Point Design for Development, 2024 amendment compilation (CP_D4D_2024_Amendment.pdf), Appendix B", "georef_rms_m": 0.37, "confidence": "high"}, "geometry": {"type": "Polygon", "coordinates": [[[-122.3859099, 37.7191239], [-122.3850683, 37.7186479], [-122.3847077, 37.719051], [-122.3855493, 37.719527], [-122.3859099, 37.7191239]]]}}, {"type": "Feature", "properties": {"block_id": "CN-1a", "neighborhood": "Candlestick North", "block": "1a", "area_acres_table": 1.45, "area_acres_polygon": 1.451, "gross_area_acres_polygon": 1.581, "mid_block_easement_excluded": true, "dimension_labels_ft": [], "source_figure": "Figure 7.2 / Table 7.2", "pdf_page": 281, "land_use": "Residential Density II", "land_use_share": 1.0, "land_use_source": "Addendum 7 Fig 3 (2024)", "height_zones_2024": [{"height_ft": 65, "share": 0.59}, {"height_ft": 80, "share": 0.41}], "max_height_ft_2024": 80, "towers": [], "source_document": "Candlestick Point Design for Development, 2024 amendment compilation (CP_D4D_2024_Amendment.pdf), Appendix B", "georef_rms_m": 0.54, "confidence": "high"}, "geometry": {"type": "Polygon", "coordinates": [[[-122.3862639, 37.7161619], [-122.386716, 37.7164177], [-122.3871644, 37.7159173], [-122.3863697, 37.7154669], [-122.3859205, 37.7159675], [-122.3862639, 37.7161619]]]}}, {"type": "Feature", "properties": {"block_id": "CN-1b", "neighborhood": "Candlestick North", "block": "1b", "area_acres_table": 1.45, "area_acres_polygon": 1.451, "gross_area_acres_polygon": 1.58, "mid_block_easement_excluded": true, "dimension_labels_ft": [282.1, 84.0], "source_figure": "Figure 7.2 / Table 7.2", "pdf_page": 281, "land_use": "Residential Density II", "land_use_share": 1.0, "land_use_source": "Addendum 7 Fig 3 (2024)", "height_zones_2024": [{"height_ft": 65, "share": 1.0}], "max_height_ft_2024": 65, "towers": [], "source_document": "Candlestick Point Design for Development, 2024 amendment compilation (CP_D4D_2024_Amendment.pdf), Appendix B", "georef_rms_m": 0.54, "confidence": "high"}, "geometry": {"type": "Polygon", "coordinates": [[[-122.3853915, 37.7165572], [-122.3861874, 37.7170076], [-122.3866357, 37.7165073], [-122.3865511, 37.7164594], [-122.3858402, 37.7160571], [-122.3853915, 37.7165572]]]}}, {"type": "Feature", "properties": {"block_id": "CN-2a", "neighborhood": "Candlestick North", "block": "2a", "area_acres_table": 1.31, "area_acres_polygon": 1.316, "gross_area_acres_polygon": 1.434, "mid_block_easement_excluded": true, "dimension_labels_ft": [], "source_figure": "Figure 7.2 / Table 7.2", "pdf_page": 281, "land_use": "Residential Density II", "land_use_share": 1.0, "land_use_source": "Addendum 7 Fig 3 (2024)", "height_zones_2024": [{"height_ft": 65, "share": 0.59}, {"height_ft": 80, "share": 0.41}], "max_height_ft_2024": 80, "towers": [], "source_document": "Candlestick Point Design for Development, 2024 amendment compilation (CP_D4D_2024_Amendment.pdf), Appendix B", "georef_rms_m": 0.54, "confidence": "high"}, "geometry": {"type": "Polygon", "coordinates": [[[-122.385484, 37.7149662], [-122.3850592, 37.7154398], [-122.3850354, 37.7154665], [-122.3857569, 37.715875], [-122.3862056, 37.7153743], [-122.385484, 37.7149662]]]}}, {"type": "Feature", "properties": {"block_id": "CN-2b", "neighborhood": "Candlestick North", "block": "2b", "area_acres_table": 1.31, "area_acres_polygon": 1.316, "gross_area_acres_polygon": 1.434, "mid_block_easement_excluded": true, "dimension_labels_ft": [256.0, 58.0], "source_figure": "Figure 7.2 / Table 7.2", "pdf_page": 281, "land_use": "Residential Density II", "land_use_share": 1.0, "land_use_source": "Addendum 7 Fig 3 (2024)", "height_zones_2024": [{"height_ft": 65, "share": 1.0}], "max_height_ft_2024": 65, "towers": [], "source_document": "Candlestick Point Design for Development, 2024 amendment compilation (CP_D4D_2024_Amendment.pdf), Appendix B", "georef_rms_m": 0.54, "confidence": "high"}, "geometry": {"type": "Polygon", "coordinates": [[[-122.3849551, 37.715556], [-122.384931, 37.7155829], [-122.3845061, 37.7160566], [-122.3852286, 37.7164646], [-122.3856766, 37.7159646], [-122.3854777, 37.715852], [-122.3849551, 37.715556]]]}}, {"type": "Feature", "properties": {"block_id": "CN-3b", "neighborhood": "Candlestick North", "block": "3b", "area_acres_table": 1.5, "area_acres_polygon": 1.508, "gross_area_acres_polygon": 1.638, "mid_block_easement_excluded": true, "dimension_labels_ft": [282.0, 58.0], "source_figure": "Figure 7.2 / Table 7.2", "pdf_page": 281, "land_use": "Residential Density II", "land_use_share": 0.98, "land_use_source": "Addendum 7 Fig 3 (2024)", "height_zones_2024": [{"height_ft": 65, "share": 1.0}], "max_height_ft_2024": 65, "towers": [], "source_document": "Candlestick Point Design for Development, 2024 amendment compilation (CP_D4D_2024_Amendment.pdf), Appendix B", "georef_rms_m": 0.54, "confidence": "high"}, "geometry": {"type": "Polygon", "coordinates": [[[-122.3842598, 37.7178188], [-122.3850557, 37.7182693], [-122.3855217, 37.7177492], [-122.3847265, 37.7172991], [-122.3842598, 37.7178188]]]}}, {"type": "Feature", "properties": {"block_id": "CN-3a", "neighborhood": "Candlestick North", "block": "3a", "area_acres_table": 1.4, "area_acres_polygon": 1.403, "gross_area_acres_polygon": 1.532, "mid_block_easement_excluded": true, "dimension_labels_ft": [], "source_figure": "Figure 7.2 / Table 7.2", "pdf_page": 281, "land_use": "Residential Density II", "land_use_share": 1.0, "land_use_source": "Addendum 7 Fig 3 (2024)", "height_zones_2024": [{"height_ft": 65, "share": 1.0}], "max_height_ft_2024": 65, "towers": [], "source_document": "Candlestick Point Design for Development, 2024 amendment compilation (CP_D4D_2024_Amendment.pdf), Appendix B", "georef_rms_m": 0.54, "confidence": "high"}, "geometry": {"type": "Polygon", "coordinates": [[[-122.3848069, 37.7172096], [-122.3856021, 37.7176596], [-122.3860361, 37.7171753], [-122.3852414, 37.7167257], [-122.3848069, 37.7172096]]]}}, {"type": "Feature", "properties": {"block_id": "CN-12", "neighborhood": "Candlestick North", "block": "12", "area_acres_table": 3.12, "area_acres_polygon": 3.125, "gross_area_acres_polygon": 3.125, "mid_block_easement_excluded": false, "dimension_labels_ft": [278.0, 74.0], "source_figure": "Figure 7.2 / Table 7.2", "pdf_page": 281, "land_use": "Parks and Open Space", "land_use_share": 1.0, "land_use_source": "Addendum 7 Fig 3 (2024)", "height_zones_2024": [{"height_ft": 65, "share": 1.0}], "max_height_ft_2024": 65, "height_rule_2024": "40 ft if park, 65 ft if development parcel", "towers": [], "source_document": "Candlestick Point Design for Development, 2024 amendment compilation (CP_D4D_2024_Amendment.pdf), Appendix B", "georef_rms_m": 0.54, "confidence": "high"}, "geometry": {"type": "Polygon", "coordinates": [[[-122.3842932, 37.716189], [-122.3833127, 37.717283], [-122.3840968, 37.7177263], [-122.3850773, 37.7166332], [-122.3842932, 37.716189]]]}}, {"type": "Feature", "properties": {"block_id": "CN-11a", "neighborhood": "Candlestick North", "block": "11a", "area_acres_table": 1.46, "area_acres_polygon": 1.467, "gross_area_acres_polygon": 1.598, "mid_block_easement_excluded": true, "dimension_labels_ft": [], "source_figure": "Figure 7.2 / Table 7.2", "pdf_page": 281, "land_use": "Residential Density IV", "land_use_share": 1.0, "land_use_source": "Addendum 7 Fig 3 (2024)", "height_zones_2024": [{"height_ft": 65, "share": 0.38}, {"height_ft": 85, "share": 0.34}, {"height_ft": 80, "share": 0.27}], "max_height_ft_2024": 85, "towers": ["F"], "source_document": "Candlestick Point Design for Development, 2024 amendment compilation (CP_D4D_2024_Amendment.pdf), Appendix B", "georef_rms_m": 0.54, "confidence": "high"}, "geometry": {"type": "Polygon", "coordinates": [[[-122.384328, 37.7143124], [-122.383524, 37.7138566], [-122.383075, 37.714357], [-122.3838783, 37.7148116], [-122.3838796, 37.7148123], [-122.384328, 37.7143124]]]}}, {"type": "Feature", "properties": {"block_id": "CN-11b", "neighborhood": "Candlestick North", "block": "11b", "area_acres_table": 1.46, "area_acres_polygon": 1.467, "gross_area_acres_polygon": 1.598, "mid_block_easement_excluded": true, "dimension_labels_ft": [58.0, 285.2], "source_figure": "Figure 7.2 / Table 7.2", "pdf_page": 281, "land_use": "Residential Density III", "land_use_share": 1.0, "land_use_source": "Addendum 7 Fig 3 (2024)", "height_zones_2024": [{"height_ft": 65, "share": 0.66}, {"height_ft": 85, "share": 0.34}], "max_height_ft_2024": 85, "towers": [], "source_document": "Candlestick Point Design for Development, 2024 amendment compilation (CP_D4D_2024_Amendment.pdf), Appendix B", "georef_rms_m": 0.54, "confidence": "high"}, "geometry": {"type": "Polygon", "coordinates": [[[-122.3837992, 37.714902], [-122.3829946, 37.7144466], [-122.3825457, 37.714947], [-122.3833509, 37.7154018], [-122.3837992, 37.714902]]]}}, {"type": "Feature", "properties": {"block_id": "CN-10a", "neighborhood": "Candlestick North", "block": "10a", "area_acres_table": 1.31, "area_acres_polygon": 1.315, "gross_area_acres_polygon": 1.433, "mid_block_easement_excluded": true, "dimension_labels_ft": [], "source_figure": "Figure 7.2 / Table 7.2", "pdf_page": 281, "land_use": "Residential Density II", "land_use_share": 1.0, "land_use_source": "Addendum 7 Fig 3 (2024)", "height_zones_2024": [{"height_ft": 65, "share": 0.59}, {"height_ft": 80, "share": 0.41}], "max_height_ft_2024": 80, "towers": [], "source_document": "Candlestick Point Design for Development, 2024 amendment compilation (CP_D4D_2024_Amendment.pdf), Appendix B", "georef_rms_m": 0.54, "confidence": "high"}, "geometry": {"type": "Polygon", "coordinates": [[[-122.3847644, 37.7153131], [-122.3852129, 37.7148126], [-122.3844921, 37.714405], [-122.3840431, 37.7149049], [-122.3847644, 37.7153131]]]}}, {"type": "Feature", "properties": {"block_id": "CN-10b", "neighborhood": "Candlestick North", "block": "10b", "area_acres_table": 1.31, "area_acres_polygon": 1.316, "gross_area_acres_polygon": 1.433, "mid_block_easement_excluded": true, "dimension_labels_ft": [96.0, 256.0], "source_figure": "Figure 7.2 / Table 7.2", "pdf_page": 281, "land_use": "Residential Density III", "land_use_share": 1.0, "land_use_source": "Addendum 7 Fig 3 (2024)", "height_zones_2024": [{"height_ft": 65, "share": 1.0}], "max_height_ft_2024": 65, "towers": ["E"], "source_document": "Candlestick Point Design for Development, 2024 amendment compilation (CP_D4D_2024_Amendment.pdf), Appendix B", "georef_rms_m": 0.54, "confidence": "high"}, "geometry": {"type": "Polygon", "coordinates": [[[-122.3843442, 37.7152103], [-122.3839628, 37.7149944], [-122.3835138, 37.7154944], [-122.3842358, 37.7159029], [-122.3846841, 37.7154027], [-122.3843442, 37.7152103]]]}}, {"type": "Feature", "properties": {"block_id": "CN-9a", "neighborhood": "Candlestick North", "block": "9a", "area_acres_table": 1.42, "area_acres_polygon": 1.42, "gross_area_acres_polygon": 1.55, "mid_block_easement_excluded": true, "dimension_labels_ft": [], "source_figure": "Figure 7.2 / Table 7.2", "pdf_page": 281, "land_use": "Residential Density IV", "land_use_share": 1.0, "land_use_source": "Addendum 7 Fig 3 (2024)", "height_zones_2024": [{"height_ft": 65, "share": 0.66}, {"height_ft": 85, "share": 0.34}], "max_height_ft_2024": 85, "towers": ["D"], "source_document": "Candlestick Point Design for Development, 2024 amendment compilation (CP_D4D_2024_Amendment.pdf), Appendix B", "georef_rms_m": 0.54, "confidence": "high"}, "geometry": {"type": "Polygon", "coordinates": [[[-122.3831996, 37.7155703], [-122.3823955, 37.7151145], [-122.3819614, 37.7155989], [-122.3827542, 37.7160479], [-122.3827656, 37.7160542], [-122.3831996, 37.7155703]]]}}, {"type": "Feature", "properties": {"block_id": "CN-9b", "neighborhood": "Candlestick North", "block": "9b", "area_acres_table": 1.52, "area_acres_polygon": 1.523, "gross_area_acres_polygon": 1.655, "mid_block_easement_excluded": true, "dimension_labels_ft": [285.2, 78.5], "source_figure": "Figure 7.2 / Table 7.2", "pdf_page": 281, "land_use": "Residential Density III", "land_use_share": 1.0, "land_use_source": "Addendum 7 Fig 3 (2024)", "height_zones_2024": [{"height_ft": 65, "share": 0.66}, {"height_ft": 85, "share": 0.34}], "max_height_ft_2024": 85, "towers": [], "source_document": "Candlestick Point Design for Development, 2024 amendment compilation (CP_D4D_2024_Amendment.pdf), Appendix B", "georef_rms_m": 0.54, "confidence": "high"}, "geometry": {"type": "Polygon", "coordinates": [[[-122.382111, 37.7158188], [-122.381881, 37.7156886], [-122.3814151, 37.7162086], [-122.3822191, 37.7166634], [-122.3826852, 37.7161438], [-122.382111, 37.7158188]]]}}, {"type": "Feature", "properties": {"block_id": "CN-8a", "neighborhood": "Candlestick North", "block": "8a", "area_acres_table": 1.27, "area_acres_polygon": 1.273, "gross_area_acres_polygon": 1.391, "mid_block_easement_excluded": true, "dimension_labels_ft": [], "source_figure": "Figure 7.2 / Table 7.2", "pdf_page": 281, "land_use": "Residential Density III", "land_use_share": 1.0, "land_use_source": "Addendum 7 Fig 3 (2024)", "height_zones_2024": [{"height_ft": 65, "share": 1.0}], "max_height_ft_2024": 65, "towers": [], "source_document": "Candlestick Point Design for Development, 2024 amendment compilation (CP_D4D_2024_Amendment.pdf), Appendix B", "georef_rms_m": 0.54, "confidence": "high"}, "geometry": {"type": "Polygon", "coordinates": [[[-122.3835242, 37.7164836], [-122.3836507, 37.7165552], [-122.3840846, 37.7160714], [-122.3833637, 37.7156629], [-122.3829291, 37.7161468], [-122.3829899, 37.7161812], [-122.3835242, 37.7164836]]]}}, {"type": "Feature", "properties": {"block_id": "CN-8b", "neighborhood": "Candlestick North", "block": "8b", "area_acres_table": 1.36, "area_acres_polygon": 1.368, "gross_area_acres_polygon": 1.485, "mid_block_easement_excluded": true, "dimension_labels_ft": [58.0, 256.0], "source_figure": "Figure 7.2 / Table 7.2", "pdf_page": 281, "land_use": "Residential Density III", "land_use_share": 1.0, "land_use_source": "Addendum 7 Fig 3 (2024)", "height_zones_2024": [{"height_ft": 65, "share": 1.0}], "max_height_ft_2024": 65, "towers": ["C"], "source_document": "Candlestick Point Design for Development, 2024 amendment compilation (CP_D4D_2024_Amendment.pdf), Appendix B", "georef_rms_m": 0.54, "confidence": "high"}, "geometry": {"type": "Polygon", "coordinates": [[[-122.3823821, 37.716756], [-122.383104, 37.7171646], [-122.3835704, 37.7166447], [-122.3832817, 37.7164814], [-122.3828488, 37.7162363], [-122.3823821, 37.716756]]]}}, {"type": "Feature", "properties": {"block_id": "CN-4a", "neighborhood": "Candlestick North", "block": "4a", "area_acres_table": 1.14, "area_acres_polygon": 1.145, "gross_area_acres_polygon": 1.232, "mid_block_easement_excluded": true, "dimension_labels_ft": [265.0], "source_figure": "Figure 7.2 / Table 7.2", "pdf_page": 281, "land_use": "Residential Density II", "land_use_share": 1.0, "land_use_source": "DDA Exhibit A Development Plan (May 2025)", "height_zones_2024": [{"height_ft": 65, "share": 1.0}], "max_height_ft_2024": 65, "towers": [], "source_document": "Candlestick Point Design for Development, 2024 amendment compilation (CP_D4D_2024_Amendment.pdf), Appendix B", "georef_rms_m": 0.54, "confidence": "high"}, "geometry": {"type": "Polygon", "coordinates": [[[-122.3836526, 37.7184535], [-122.3844003, 37.7188764], [-122.3846804, 37.7185636], [-122.3846949, 37.718545], [-122.3847051, 37.7185242], [-122.3847111, 37.718503], [-122.3847129, 37.7184818], [-122.3847105, 37.7184608], [-122.3847042, 37.7184404], [-122.3846938, 37.7184207], [-122.3846797, 37.7184022], [-122.3846617, 37.7183851], [-122.3846406, 37.7183717], [-122.3840342, 37.7180287], [-122.3836526, 37.7184535]]]}}, {"type": "Feature", "properties": {"block_id": "CN-4b", "neighborhood": "Candlestick North", "block": "4b", "area_acres_table": 1.16, "area_acres_polygon": 1.158, "gross_area_acres_polygon": 1.245, "mid_block_easement_excluded": true, "dimension_labels_ft": [40.0, 265.0, 96.0], "source_figure": "Figure 7.2 / Table 7.2", "pdf_page": 281, "land_use": "Residential Density III", "land_use_share": 0.98, "land_use_source": "Addendum 7 Fig 3 (2024)", "height_zones_2024": [{"height_ft": 65, "share": 1.0}], "max_height_ft_2024": 65, "towers": ["A"], "source_document": "Candlestick Point Design for Development, 2024 amendment compilation (CP_D4D_2024_Amendment.pdf), Appendix B", "georef_rms_m": 0.54, "confidence": "high"}, "geometry": {"type": "Polygon", "coordinates": [[[-122.3839213, 37.7179647], [-122.3831742, 37.7175421], [-122.3827926, 37.7179671], [-122.3835401, 37.7183899], [-122.383635, 37.7182841], [-122.3839213, 37.7179647]]]}}, {"type": "Feature", "properties": {"block_id": "CN-5a", "neighborhood": "Candlestick North", "block": "5a", "area_acres_table": 1.0, "area_acres_polygon": 1.001, "gross_area_acres_polygon": 1.076, "mid_block_easement_excluded": true, "dimension_labels_ft": [265.0], "source_figure": "Figure 7.2 / Table 7.2", "pdf_page": 281, "land_use": "Residential Density II", "land_use_share": 0.99, "land_use_source": "DDA Exhibit A Development Plan (May 2025)", "height_zones_2024": [{"height_ft": 65, "share": 1.0}], "max_height_ft_2024": 65, "towers": [], "source_document": "Candlestick Point Design for Development, 2024 amendment compilation (CP_D4D_2024_Amendment.pdf), Appendix B", "georef_rms_m": 0.54, "confidence": "high"}, "geometry": {"type": "Polygon", "coordinates": [[[-122.3835398, 37.7185795], [-122.3832105, 37.7189469], [-122.3839574, 37.7193697], [-122.3842871, 37.7190021], [-122.3835398, 37.7185795]]]}}, {"type": "Feature", "properties": {"block_id": "CN-5b", "neighborhood": "Candlestick North", "block": "5b", "area_acres_table": 1.0, "area_acres_polygon": 1.0, "gross_area_acres_polygon": 1.075, "mid_block_easement_excluded": true, "dimension_labels_ft": [40.0, 265.0], "source_figure": "Figure 7.2 / Table 7.2", "pdf_page": 281, "land_use": "Residential Density II", "land_use_share": 0.99, "land_use_source": "DDA Exhibit A Development Plan (May 2025)", "height_zones_2024": [{"height_ft": 65, "share": 1.0}], "max_height_ft_2024": 65, "towers": [], "source_document": "Candlestick Point Design for Development, 2024 amendment compilation (CP_D4D_2024_Amendment.pdf), Appendix B", "georef_rms_m": 0.54, "confidence": "high"}, "geometry": {"type": "Polygon", "coordinates": [[[-122.3826795, 37.718093], [-122.3823507, 37.7184601], [-122.3830977, 37.718883], [-122.3833942, 37.7185523], [-122.3834271, 37.7185157], [-122.3826795, 37.718093]]]}}, {"type": "Feature", "properties": {"block_id": "CN-7a", "neighborhood": "Candlestick North", "block": "7a", "area_acres_table": 1.16, "area_acres_polygon": 1.16, "gross_area_acres_polygon": 1.247, "mid_block_easement_excluded": true, "dimension_labels_ft": [265.0], "source_figure": "Figure 7.2 / Table 7.2", "pdf_page": 281, "land_use": "Residential Density II", "land_use_share": 1.0, "land_use_source": "Addendum 7 Fig 3 (2024)", "height_zones_2024": [{"height_ft": 65, "share": 1.0}], "max_height_ft_2024": 65, "towers": [], "source_document": "Candlestick Point Design for Development, 2024 amendment compilation (CP_D4D_2024_Amendment.pdf), Appendix B", "georef_rms_m": 0.54, "confidence": "high"}, "geometry": {"type": "Polygon", "coordinates": [[[-122.3817742, 37.7173912], [-122.3825214, 37.7178145], [-122.3829035, 37.717389], [-122.3821567, 37.7169659], [-122.3817742, 37.7173912]]]}}, {"type": "Feature", "properties": {"block_id": "CN-7b", "neighborhood": "Candlestick North", "block": "7b", "area_acres_table": 1.28, "area_acres_polygon": 1.287, "gross_area_acres_polygon": 1.375, "mid_block_easement_excluded": true, "dimension_labels_ft": [294.2, 40.0], "source_figure": "Figure 7.2 / Table 7.2", "pdf_page": 281, "land_use": "Residential Density IV", "land_use_share": 1.0, "land_use_source": "Addendum 7 Fig 3 (2024)", "height_zones_2024": [{"height_ft": 65, "share": 1.0}], "max_height_ft_2024": 65, "towers": ["B"], "source_document": "Candlestick Point Design for Development, 2024 amendment compilation (CP_D4D_2024_Amendment.pdf), Appendix B", "georef_rms_m": 0.54, "confidence": "high"}, "geometry": {"type": "Polygon", "coordinates": [[[-122.3820435, 37.7169017], [-122.3812145, 37.716432], [-122.3808323, 37.7168576], [-122.3816619, 37.7173276], [-122.3817657, 37.7172117], [-122.3820435, 37.7169017]]]}}, {"type": "Feature", "properties": {"block_id": "CN-6a", "neighborhood": "Candlestick North", "block": "6a", "area_acres_table": 1.0, "area_acres_polygon": 1.0, "gross_area_acres_polygon": 1.076, "mid_block_easement_excluded": true, "dimension_labels_ft": [265.0], "source_figure": "Figure 7.2 / Table 7.2", "pdf_page": 281, "land_use": "Residential Density I", "land_use_share": 0.97, "land_use_source": "Addendum 7 Fig 3 (2024)", "height_zones_2024": [{"height_ft": 65, "share": 1.0}], "max_height_ft_2024": 65, "towers": [], "source_document": "Candlestick Point Design for Development, 2024 amendment compilation (CP_D4D_2024_Amendment.pdf), Appendix B", "georef_rms_m": 0.54, "confidence": "high"}, "geometry": {"type": "Polygon", "coordinates": [[[-122.381512, 37.7176841], [-122.381333, 37.7178838], [-122.3820801, 37.7183069], [-122.3824093, 37.7179393], [-122.3816621, 37.7175166], [-122.381512, 37.7176841]]]}}, {"type": "Feature", "properties": {"block_id": "CN-6b", "neighborhood": "Candlestick North", "block": "6b", "area_acres_table": 0.96, "area_acres_polygon": 0.96, "gross_area_acres_polygon": 1.035, "mid_block_easement_excluded": true, "dimension_labels_ft": [40.0, 78.5, 294.2], "source_figure": "Figure 7.2 / Table 7.2", "pdf_page": 281, "land_use": "Residential Density I", "land_use_share": 1.0, "land_use_source": "Addendum 7 Fig 3 (2024)", "height_zones_2024": [{"height_ft": 65, "share": 1.0}], "max_height_ft_2024": 65, "towers": [], "source_document": "Candlestick Point Design for Development, 2024 amendment compilation (CP_D4D_2024_Amendment.pdf), Appendix B", "georef_rms_m": 0.54, "confidence": "high"}, "geometry": {"type": "Polygon", "coordinates": [[[-122.380569, 37.7171518], [-122.3808023, 37.7175834], [-122.3812202, 37.71782], [-122.3815493, 37.7174529], [-122.3807199, 37.7169837], [-122.380569, 37.7171518]]]}}, {"type": "Feature", "properties": {"block_id": "CC-1", "neighborhood": "Candlestick Center", "block": "1", "area_acres_table": 22.29, "area_acres_polygon": 22.347, "gross_area_acres_polygon": 22.347, "mid_block_easement_excluded": false, "dimension_labels_ft": [75.0, 1282.6, 1615.2, 1056.4, 75.0], "source_figure": "Figure 7.3 / Table 7.3", "pdf_page": 283, "land_use": "Innovation District (Commercial & Retail)", "land_use_share": 1.0, "land_use_source": "Addendum 7 Fig 3 (2024)", "height_zones_2024": [{"height_ft": 160, "share": 0.34}, {"height_ft": 180, "share": 0.32}, {"height_ft": 120, "share": 0.24}, {"height_ft": 85, "share": 0.1}], "max_height_ft_2024": 180, "towers": [], "source_document": "Candlestick Point Design for Development, 2024 amendment compilation (CP_D4D_2024_Amendment.pdf), Appendix B", "georef_rms_m": 0.56, "confidence": "high", "note": "Single Candlestick Center block of the D4D block plan; the 2024 D4D Appendix A5 Innovation District subdivides it into parcels A-N (see innovation_district.geojson)."}, "geometry": {"type": "Polygon", "coordinates": [[[-122.3846513, 37.7126136], [-122.3837237, 37.7136485], [-122.383715, 37.7136613], [-122.3837108, 37.7136751], [-122.3837112, 37.7136898], [-122.3837173, 37.7137034], [-122.3837269, 37.7137152], [-122.3837399, 37.7137251], [-122.3872442, 37.7157075], [-122.3872593, 37.7157136], [-122.3872696, 37.7157163], [-122.3872801, 37.7157175], [-122.3872906, 37.7157175], [-122.387301, 37.7157161], [-122.3873109, 37.7157134], [-122.3873203, 37.7157096], [-122.3873288, 37.7157046], [-122.3873363, 37.7156985], [-122.3873463, 37.7156873], [-122.3873851, 37.7156243], [-122.3874276, 37.7155418], [-122.3874639, 37.7154582], [-122.387494, 37.7153736], [-122.3875176, 37.7152881], [-122.3875348, 37.7152016], [-122.3875454, 37.7151141], [-122.3875492, 37.7150258], [-122.3875463, 37.7149366], [-122.3875397, 37.714867], [-122.3872816, 37.7128634], [-122.3872704, 37.7127911], [-122.3872584, 37.7127372], [-122.387244, 37.7126837], [-122.3872271, 37.7126306], [-122.3872077, 37.7125781], [-122.3871859, 37.7125262], [-122.3871616, 37.7124749], [-122.3871348, 37.7124245], [-122.3871055, 37.7123749], [-122.3870634, 37.7123097], [-122.3863966, 37.7113565], [-122.3863895, 37.7113475], [-122.3863777, 37.7113404], [-122.3863661, 37.711336], [-122.3863522, 37.7113353], [-122.3863384, 37.7113365], [-122.3863258, 37.7113403], [-122.3862563, 37.7113737], [-122.3861892, 37.7114097], [-122.3861233, 37.7114484], [-122.3860609, 37.7114889], [-122.3859998, 37.7115321], [-122.3850994, 37.7122052], [-122.3850011, 37.7122811], [-122.3849075, 37.7123607], [-122.3848174, 37.712442], [-122.384732, 37.7125269], [-122.3846513, 37.7126136]]]}}, {"type": "Feature", "properties": {"block_id": "CS-3", "neighborhood": "Candlestick South", "block": "3", "area_acres_table": 0.31, "area_acres_polygon": 0.306, "gross_area_acres_polygon": 0.308, "mid_block_easement_excluded": true, "dimension_labels_ft": [], "source_figure": "Figure 7.4 / Table 7.4", "pdf_page": 285, "land_use": "Residential Density I", "land_use_share": 1.0, "land_use_source": "Addendum 7 Fig 3 (2024)", "height_zones_2024": [{"height_ft": 40, "share": 1.0}], "max_height_ft_2024": 40, "towers": [], "source_document": "Candlestick Point Design for Development, 2024 amendment compilation (CP_D4D_2024_Amendment.pdf), Appendix B", "georef_rms_m": 0.57, "confidence": "high"}, "geometry": {"type": "Polygon", "coordinates": [[[-122.3804532, 37.7137493], [-122.3809014, 37.7132492], [-122.380732, 37.7131537], [-122.380727, 37.7131592], [-122.3807289, 37.7131603], [-122.3802852, 37.7136536], [-122.3804532, 37.7137493]]]}}, {"type": "Feature", "properties": {"block_id": "CS-2a", "neighborhood": "Candlestick South", "block": "2a", "area_acres_table": 0.77, "area_acres_polygon": 0.77, "gross_area_acres_polygon": 0.875, "mid_block_easement_excluded": true, "dimension_labels_ft": [], "source_figure": "Figure 7.4 / Table 7.4", "pdf_page": 285, "land_use": "Residential Density II", "land_use_share": 1.0, "land_use_source": "Addendum 7 Fig 3 (2024)", "height_zones_2024": [{"height_ft": 65, "share": 1.0}], "max_height_ft_2024": 65, "towers": [], "source_document": "Candlestick Point Design for Development, 2024 amendment compilation (CP_D4D_2024_Amendment.pdf), Appendix B", "georef_rms_m": 0.57, "confidence": "high"}, "geometry": {"type": "Polygon", "coordinates": [[[-122.3816588, 37.7144308], [-122.3822325, 37.7140029], [-122.3817451, 37.713727], [-122.3817413, 37.7137313], [-122.3817451, 37.713734], [-122.3817236, 37.7137542], [-122.3812984, 37.7142268], [-122.3816588, 37.7144308]]]}}, {"type": "Feature", "properties": {"block_id": "CS-2b", "neighborhood": "Candlestick South", "block": "2b", "area_acres_table": 1.03, "area_acres_polygon": 1.032, "gross_area_acres_polygon": 1.132, "mid_block_easement_excluded": true, "dimension_labels_ft": [], "source_figure": "Figure 7.4 / Table 7.4", "pdf_page": 285, "land_use": "Residential Density II", "land_use_share": 0.82, "land_use_source": "Addendum 7 Fig 3 (2024)", "height_zones_2024": [{"height_ft": 65, "share": 0.82}], "max_height_ft_2024": 65, "towers": [], "source_document": "Candlestick Point Design for Development, 2024 amendment compilation (CP_D4D_2024_Amendment.pdf), Appendix B", "georef_rms_m": 0.57, "confidence": "high"}, "geometry": {"type": "Polygon", "coordinates": [[[-122.3810673, 37.7133433], [-122.3806191, 37.7138424], [-122.3811845, 37.7141624], [-122.3811855, 37.714163], [-122.3816111, 37.7136902], [-122.381632, 37.71367], [-122.3816881, 37.7136953], [-122.3816885, 37.7136949], [-122.3816321, 37.713663], [-122.3810673, 37.7133433]]]}}, {"type": "Feature", "properties": {"block_id": "CS-1", "neighborhood": "Candlestick South", "block": "1", "area_acres_table": 1.7, "area_acres_polygon": 1.7, "gross_area_acres_polygon": 1.7, "mid_block_easement_excluded": false, "dimension_labels_ft": [40.0], "source_figure": "Figure 7.4 / Table 7.4", "pdf_page": 285, "land_use": "Residential Density III", "land_use_share": 1.0, "land_use_source": "Addendum 7 Fig 3 (2024)", "height_zones_2024": [{"height_ft": 65, "share": 1.0}], "max_height_ft_2024": 65, "towers": ["G"], "source_document": "Candlestick Point Design for Development, 2024 amendment compilation (CP_D4D_2024_Amendment.pdf), Appendix B", "georef_rms_m": 0.57, "confidence": "high"}, "geometry": {"type": "Polygon", "coordinates": [[[-122.3810444, 37.7148465], [-122.3810773, 37.7148652], [-122.3814559, 37.7145826], [-122.3815072, 37.7145443], [-122.380335, 37.7138812], [-122.3801655, 37.7137853], [-122.3799645, 37.7140095], [-122.3799691, 37.7140498], [-122.3799797, 37.7140946], [-122.3799953, 37.7141379], [-122.3800158, 37.7141797], [-122.380041, 37.7142197], [-122.3800706, 37.7142578], [-122.3801044, 37.7142938], [-122.3801423, 37.7143275], [-122.380184, 37.7143587], [-122.3802226, 37.714382], [-122.3810444, 37.7148465]]]}}, {"type": "Feature", "properties": {"block_id": "CS-4a", "neighborhood": "Candlestick South", "block": "4a", "area_acres_table": 1.05, "area_acres_polygon": 1.056, "gross_area_acres_polygon": 1.159, "mid_block_easement_excluded": true, "dimension_labels_ft": [], "source_figure": "Figure 7.4 / Table 7.4", "pdf_page": 285, "land_use": "Residential Density IV", "land_use_share": 1.0, "land_use_source": "Addendum 7 Fig 3 (2024)", "height_zones_2024": [{"height_ft": 65, "share": 1.0}], "max_height_ft_2024": 65, "towers": ["H"], "source_document": "Candlestick Point Design for Development, 2024 amendment compilation (CP_D4D_2024_Amendment.pdf), Appendix B", "georef_rms_m": 0.57, "confidence": "high"}, "geometry": {"type": "Polygon", "coordinates": [[[-122.3823716, 37.7138987], [-122.3829451, 37.7134707], [-122.3823022, 37.7131069], [-122.3818556, 37.7136037], [-122.3818552, 37.7136042], [-122.3818551, 37.7136041], [-122.3818541, 37.7136052], [-122.3818536, 37.7136057], [-122.3823716, 37.7138987]]]}}, {"type": "Feature", "properties": {"block_id": "CS-4b", "neighborhood": "Candlestick South", "block": "4b", "area_acres_table": 1.03, "area_acres_polygon": 1.026, "gross_area_acres_polygon": 1.131, "mid_block_easement_excluded": true, "dimension_labels_ft": [], "source_figure": "Figure 7.4 / Table 7.4", "pdf_page": 285, "land_use": "Residential Density II", "land_use_share": 0.82, "land_use_source": "Addendum 7 Fig 3 (2024)", "height_zones_2024": [{"height_ft": 65, "share": 0.82}], "max_height_ft_2024": 65, "towers": [], "source_document": "Candlestick Point Design for Development, 2024 amendment compilation (CP_D4D_2024_Amendment.pdf), Appendix B", "georef_rms_m": 0.57, "confidence": "high"}, "geometry": {"type": "Polygon", "coordinates": [[[-122.3816239, 37.712723], [-122.381176, 37.7132222], [-122.3817414, 37.7135422], [-122.3817972, 37.7135738], [-122.3817986, 37.7135722], [-122.3817422, 37.7135404], [-122.3817429, 37.7135396], [-122.3821856, 37.7130421], [-122.3821864, 37.7130413], [-122.3816239, 37.712723]]]}}, {"type": "Feature", "properties": {"block_id": "CS-5", "neighborhood": "Candlestick South", "block": "5", "area_acres_table": 0.31, "area_acres_polygon": 0.302, "gross_area_acres_polygon": 0.308, "mid_block_easement_excluded": true, "dimension_labels_ft": [], "source_figure": "Figure 7.4 / Table 7.4", "pdf_page": 285, "land_use": "Residential Density I", "land_use_share": 1.0, "land_use_source": "Addendum 7 Fig 3 (2024)", "height_zones_2024": [{"height_ft": 40, "share": 1.0}], "max_height_ft_2024": 40, "towers": [], "source_document": "Candlestick Point Design for Development, 2024 amendment compilation (CP_D4D_2024_Amendment.pdf), Appendix B", "georef_rms_m": 0.57, "confidence": "high"}, "geometry": {"type": "Polygon", "coordinates": [[[-122.38101, 37.7131281], [-122.3814576, 37.7126287], [-122.3812884, 37.712533], [-122.3812846, 37.7125372], [-122.381293, 37.7125419], [-122.3809065, 37.7129591], [-122.3808406, 37.7130326], [-122.38101, 37.7131281]]]}}, {"type": "Feature", "properties": {"block_id": "CS-6a", "neighborhood": "Candlestick South", "block": "6a", "area_acres_table": 1.15, "area_acres_polygon": 1.157, "gross_area_acres_polygon": 1.258, "mid_block_easement_excluded": true, "dimension_labels_ft": [224.5], "source_figure": "Figure 7.4 / Table 7.4", "pdf_page": 285, "land_use": "Residential Density II", "land_use_share": 1.0, "land_use_source": "Addendum 7 Fig 3 (2024)", "height_zones_2024": [{"height_ft": 65, "share": 0.73}, {"height_ft": 80, "share": 0.27}], "max_height_ft_2024": 80, "towers": [], "source_document": "Candlestick Point Design for Development, 2024 amendment compilation (CP_D4D_2024_Amendment.pdf), Appendix B", "georef_rms_m": 0.57, "confidence": "high"}, "geometry": {"type": "Polygon", "coordinates": [[[-122.3831364, 37.7133282], [-122.3837021, 37.712905], [-122.3831729, 37.7124574], [-122.3831253, 37.7124171], [-122.3831247, 37.7124176], [-122.3831714, 37.712457], [-122.3826104, 37.7128772], [-122.3825628, 37.7128371], [-122.3825588, 37.7128401], [-122.3826069, 37.7128808], [-122.3831364, 37.7133282]]]}}, {"type": "Feature", "properties": {"block_id": "CS-6b", "neighborhood": "Candlestick South", "block": "6b", "area_acres_table": 1.15, "area_acres_polygon": 1.153, "gross_area_acres_polygon": 1.26, "mid_block_easement_excluded": true, "dimension_labels_ft": [67.0, 54.0], "source_figure": "Figure 7.4 / Table 7.4", "pdf_page": 285, "land_use": "Residential Density II", "land_use_share": 1.0, "land_use_source": "Addendum 7 Fig 3 (2024)", "height_zones_2024": [{"height_ft": 65, "share": 1.0}], "max_height_ft_2024": 65, "towers": [], "source_document": "Candlestick Point Design for Development, 2024 amendment compilation (CP_D4D_2024_Amendment.pdf), Appendix B", "georef_rms_m": 0.57, "confidence": "high"}, "geometry": {"type": "Polygon", "coordinates": [[[-122.382548, 37.7119289], [-122.3819812, 37.712352], [-122.3825112, 37.7127999], [-122.3825588, 37.7128401], [-122.3825628, 37.7128371], [-122.382561, 37.7128355], [-122.3825139, 37.7127959], [-122.3825158, 37.7127945], [-122.383075, 37.7123755], [-122.3831242, 37.7124173], [-122.3831243, 37.7124173], [-122.3831247, 37.7124176], [-122.3831253, 37.7124171], [-122.3830783, 37.7123774], [-122.382548, 37.7119289]]]}}, {"type": "Feature", "properties": {"block_id": "CS-7a", "neighborhood": "Candlestick South", "block": "7a", "area_acres_table": 1.08, "area_acres_polygon": 1.075, "gross_area_acres_polygon": 1.189, "mid_block_easement_excluded": true, "dimension_labels_ft": [40.0, 231.5], "source_figure": "Figure 7.4 / Table 7.4", "pdf_page": 285, "land_use": "Residential Density IV", "land_use_share": 1.0, "land_use_source": "Addendum 7 Fig 3 (2024)", "height_zones_2024": [{"height_ft": 65, "share": 1.0}], "max_height_ft_2024": 65, "towers": ["K"], "source_document": "Candlestick Point Design for Development, 2024 amendment compilation (CP_D4D_2024_Amendment.pdf), Appendix B", "georef_rms_m": 0.57, "confidence": "high"}, "geometry": {"type": "Polygon", "coordinates": [[[-122.3814814, 37.7116252], [-122.3814863, 37.7116792], [-122.3814961, 37.7117401], [-122.3815117, 37.7118001], [-122.3815329, 37.7118591], [-122.3815597, 37.7119166], [-122.3815917, 37.7119724], [-122.3816288, 37.7120262], [-122.3816709, 37.7120776], [-122.3817177, 37.7121264], [-122.3817629, 37.7121669], [-122.3818229, 37.7122172], [-122.3824007, 37.7117856], [-122.3818737, 37.7113416], [-122.3819233, 37.7113039], [-122.3819304, 37.7112986], [-122.3819248, 37.7112939], [-122.3818742, 37.7113318], [-122.3814814, 37.7116252]]]}}, {"type": "Feature", "properties": {"block_id": "CS-7b", "neighborhood": "Candlestick South", "block": "7b", "area_acres_table": 1.25, "area_acres_polygon": 1.268, "gross_area_acres_polygon": 1.359, "mid_block_easement_excluded": true, "dimension_labels_ft": [243.1], "source_figure": "Figure 7.4 / Table 7.4", "pdf_page": 285, "land_use": "Residential Density II", "land_use_share": 0.99, "land_use_source": "Addendum 7 Fig 3 (2024)", "height_zones_2024": [{"height_ft": 65, "share": 0.99}], "max_height_ft_2024": 65, "towers": [], "source_document": "Candlestick Point Design for Development, 2024 amendment compilation (CP_D4D_2024_Amendment.pdf), Appendix B", "georef_rms_m": 0.57, "confidence": "high"}, "geometry": {"type": "Polygon", "coordinates": [[[-122.3825008, 37.7117108], [-122.3825074, 37.7117059], [-122.3831205, 37.7112479], [-122.3825879, 37.7107985], [-122.3819748, 37.7112566], [-122.3819248, 37.7112939], [-122.3819304, 37.7112986], [-122.3819759, 37.7112648], [-122.3819777, 37.7112662], [-122.3825008, 37.7117108]]]}}, {"type": "Feature", "properties": {"block_id": "CS-8a", "neighborhood": "Candlestick South", "block": "8a", "area_acres_table": 1.21, "area_acres_polygon": 1.213, "gross_area_acres_polygon": 1.324, "mid_block_easement_excluded": true, "dimension_labels_ft": [236.0, 223.4], "source_figure": "Figure 7.4 / Table 7.4", "pdf_page": 285, "land_use": "Residential Density II", "land_use_share": 1.0, "land_use_source": "Addendum 7 Fig 3 (2024)", "height_zones_2024": [{"height_ft": 65, "share": 0.73}, {"height_ft": 80, "share": 0.27}], "max_height_ft_2024": 80, "towers": [], "source_document": "Candlestick Point Design for Development, 2024 amendment compilation (CP_D4D_2024_Amendment.pdf), Appendix B", "georef_rms_m": 0.57, "confidence": "high"}, "geometry": {"type": "Polygon", "coordinates": [[[-122.383839, 37.7128036], [-122.3844341, 37.7123588], [-122.3839043, 37.7119112], [-122.3835913, 37.7121449], [-122.3833109, 37.7123575], [-122.383839, 37.7128036]]]}}, {"type": "Feature", "properties": {"block_id": "CS-8b", "neighborhood": "Candlestick South", "block": "8b", "area_acres_table": 1.21, "area_acres_polygon": 1.214, "gross_area_acres_polygon": 1.323, "mid_block_easement_excluded": true, "dimension_labels_ft": [59.0], "source_figure": "Figure 7.4 / Table 7.4", "pdf_page": 285, "land_use": "Residential Density IV", "land_use_share": 1.0, "land_use_source": "Addendum 7 Fig 3 (2024)", "height_zones_2024": [{"height_ft": 65, "share": 1.0}], "max_height_ft_2024": 65, "towers": ["I"], "source_document": "Candlestick Point Design for Development, 2024 amendment compilation (CP_D4D_2024_Amendment.pdf), Appendix B", "georef_rms_m": 0.57, "confidence": "high"}, "geometry": {"type": "Polygon", "coordinates": [[[-122.3832788, 37.7113828], [-122.3826838, 37.7118276], [-122.383214, 37.7122755], [-122.383424, 37.7121188], [-122.3838015, 37.7118349], [-122.3838029, 37.711836], [-122.3838094, 37.7118311], [-122.3832788, 37.7113828]]]}}, {"type": "Feature", "properties": {"block_id": "CS-9a", "neighborhood": "Candlestick South", "block": "9a", "area_acres_table": 1.25, "area_acres_polygon": 1.249, "gross_area_acres_polygon": 1.362, "mid_block_easement_excluded": true, "dimension_labels_ft": [245.0, 221.4], "source_figure": "Figure 7.4 / Table 7.4", "pdf_page": 285, "land_use": "Residential Density II", "land_use_share": 1.0, "land_use_source": "Addendum 7 Fig 3 (2024)", "height_zones_2024": [{"height_ft": 65, "share": 0.74}, {"height_ft": 80, "share": 0.26}], "max_height_ft_2024": 80, "towers": [], "source_document": "Candlestick Point Design for Development, 2024 amendment compilation (CP_D4D_2024_Amendment.pdf), Appendix B", "georef_rms_m": 0.57, "confidence": "high"}, "geometry": {"type": "Polygon", "coordinates": [[[-122.3845787, 37.7122436], [-122.3851964, 37.7117819], [-122.3846713, 37.7113384], [-122.3840534, 37.7117996], [-122.3845787, 37.7122436]]]}}, {"type": "Feature", "properties": {"block_id": "CS-9b", "neighborhood": "Candlestick South", "block": "9b", "area_acres_table": 1.26, "area_acres_polygon": 1.259, "gross_area_acres_polygon": 1.373, "mid_block_easement_excluded": true, "dimension_labels_ft": [54.0], "source_figure": "Figure 7.4 / Table 7.4", "pdf_page": 285, "land_use": "Residential Density IV", "land_use_share": 1.0, "land_use_source": "Addendum 7 Fig 3 (2024)", "height_zones_2024": [{"height_ft": 65, "share": 1.0}], "max_height_ft_2024": 65, "towers": ["J"], "source_document": "Candlestick Point Design for Development, 2024 amendment compilation (CP_D4D_2024_Amendment.pdf), Appendix B", "georef_rms_m": 0.57, "confidence": "high"}, "geometry": {"type": "Polygon", "coordinates": [[[-122.3840459, 37.7108103], [-122.3834282, 37.7112711], [-122.3839576, 37.7117186], [-122.3839586, 37.7117178], [-122.3845758, 37.7112578], [-122.3840459, 37.7108103]]]}}, {"type": "Feature", "properties": {"block_id": "CS-10a", "neighborhood": "Candlestick South", "block": "10a", "area_acres_table": 1.3, "area_acres_polygon": 1.286, "gross_area_acres_polygon": 1.404, "mid_block_easement_excluded": true, "dimension_labels_ft": [251.9, 40.0], "source_figure": "Figure 7.4 / Table 7.4", "pdf_page": 285, "land_use": "Residential Density II", "land_use_share": 1.0, "land_use_source": "Addendum 7 Fig 3 (2024)", "height_zones_2024": [{"height_ft": 65, "share": 1.0}], "max_height_ft_2024": 65, "towers": [], "source_document": "Candlestick Point Design for Development, 2024 amendment compilation (CP_D4D_2024_Amendment.pdf), Appendix B", "georef_rms_m": 0.57, "confidence": "high"}, "geometry": {"type": "Polygon", "coordinates": [[[-122.3832687, 37.7111372], [-122.383896, 37.7106689], [-122.3833718, 37.7102233], [-122.3833717, 37.7102232], [-122.3834216, 37.7101858], [-122.3834288, 37.7101804], [-122.383423, 37.7101756], [-122.383373, 37.7102129], [-122.3827372, 37.7106878], [-122.3832687, 37.7111372]]]}}, {"type": "Feature", "properties": {"block_id": "CS-10b", "neighborhood": "Candlestick South", "block": "10b", "area_acres_table": 0.94, "area_acres_polygon": 0.955, "gross_area_acres_polygon": 1.042, "mid_block_easement_excluded": true, "dimension_labels_ft": [233.2], "source_figure": "Figure 7.4 / Table 7.4", "pdf_page": 285, "land_use": "Residential Density I", "land_use_share": 0.98, "land_use_source": "Addendum 7 Fig 3 (2024)", "height_zones_2024": [{"height_ft": 65, "share": 0.98}], "max_height_ft_2024": 65, "towers": [], "source_document": "Candlestick Point Design for Development, 2024 amendment compilation (CP_D4D_2024_Amendment.pdf), Appendix B", "georef_rms_m": 0.57, "confidence": "high"}, "geometry": {"type": "Polygon", "coordinates": [[[-122.3838772, 37.7099522], [-122.3837361, 37.7099417], [-122.3834736, 37.7101378], [-122.383423, 37.7101756], [-122.3834288, 37.7101804], [-122.3834716, 37.7101484], [-122.3839985, 37.7105923], [-122.3840053, 37.7105873], [-122.3845935, 37.7101481], [-122.384521, 37.7101127], [-122.3844564, 37.7100853], [-122.3843894, 37.7100599], [-122.3843205, 37.7100367], [-122.3842501, 37.7100159], [-122.3841787, 37.7099977], [-122.3841065, 37.7099821], [-122.384034, 37.7099695], [-122.3839617, 37.7099599], [-122.3838772, 37.7099522]]]}}, {"type": "Feature", "properties": {"block_id": "CS-11a", "neighborhood": "Candlestick South", "block": "11a", "area_acres_table": 1.53, "area_acres_polygon": 1.528, "gross_area_acres_polygon": 1.661, "mid_block_easement_excluded": true, "dimension_labels_ft": [283.3], "source_figure": "Figure 7.4 / Table 7.4", "pdf_page": 285, "land_use": "Residential Density II", "land_use_share": 1.0, "land_use_source": "Addendum 7 Fig 3 (2024)", "height_zones_2024": [{"height_ft": 65, "share": 0.73}, {"height_ft": 80, "share": 0.27}], "max_height_ft_2024": 80, "towers": [], "source_document": "Candlestick Point Design for Development, 2024 amendment compilation (CP_D4D_2024_Amendment.pdf), Appendix B", "georef_rms_m": 0.57, "confidence": "high"}, "geometry": {"type": "Polygon", "coordinates": [[[-122.3858407, 37.7108952], [-122.385522, 37.7107028], [-122.3855168, 37.7107067], [-122.385517, 37.7107068], [-122.3848119, 37.7112375], [-122.3848093, 37.7112353], [-122.3848072, 37.7112368], [-122.3853322, 37.7116805], [-122.3861195, 37.7110921], [-122.3860535, 37.7110401], [-122.385984, 37.710989], [-122.3859134, 37.7109416], [-122.3858407, 37.7108952]]]}}, {"type": "Feature", "properties": {"block_id": "CS-11b", "neighborhood": "Candlestick South", "block": "11b", "area_acres_table": 1.32, "area_acres_polygon": 1.326, "gross_area_acres_polygon": 1.458, "mid_block_easement_excluded": true, "dimension_labels_ft": [276.6], "source_figure": "Figure 7.4 / Table 7.4", "pdf_page": 285, "land_use": "Residential Density II", "land_use_share": 1.0, "land_use_source": "Addendum 7 Fig 3 (2024)", "height_zones_2024": [{"height_ft": 65, "share": 1.0}], "max_height_ft_2024": 65, "towers": [], "source_document": "Candlestick Point Design for Development, 2024 amendment compilation (CP_D4D_2024_Amendment.pdf), Appendix B", "georef_rms_m": 0.57, "confidence": "high"}, "geometry": {"type": "Polygon", "coordinates": [[[-122.3854104, 37.7106354], [-122.3847847, 37.7102576], [-122.3841816, 37.7107081], [-122.3847123, 37.7111566], [-122.3847145, 37.711155], [-122.3847135, 37.7111542], [-122.3854031, 37.7106385], [-122.3854049, 37.7106395], [-122.3854104, 37.7106354]]]}}, {"type": "Feature", "properties": {"block_id": "CS-12b", "neighborhood": "Candlestick South", "block": "12b", "area_acres_table": 1.44, "area_acres_polygon": 1.444, "gross_area_acres_polygon": 1.444, "mid_block_easement_excluded": false, "dimension_labels_ft": [353.3], "source_figure": "Figure 7.4 / Table 7.4", "pdf_page": 285, "land_use": "Residential Density I", "land_use_share": 1.0, "land_use_source": "Addendum 7 Fig 3 (2024)", "height_zones_2024": [{"height_ft": 40, "share": 1.0}], "max_height_ft_2024": 40, "towers": [], "source_document": "Candlestick Point Design for Development, 2024 amendment compilation (CP_D4D_2024_Amendment.pdf), Appendix B", "georef_rms_m": 0.57, "confidence": "high"}, "geometry": {"type": "Polygon", "coordinates": [[[-122.3826463, 37.7098466], [-122.382577, 37.7098433], [-122.3824989, 37.7098435], [-122.3824211, 37.7098484], [-122.3823439, 37.7098579], [-122.3822678, 37.7098718], [-122.3821932, 37.7098902], [-122.3821206, 37.7099128], [-122.3820502, 37.7099397], [-122.3819826, 37.7099707], [-122.3819246, 37.7100011], [-122.3826049, 37.7105754], [-122.3834952, 37.7099101], [-122.3826463, 37.7098466]]]}}, {"type": "Feature", "properties": {"block_id": "CS-12a", "neighborhood": "Candlestick South", "block": "12a", "area_acres_table": 1.62, "area_acres_polygon": 1.628, "gross_area_acres_polygon": 1.628, "mid_block_easement_excluded": false, "dimension_labels_ft": [386.9], "source_figure": "Figure 7.4 / Table 7.4", "pdf_page": 285, "land_use": "Residential Density I", "land_use_share": 1.0, "land_use_source": "Addendum 7 Fig 3 (2024)", "height_zones_2024": [{"height_ft": 40, "share": 1.0}], "max_height_ft_2024": 40, "towers": [], "source_document": "Candlestick Point Design for Development, 2024 amendment compilation (CP_D4D_2024_Amendment.pdf), Appendix B", "georef_rms_m": 0.57, "confidence": "high"}, "geometry": {"type": "Polygon", "coordinates": [[[-122.3817705, 37.7101073], [-122.3817209, 37.7101522], [-122.3816662, 37.71021], [-122.3816186, 37.7102697], [-122.3815779, 37.7103314], [-122.381544, 37.7103951], [-122.3815167, 37.7104607], [-122.3814959, 37.7105284], [-122.3814813, 37.7105981], [-122.3814729, 37.7106699], [-122.381472, 37.7107231], [-122.3814792, 37.7114153], [-122.3824555, 37.7106861], [-122.3817705, 37.7101073]]]}}]}