{"type": "FeatureCollection", "metadata": {"title": "Maximum building height zones, 2024 Modified Project Variant", "legend": "40/65/80/85/120/160/180 ft; hatched block = 40 ft if park, 65 ft if development parcel", "crs": "EPSG:4326 (lon, lat)", "generated": "2026-10-09", "georeferencing": "see georeferencing.json in this folder"}, "features": [{"type": "Feature", "properties": {"height_ft": 85, "height_rule": null, "height_ft_if_park": null, "block_id": "CC-1", "innovation_district_parcel": "M", "area_acres": 1.106, "source": "FEIR Addendum 7 (Aug 2024) Figure 5, Proposed 2024 CP Maximum Building Heights, PDF p.23 (printed p.17)", "fill_color": "#cf4651", "georef_rms_m": 0.17, "confidence": "high"}, "geometry": {"type": "Polygon", "coordinates": [[[-122.3837339, 37.7136961], [-122.3848197, 37.7136073], [-122.3847801, 37.7133008], [-122.3847798, 37.7133006], [-122.3843548, 37.7129435], [-122.383728, 37.7136462], [-122.3837275, 37.7136466], [-122.3837164, 37.7136628], [-122.3837141, 37.7136812], [-122.3837201, 37.7136985], [-122.3837231, 37.7136971], [-122.3837339, 37.7136961]]]}}, {"type": "Feature", "properties": {"height_ft": 85, "height_rule": null, "height_ft_if_park": null, "block_id": "CC-1", "innovation_district_parcel": "N", "area_acres": 1.051, "source": "FEIR Addendum 7 (Aug 2024) Figure 5, Proposed 2024 CP Maximum Building Heights, PDF p.23 (printed p.17)", "fill_color": "#cf4651", "georef_rms_m": 0.17, "confidence": "high"}, "geometry": {"type": "Polygon", "coordinates": [[[-122.3848203, 37.7136121], [-122.3837385, 37.7136997], [-122.3837261, 37.7137007], [-122.3837237, 37.7137009], [-122.383722, 37.7137012], [-122.3837409, 37.7137198], [-122.3849186, 37.7143871], [-122.3848696, 37.7139996], [-122.3848203, 37.7136121]]]}}, {"type": "Feature", "properties": {"height_ft": 120, "height_rule": null, "height_ft_if_park": null, "block_id": "CC-1", "innovation_district_parcel": "K", "area_acres": 1.655, "source": "FEIR Addendum 7 (Aug 2024) Figure 5, Proposed 2024 CP Maximum Building Heights, PDF p.23 (printed p.17)", "fill_color": "#8e2730", "georef_rms_m": 0.17, "confidence": "high"}, "geometry": {"type": "Polygon", "coordinates": [[[-122.3847832, 37.7133005], [-122.384823, 37.7136071], [-122.3851541, 37.713581], [-122.385485, 37.7135546], [-122.3854232, 37.7130723], [-122.3854231, 37.713072], [-122.3851782, 37.7128676], [-122.3847514, 37.7125071], [-122.3846546, 37.7126107], [-122.3843578, 37.7129412], [-122.3847829, 37.7132985], [-122.3847832, 37.7133005]]]}}, {"type": "Feature", "properties": {"height_ft": 120, "height_rule": null, "height_ft_if_park": null, "block_id": "CC-1", "innovation_district_parcel": "C", "area_acres": 1.686, "source": "FEIR Addendum 7 (Aug 2024) Figure 5, Proposed 2024 CP Maximum Building Heights, PDF p.23 (printed p.17)", "fill_color": "#8e2730", "georef_rms_m": 0.17, "confidence": "high"}, "geometry": {"type": "Polygon", "coordinates": [[[-122.386231, 37.7134936], [-122.3862738, 37.7134907], [-122.3862743, 37.7134907], [-122.3873512, 37.7134036], [-122.3872851, 37.7128846], [-122.3872851, 37.7128843], [-122.3872816, 37.7128619], [-122.3872816, 37.7128615], [-122.3872676, 37.7127747], [-122.3872454, 37.7126909], [-122.3861653, 37.7129769], [-122.3861917, 37.7131854], [-122.386231, 37.7134936]]]}}, {"type": "Feature", "properties": {"height_ft": 120, "height_rule": null, "height_ft_if_park": null, "block_id": "CC-1", "innovation_district_parcel": "H", "area_acres": 1.976, "source": "FEIR Addendum 7 (Aug 2024) Figure 5, Proposed 2024 CP Maximum Building Heights, PDF p.23 (printed p.17)", "fill_color": "#8e2730", "georef_rms_m": 0.17, "confidence": "high"}, "geometry": {"type": "Polygon", "coordinates": [[[-122.3854246, 37.7130709], [-122.385426, 37.713072], [-122.3854882, 37.7135545], [-122.3858582, 37.7135243], [-122.386228, 37.7134938], [-122.3861771, 37.7130942], [-122.3861625, 37.7129769], [-122.3861623, 37.7129769], [-122.3860926, 37.7124279], [-122.3860716, 37.7124101], [-122.3860689, 37.7124078], [-122.3860537, 37.712395], [-122.3859405, 37.712301], [-122.3859402, 37.7123011], [-122.3852506, 37.7128154], [-122.3852191, 37.7128389], [-122.385184, 37.7128654], [-122.3854246, 37.7130709]]]}}, {"type": "Feature", "properties": {"height_ft": 160, "height_rule": null, "height_ft_if_park": null, "block_id": "CC-1", "innovation_district_parcel": "G", "area_acres": 1.303, "source": "FEIR Addendum 7 (Aug 2024) Figure 5, Proposed 2024 CP Maximum Building Heights, PDF p.23 (printed p.17)", "fill_color": "#853c91", "georef_rms_m": 0.17, "confidence": "high"}, "geometry": {"type": "Polygon", "coordinates": [[[-122.3847542, 37.7125049], [-122.3851808, 37.712863], [-122.3851811, 37.712863], [-122.3859373, 37.7122986], [-122.3854867, 37.7119158], [-122.3851025, 37.7122042], [-122.3851022, 37.7122043], [-122.384981, 37.7123003], [-122.3848625, 37.7124007], [-122.384754, 37.7125047], [-122.3847542, 37.7125049]]]}}, {"type": "Feature", "properties": {"height_ft": 160, "height_rule": null, "height_ft_if_park": null, "block_id": "CC-1", "innovation_district_parcel": "L", "area_acres": 1.597, "source": "FEIR Addendum 7 (Aug 2024) Figure 5, Proposed 2024 CP Maximum Building Heights, PDF p.23 (printed p.17)", "fill_color": "#853c91", "georef_rms_m": 0.17, "confidence": "high"}, "geometry": {"type": "Polygon", "coordinates": [[[-122.3854994, 37.7147168], [-122.3855583, 37.7146515], [-122.3856167, 37.7145843], [-122.3854854, 37.7135572], [-122.3851542, 37.7135844], [-122.3848237, 37.7136118], [-122.384925, 37.7143913], [-122.3854994, 37.7147168]]]}}, {"type": "Feature", "properties": {"height_ft": 160, "height_rule": null, "height_ft_if_park": null, "block_id": "CC-1", "innovation_district_parcel": "J", "area_acres": 1.15, "source": "FEIR Addendum 7 (Aug 2024) Figure 5, Proposed 2024 CP Maximum Building Heights, PDF p.23 (printed p.17)", "fill_color": "#853c91", "georef_rms_m": 0.17, "confidence": "high"}, "geometry": {"type": "Polygon", "coordinates": [[[-122.3868653, 37.7147703], [-122.3863761, 37.7146311], [-122.3863744, 37.7146306], [-122.3863677, 37.7145748], [-122.3863669, 37.7145712], [-122.3856851, 37.7146264], [-122.3856846, 37.7146264], [-122.3856816, 37.7146247], [-122.38562, 37.7145885], [-122.3855612, 37.7146526], [-122.3855038, 37.7147174], [-122.3864397, 37.7152458], [-122.3868653, 37.7147703]]]}}, {"type": "Feature", "properties": {"height_ft": 160, "height_rule": null, "height_ft_if_park": null, "block_id": "CC-1", "innovation_district_parcel": "I", "area_acres": 1.934, "source": "FEIR Addendum 7 (Aug 2024) Figure 5, Proposed 2024 CP Maximum Building Heights, PDF p.23 (printed p.17)", "fill_color": "#853c91", "georef_rms_m": 0.17, "confidence": "high"}, "geometry": {"type": "Polygon", "coordinates": [[[-122.38562, 37.7145857], [-122.3856844, 37.7146219], [-122.3863666, 37.7145666], [-122.3863541, 37.7144676], [-122.3862282, 37.7134963], [-122.3858582, 37.7135265], [-122.3854884, 37.713557], [-122.3856197, 37.7145838], [-122.38562, 37.7145857]]]}}, {"type": "Feature", "properties": {"height_ft": 180, "height_rule": null, "height_ft_if_park": null, "block_id": "CC-1", "innovation_district_parcel": "A", "area_acres": 1.894, "source": "FEIR Addendum 7 (Aug 2024) Figure 5, Proposed 2024 CP Maximum Building Heights, PDF p.23 (printed p.17)", "fill_color": "#2b2f73", "georef_rms_m": 0.17, "confidence": "high"}, "geometry": {"type": "Polygon", "coordinates": [[[-122.3868661, 37.7120242], [-122.3863981, 37.7113544], [-122.3863835, 37.7113433], [-122.3863658, 37.7113343], [-122.3863486, 37.7113346], [-122.3863285, 37.7113395], [-122.3862147, 37.7113966], [-122.3862139, 37.7113969], [-122.3861067, 37.7114603], [-122.3861062, 37.7114604], [-122.3860048, 37.7115308], [-122.3854899, 37.7119133], [-122.3859404, 37.7122962], [-122.3859417, 37.7122953], [-122.3860624, 37.7123977], [-122.3860686, 37.7124027], [-122.3860717, 37.7124053], [-122.3864691, 37.7122152], [-122.3868661, 37.7120242]]]}}, {"type": "Feature", "properties": {"height_ft": 180, "height_rule": null, "height_ft_if_park": null, "block_id": "CC-1", "innovation_district_parcel": "B", "area_acres": 1.604, "source": "FEIR Addendum 7 (Aug 2024) Figure 5, Proposed 2024 CP Maximum Building Heights, PDF p.23 (printed p.17)", "fill_color": "#2b2f73", "georef_rms_m": 0.17, "confidence": "high"}, "geometry": {"type": "Polygon", "coordinates": [[[-122.3860954, 37.7124256], [-122.3860956, 37.7124277], [-122.3861651, 37.7129738], [-122.3872447, 37.7126887], [-122.3872137, 37.7125898], [-122.3871705, 37.7124944], [-122.3871702, 37.712493], [-122.3871219, 37.7123989], [-122.3870617, 37.7123082], [-122.3868666, 37.7120273], [-122.3864706, 37.7122174], [-122.3860803, 37.7124058], [-122.3860755, 37.7124082], [-122.386095, 37.7124254], [-122.3860954, 37.7124256]]]}}, {"type": "Feature", "properties": {"height_ft": 180, "height_rule": null, "height_ft_if_park": null, "block_id": "CC-1", "innovation_district_parcel": "D", "area_acres": 1.969, "source": "FEIR Addendum 7 (Aug 2024) Figure 5, Proposed 2024 CP Maximum Building Heights, PDF p.23 (printed p.17)", "fill_color": "#2b2f73", "georef_rms_m": 0.17, "confidence": "high"}, "geometry": {"type": "Polygon", "coordinates": [[[-122.3863148, 37.7141366], [-122.3874536, 37.7142063], [-122.3873511, 37.7134061], [-122.3862745, 37.7134931], [-122.3862744, 37.7134931], [-122.3862338, 37.7134958], [-122.3862312, 37.7134962], [-122.3862498, 37.7136392], [-122.3863148, 37.7141366]]]}}, {"type": "Feature", "properties": {"height_ft": 180, "height_rule": null, "height_ft_if_park": null, "block_id": "CC-1", "innovation_district_parcel": "E", "area_acres": 1.694, "source": "FEIR Addendum 7 (Aug 2024) Figure 5, Proposed 2024 CP Maximum Building Heights, PDF p.23 (printed p.17)", "fill_color": "#2b2f73", "georef_rms_m": 0.17, "confidence": "high"}, "geometry": {"type": "Polygon", "coordinates": [[[-122.3874537, 37.7142088], [-122.3863148, 37.7141391], [-122.3863695, 37.7145664], [-122.3863695, 37.7145666], [-122.3863698, 37.7145666], [-122.3863772, 37.7146284], [-122.3868689, 37.7147659], [-122.3868714, 37.7147666], [-122.3875472, 37.7149592], [-122.3875489, 37.7149597], [-122.3875412, 37.7148812], [-122.3874537, 37.7142088]]]}}, {"type": "Feature", "properties": {"height_ft": 160, "height_rule": null, "height_ft_if_park": null, "block_id": "CC-1", "innovation_district_parcel": "F", "area_acres": 1.538, "source": "FEIR Addendum 7 (Aug 2024) Figure 5, Proposed 2024 CP Maximum Building Heights, PDF p.23 (printed p.17)", "fill_color": "#853c91", "georef_rms_m": 0.17, "confidence": "high"}, "geometry": {"type": "Polygon", "coordinates": [[[-122.3873355, 37.7157055], [-122.3873523, 37.7156891], [-122.3874103, 37.7155918], [-122.3874108, 37.7155911], [-122.3874567, 37.7154901], [-122.3874568, 37.7154895], [-122.3874942, 37.7153863], [-122.3875232, 37.7152827], [-122.3875232, 37.7152824], [-122.3875405, 37.7151747], [-122.3875405, 37.7151744], [-122.3875491, 37.7150691], [-122.3875491, 37.7149614], [-122.3875462, 37.7149615], [-122.3868716, 37.7147719], [-122.3866574, 37.7150099], [-122.386443, 37.7152485], [-122.3872542, 37.7157065], [-122.3872549, 37.7157069], [-122.387281, 37.7157178], [-122.3873099, 37.7157173], [-122.3873355, 37.7157055]]]}}, {"type": "Feature", "properties": {"height_ft": 65, "height_rule": null, "height_ft_if_park": null, "block_id": "CS-1", "innovation_district_parcel": null, "area_acres": 1.704, "source": "FEIR Addendum 7 (Aug 2024) Figure 5, Proposed 2024 CP Maximum Building Heights, PDF p.23 (printed p.17)", "fill_color": "#f58918", "georef_rms_m": 0.17, "confidence": "high"}, "geometry": {"type": "Polygon", "coordinates": [[[-122.3810772, 37.7148658], [-122.3815075, 37.7145447], [-122.3803355, 37.7138814], [-122.3801097, 37.7137535], [-122.3801649, 37.713785], [-122.380165, 37.713785], [-122.380165, 37.7137851], [-122.3799636, 37.7140094], [-122.3799748, 37.7140736], [-122.3799798, 37.7140939], [-122.3799876, 37.7141183], [-122.3799984, 37.7141458], [-122.3799984, 37.7141459], [-122.3800128, 37.7141758], [-122.3800311, 37.7142072], [-122.3800312, 37.7142072], [-122.3800538, 37.7142395], [-122.3800812, 37.7142716], [-122.3801137, 37.7143028], [-122.3801137, 37.7143029], [-122.3801967, 37.7143682], [-122.3810768, 37.7148658], [-122.3810769, 37.7148659], [-122.3810769, 37.714866], [-122.3810768, 37.7148661], [-122.3810265, 37.7149036], [-122.3810262, 37.7149042], [-122.3810771, 37.714866], [-122.3810771, 37.7148659], [-122.3810771, 37.7148658], [-122.3810772, 37.7148658]]]}}, {"type": "Feature", "properties": {"height_ft": 65, "height_rule": null, "height_ft_if_park": null, "block_id": "CN-6b", "innovation_district_parcel": null, "area_acres": 0.962, "source": "FEIR Addendum 7 (Aug 2024) Figure 5, Proposed 2024 CP Maximum Building Heights, PDF p.23 (printed p.17)", "fill_color": "#f58918", "georef_rms_m": 0.17, "confidence": "high"}, "geometry": {"type": "Polygon", "coordinates": [[[-122.3815499, 37.717453], [-122.3815502, 37.7174529], [-122.3807207, 37.7169835], [-122.3807206, 37.7169835], [-122.3805678, 37.7171522], [-122.3805678, 37.7171523], [-122.3808017, 37.7175839], [-122.3812206, 37.7178187], [-122.3812206, 37.7178188], [-122.3812206, 37.7178189], [-122.3812207, 37.7178188], [-122.3815499, 37.717453]]]}}, {"type": "Feature", "properties": {"height_ft": 65, "height_rule": null, "height_ft_if_park": null, "block_id": "CS-2b", "innovation_district_parcel": null, "area_acres": 0.842, "source": "FEIR Addendum 7 (Aug 2024) Figure 5, Proposed 2024 CP Maximum Building Heights, PDF p.23 (printed p.17)", "fill_color": "#f58918", "georef_rms_m": 0.17, "confidence": "high"}, "geometry": {"type": "Polygon", "coordinates": [[[-122.3810829, 37.7141048], [-122.3815309, 37.7136058], [-122.3810681, 37.713344], [-122.38062, 37.7138434], [-122.3810828, 37.7141051], [-122.3810829, 37.7141049], [-122.3810829, 37.7141048]]]}}, {"type": "Feature", "properties": {"height_ft": 65, "height_rule": null, "height_ft_if_park": null, "block_id": "CN-7b", "innovation_district_parcel": null, "area_acres": 1.286, "source": "FEIR Addendum 7 (Aug 2024) Figure 5, Proposed 2024 CP Maximum Building Heights, PDF p.23 (printed p.17)", "fill_color": "#f58918", "georef_rms_m": 0.17, "confidence": "high"}, "geometry": {"type": "Polygon", "coordinates": [[[-122.3816622, 37.7173271], [-122.3820429, 37.7169015], [-122.3812137, 37.7164318], [-122.3812136, 37.7164318], [-122.3808326, 37.7168577], [-122.3816622, 37.7173271]]]}}, {"type": "Feature", "properties": {"height_ft": 65, "height_rule": null, "height_ft_if_park": null, "block_id": "CS-2a", "innovation_district_parcel": null, "area_acres": 0.957, "source": "FEIR Addendum 7 (Aug 2024) Figure 5, Proposed 2024 CP Maximum Building Heights, PDF p.23 (printed p.17)", "fill_color": "#f58918", "georef_rms_m": 0.17, "confidence": "high"}, "geometry": {"type": "Polygon", "coordinates": [[[-122.3816587, 37.714431], [-122.382233, 37.7140028], [-122.3816442, 37.71367], [-122.3816439, 37.7136701], [-122.3811959, 37.7141693], [-122.3816587, 37.714431]]]}}, {"type": "Feature", "properties": {"height_ft": 65, "height_rule": null, "height_ft_if_park": null, "block_id": "CS-4b", "innovation_district_parcel": null, "area_acres": 0.844, "source": "FEIR Addendum 7 (Aug 2024) Figure 5, Proposed 2024 CP Maximum Building Heights, PDF p.23 (printed p.17)", "fill_color": "#f58918", "georef_rms_m": 0.17, "confidence": "high"}, "geometry": {"type": "Polygon", "coordinates": [[[-122.3820872, 37.7129852], [-122.3820873, 37.712985], [-122.3816247, 37.7127229], [-122.381176, 37.7132231], [-122.3816387, 37.7134849], [-122.3816389, 37.7134846], [-122.3816389, 37.7134845], [-122.3820872, 37.7129852]]]}}, {"type": "Feature", "properties": {"height_ft": 65, "height_rule": null, "height_ft_if_park": null, "block_id": "CN-6a", "innovation_district_parcel": null, "area_acres": 1.002, "source": "FEIR Addendum 7 (Aug 2024) Figure 5, Proposed 2024 CP Maximum Building Heights, PDF p.23 (printed p.17)", "fill_color": "#f58918", "georef_rms_m": 0.17, "confidence": "high"}, "geometry": {"type": "Polygon", "coordinates": [[[-122.3820799, 37.7183071], [-122.38241, 37.7179393], [-122.3816627, 37.7175165], [-122.3813324, 37.7178845], [-122.3820799, 37.7183071]]]}}, {"type": "Feature", "properties": {"height_ft": 65, "height_rule": null, "height_ft_if_park": null, "block_id": "CS-7a", "innovation_district_parcel": null, "area_acres": 1.085, "source": "FEIR Addendum 7 (Aug 2024) Figure 5, Proposed 2024 CP Maximum Building Heights, PDF p.23 (printed p.17)", "fill_color": "#f58918", "georef_rms_m": 0.17, "confidence": "high"}, "geometry": {"type": "Polygon", "coordinates": [[[-122.3818226, 37.7122171], [-122.3824062, 37.7117815], [-122.3818752, 37.7113325], [-122.3818742, 37.7113317], [-122.3814819, 37.7116247], [-122.3814864, 37.7116853], [-122.3814864, 37.7116854], [-122.381497, 37.7117446], [-122.3815129, 37.7118032], [-122.381534, 37.7118607], [-122.3815341, 37.7118607], [-122.3815603, 37.7119169], [-122.3815914, 37.7119715], [-122.3816274, 37.7120242], [-122.381668, 37.7120747], [-122.3816681, 37.7120747], [-122.3817132, 37.7121228], [-122.3817635, 37.7121677], [-122.3818226, 37.7122171]]]}}, {"type": "Feature", "properties": {"height_ft": 65, "height_rule": null, "height_ft_if_park": null, "block_id": "CN-9b", "innovation_district_parcel": null, "area_acres": 1.009, "source": "FEIR Addendum 7 (Aug 2024) Figure 5, Proposed 2024 CP Maximum Building Heights, PDF p.23 (printed p.17)", "fill_color": "#f58918", "georef_rms_m": 0.17, "confidence": "high"}, "geometry": {"type": "Polygon", "coordinates": [[[-122.3822183, 37.7166634], [-122.3826848, 37.7161442], [-122.3821486, 37.7158402], [-122.3816892, 37.7163635], [-122.3822183, 37.7166634]]]}}, {"type": "Feature", "properties": {"height_ft": 65, "height_rule": null, "height_ft_if_park": null, "block_id": "CN-7a", "innovation_district_parcel": null, "area_acres": 1.158, "source": "FEIR Addendum 7 (Aug 2024) Figure 5, Proposed 2024 CP Maximum Building Heights, PDF p.23 (printed p.17)", "fill_color": "#f58918", "georef_rms_m": 0.17, "confidence": "high"}, "geometry": {"type": "Polygon", "coordinates": [[[-122.382903, 37.7173888], [-122.382903, 37.7173887], [-122.3821561, 37.7169656], [-122.3821557, 37.7169658], [-122.3817748, 37.7173908], [-122.3825221, 37.7178136], [-122.382903, 37.7173888]]]}}, {"type": "Feature", "properties": {"height_ft": 65, "height_rule": null, "height_ft_if_park": null, "block_id": "CS-4a", "innovation_district_parcel": null, "area_acres": 1.243, "source": "FEIR Addendum 7 (Aug 2024) Figure 5, Proposed 2024 CP Maximum Building Heights, PDF p.23 (printed p.17)", "fill_color": "#f58918", "georef_rms_m": 0.17, "confidence": "high"}, "geometry": {"type": "Polygon", "coordinates": [[[-122.3823716, 37.7138995], [-122.382945, 37.713471], [-122.3822005, 37.7130491], [-122.3822, 37.7130496], [-122.3817521, 37.7135489], [-122.3823716, 37.7138995]]]}}, {"type": "Feature", "properties": {"height_ft": 65, "height_rule": null, "height_ft_if_park": null, "block_id": "CN-9a", "innovation_district_parcel": null, "area_acres": 0.938, "source": "FEIR Addendum 7 (Aug 2024) Figure 5, Proposed 2024 CP Maximum Building Heights, PDF p.23 (printed p.17)", "fill_color": "#f58918", "georef_rms_m": 0.17, "confidence": "high"}, "geometry": {"type": "Polygon", "coordinates": [[[-122.3827655, 37.7160542], [-122.3832002, 37.7155704], [-122.3826655, 37.7152679], [-122.3826655, 37.715268], [-122.3826654, 37.715268], [-122.3822376, 37.7157554], [-122.3822375, 37.7157554], [-122.3822375, 37.7157555], [-122.3827655, 37.7160542]]]}}, {"type": "Feature", "properties": {"height_ft": 65, "height_rule": null, "height_ft_if_park": null, "block_id": "CS-6b", "innovation_district_parcel": null, "area_acres": 1.156, "source": "FEIR Addendum 7 (Aug 2024) Figure 5, Proposed 2024 CP Maximum Building Heights, PDF p.23 (printed p.17)", "fill_color": "#f58918", "georef_rms_m": 0.17, "confidence": "high"}, "geometry": {"type": "Polygon", "coordinates": [[[-122.3825121, 37.7128002], [-122.3830777, 37.7123768], [-122.3825478, 37.7119285], [-122.3819819, 37.712352], [-122.382512, 37.7128002], [-122.3825121, 37.7128002]]]}}, {"type": "Feature", "properties": {"height_ft": 65, "height_rule": null, "height_ft_if_park": null, "block_id": "CS-7b", "innovation_district_parcel": null, "area_acres": 1.256, "source": "FEIR Addendum 7 (Aug 2024) Figure 5, Proposed 2024 CP Maximum Building Heights, PDF p.23 (printed p.17)", "fill_color": "#f58918", "georef_rms_m": 0.17, "confidence": "high"}, "geometry": {"type": "Polygon", "coordinates": [[[-122.3825068, 37.7117064], [-122.3831208, 37.7112482], [-122.382588, 37.7107989], [-122.3819753, 37.7112561], [-122.3819755, 37.7112564], [-122.3825068, 37.7117064]]]}}, {"type": "Feature", "properties": {"height_ft": 65, "height_rule": null, "height_ft_if_park": null, "block_id": "CN-5b", "innovation_district_parcel": null, "area_acres": 1.001, "source": "FEIR Addendum 7 (Aug 2024) Figure 5, Proposed 2024 CP Maximum Building Heights, PDF p.23 (printed p.17)", "fill_color": "#f58918", "georef_rms_m": 0.17, "confidence": "high"}, "geometry": {"type": "Polygon", "coordinates": [[[-122.3834271, 37.7185156], [-122.3834272, 37.7185155], [-122.3826799, 37.7180927], [-122.3826798, 37.7180929], [-122.3823503, 37.7184601], [-122.3830976, 37.7188829], [-122.383427, 37.7185156], [-122.3834271, 37.7185156]]]}}, {"type": "Feature", "properties": {"height_ft": 65, "height_rule": null, "height_ft_if_park": null, "block_id": "CN-8b", "innovation_district_parcel": null, "area_acres": 1.367, "source": "FEIR Addendum 7 (Aug 2024) Figure 5, Proposed 2024 CP Maximum Building Heights, PDF p.23 (printed p.17)", "fill_color": "#f58918", "georef_rms_m": 0.17, "confidence": "high"}, "geometry": {"type": "Polygon", "coordinates": [[[-122.3831048, 37.7171641], [-122.3835703, 37.716645], [-122.3835698, 37.7166449], [-122.3828489, 37.7162365], [-122.3828484, 37.7162363], [-122.3823824, 37.7167557], [-122.3831048, 37.7171641]]]}}, {"type": "Feature", "properties": {"height_ft": 65, "height_rule": null, "height_ft_if_park": null, "block_id": "CN-11b", "innovation_district_parcel": null, "area_acres": 0.969, "source": "FEIR Addendum 7 (Aug 2024) Figure 5, Proposed 2024 CP Maximum Building Heights, PDF p.23 (printed p.17)", "fill_color": "#f58918", "georef_rms_m": 0.17, "confidence": "high"}, "geometry": {"type": "Polygon", "coordinates": [[[-122.3833501, 37.7154016], [-122.3837989, 37.7149014], [-122.3837982, 37.714901], [-122.3829952, 37.7144459], [-122.382995, 37.7144458], [-122.3829946, 37.7144463], [-122.3832645, 37.7145995], [-122.3832645, 37.7145996], [-122.3832645, 37.7145997], [-122.3828229, 37.7151031], [-122.3828228, 37.7151031], [-122.3828227, 37.7151031], [-122.3825464, 37.7149457], [-122.3825456, 37.7149465], [-122.3833501, 37.7154016]]]}}, {"type": "Feature", "properties": {"height_ft": 65, "height_rule": null, "height_ft_if_park": null, "block_id": "CS-6a", "innovation_district_parcel": null, "area_acres": 0.845, "source": "FEIR Addendum 7 (Aug 2024) Figure 5, Proposed 2024 CP Maximum Building Heights, PDF p.23 (printed p.17)", "fill_color": "#f58918", "georef_rms_m": 0.17, "confidence": "high"}, "geometry": {"type": "Polygon", "coordinates": [[[-122.3831166, 37.7131166], [-122.3835603, 37.7127849], [-122.3831731, 37.7124571], [-122.3831724, 37.7124578], [-122.3826066, 37.71288], [-122.3831367, 37.7133283], [-122.3829951, 37.7132081], [-122.3829951, 37.713208], [-122.3829951, 37.7132079], [-122.3831166, 37.7131166]]]}}, {"type": "Feature", "properties": {"height_ft": 65, "height_rule": null, "height_ft_if_park": null, "block_id": "CN-4b", "innovation_district_parcel": null, "area_acres": 1.161, "source": "FEIR Addendum 7 (Aug 2024) Figure 5, Proposed 2024 CP Maximum Building Heights, PDF p.23 (printed p.17)", "fill_color": "#f58918", "georef_rms_m": 0.17, "confidence": "high"}, "geometry": {"type": "Polygon", "coordinates": [[[-122.3839214, 37.7179652], [-122.3839223, 37.7179644], [-122.3831748, 37.7175413], [-122.3831741, 37.7175423], [-122.3827932, 37.7179671], [-122.3827927, 37.7179675], [-122.3835398, 37.7183907], [-122.3835399, 37.7183907], [-122.3835405, 37.7183899], [-122.3839214, 37.7179652]]]}}, {"type": "Feature", "properties": {"height_ft": 65, "height_rule": null, "height_ft_if_park": null, "block_id": "CS-8b", "innovation_district_parcel": null, "area_acres": 1.216, "source": "FEIR Addendum 7 (Aug 2024) Figure 5, Proposed 2024 CP Maximum Building Heights, PDF p.23 (printed p.17)", "fill_color": "#f58918", "georef_rms_m": 0.17, "confidence": "high"}, "geometry": {"type": "Polygon", "coordinates": [[[-122.3832149, 37.712276], [-122.3838091, 37.7118314], [-122.3832789, 37.711383], [-122.3826835, 37.7118276], [-122.3832146, 37.7122761], [-122.3832149, 37.712276]]]}}, {"type": "Feature", "properties": {"height_ft": 65, "height_rule": null, "height_ft_if_park": null, "block_id": "CS-10a", "innovation_district_parcel": null, "area_acres": 1.304, "source": "FEIR Addendum 7 (Aug 2024) Figure 5, Proposed 2024 CP Maximum Building Heights, PDF p.23 (printed p.17)", "fill_color": "#f58918", "georef_rms_m": 0.17, "confidence": "high"}, "geometry": {"type": "Polygon", "coordinates": [[[-122.3832694, 37.711138], [-122.3839049, 37.7106633], [-122.3839044, 37.7106629], [-122.3833728, 37.7102136], [-122.3833728, 37.7102135], [-122.3833724, 37.7102129], [-122.3827364, 37.7106874], [-122.3832694, 37.711138]]]}}, {"type": "Feature", "properties": {"height_ft": 65, "height_rule": null, "height_ft_if_park": null, "block_id": "CN-8a", "innovation_district_parcel": null, "area_acres": 1.274, "source": "FEIR Addendum 7 (Aug 2024) Figure 5, Proposed 2024 CP Maximum Building Heights, PDF p.23 (printed p.17)", "fill_color": "#f58918", "georef_rms_m": 0.17, "confidence": "high"}, "geometry": {"type": "Polygon", "coordinates": [[[-122.383651, 37.7165552], [-122.3840853, 37.716071], [-122.3833629, 37.7156627], [-122.3829287, 37.7161469], [-122.383651, 37.7165552]]]}}, {"type": "Feature", "properties": {"height_ft": 65, "height_rule": null, "height_ft_if_park": null, "block_id": "CN-5a", "innovation_district_parcel": null, "area_acres": 1.001, "source": "FEIR Addendum 7 (Aug 2024) Figure 5, Proposed 2024 CP Maximum Building Heights, PDF p.23 (printed p.17)", "fill_color": "#f58918", "georef_rms_m": 0.17, "confidence": "high"}, "geometry": {"type": "Polygon", "coordinates": [[[-122.3839581, 37.7193698], [-122.3842872, 37.7190018], [-122.3835399, 37.718579], [-122.3831504, 37.7190142], [-122.3832113, 37.7189473], [-122.3832114, 37.7189473], [-122.3832115, 37.7189473], [-122.3832116, 37.7189473], [-122.3839581, 37.7193698]]]}}, {"type": "Feature", "properties": {"height_ft": 65, "height_rule": null, "height_ft_if_park": null, "block_id": "CN-11a", "innovation_district_parcel": null, "area_acres": 0.564, "source": "FEIR Addendum 7 (Aug 2024) Figure 5, Proposed 2024 CP Maximum Building Heights, PDF p.23 (printed p.17)", "fill_color": "#f58918", "georef_rms_m": 0.17, "confidence": "high"}, "geometry": {"type": "Polygon", "coordinates": [[[-122.3838787, 37.7148122], [-122.3841402, 37.7145208], [-122.3836125, 37.7142177], [-122.3833527, 37.7145138], [-122.3838787, 37.7148122]]]}}, {"type": "Feature", "properties": {"height_ft": 65, "height_rule": null, "height_ft_if_park": null, "block_id": "CS-8a", "innovation_district_parcel": null, "area_acres": 0.887, "source": "FEIR Addendum 7 (Aug 2024) Figure 5, Proposed 2024 CP Maximum Building Heights, PDF p.23 (printed p.17)", "fill_color": "#f58918", "georef_rms_m": 0.17, "confidence": "high"}, "geometry": {"type": "Polygon", "coordinates": [[[-122.3842904, 37.7122393], [-122.3844335, 37.7123594], [-122.3839043, 37.7119117], [-122.3833095, 37.7123556], [-122.383309, 37.712356], [-122.3836969, 37.7126834], [-122.3838958, 37.7125347], [-122.3842902, 37.7122393], [-122.3842903, 37.7122393], [-122.3842904, 37.7122393]]]}}, {"type": "Feature", "properties": {"height_ft": 65, "height_rule": null, "height_ft_if_park": null, "block_id": "CN-10b", "innovation_district_parcel": null, "area_acres": 1.316, "source": "FEIR Addendum 7 (Aug 2024) Figure 5, Proposed 2024 CP Maximum Building Heights, PDF p.23 (printed p.17)", "fill_color": "#f58918", "georef_rms_m": 0.17, "confidence": "high"}, "geometry": {"type": "Polygon", "coordinates": [[[-122.3842351, 37.7159034], [-122.384684, 37.7154024], [-122.3839627, 37.7149948], [-122.3835142, 37.7154951], [-122.3842351, 37.7159034]]]}}, {"type": "Feature", "properties": {"height_ft": 65, "height_rule": null, "height_ft_if_park": null, "block_id": "CS-9b", "innovation_district_parcel": null, "area_acres": 1.262, "source": "FEIR Addendum 7 (Aug 2024) Figure 5, Proposed 2024 CP Maximum Building Heights, PDF p.23 (printed p.17)", "fill_color": "#f58918", "georef_rms_m": 0.17, "confidence": "high"}, "geometry": {"type": "Polygon", "coordinates": [[[-122.3839588, 37.7117199], [-122.3845765, 37.7112593], [-122.3840454, 37.7108106], [-122.3840453, 37.7108106], [-122.3834274, 37.7112717], [-122.3839583, 37.7117203], [-122.3839584, 37.7117203], [-122.3839588, 37.7117199]]]}}, {"type": "Feature", "properties": {"height_ft": 65, "height_rule": null, "height_ft_if_park": null, "block_id": "CN-4a", "innovation_district_parcel": null, "area_acres": 1.148, "source": "FEIR Addendum 7 (Aug 2024) Figure 5, Proposed 2024 CP Maximum Building Heights, PDF p.23 (printed p.17)", "fill_color": "#f58918", "georef_rms_m": 0.17, "confidence": "high"}, "geometry": {"type": "Polygon", "coordinates": [[[-122.3836523, 37.7184544], [-122.3843993, 37.7188773], [-122.3846807, 37.718563], [-122.384696, 37.7185421], [-122.3847061, 37.7185217], [-122.3847119, 37.7185012], [-122.3847135, 37.7184807], [-122.3847111, 37.7184605], [-122.3847046, 37.7184408], [-122.3847046, 37.7184407], [-122.3846944, 37.7184218], [-122.3846805, 37.7184037], [-122.384663, 37.7183868], [-122.3846409, 37.7183711], [-122.3840348, 37.7180282], [-122.3840347, 37.7180282], [-122.3840343, 37.7180284], [-122.3840342, 37.7180284], [-122.3836533, 37.7184533], [-122.3836523, 37.7184544]]]}}, {"type": "Feature", "properties": {"height_ft": 65, "height_rule": null, "height_ft_if_park": null, "block_id": "CS-10b", "innovation_district_parcel": null, "area_acres": 0.94, "source": "FEIR Addendum 7 (Aug 2024) Figure 5, Proposed 2024 CP Maximum Building Heights, PDF p.23 (printed p.17)", "fill_color": "#f58918", "georef_rms_m": 0.17, "confidence": "high"}, "geometry": {"type": "Polygon", "coordinates": [[[-122.3840059, 37.7105877], [-122.3845945, 37.7101479], [-122.3845113, 37.7101092], [-122.3844493, 37.7100829], [-122.3843847, 37.7100585], [-122.384318, 37.7100362], [-122.3842499, 37.7100161], [-122.3841807, 37.7099984], [-122.3841109, 37.7099833], [-122.3840412, 37.709971], [-122.3839719, 37.7099615], [-122.3838779, 37.7099515], [-122.3837362, 37.7099414], [-122.3834734, 37.7101375], [-122.3840059, 37.7105877]]]}}, {"type": "Feature", "properties": {"height_ft": 65, "height_rule": null, "height_ft_if_park": null, "block_id": "CN-10a", "innovation_district_parcel": null, "area_acres": 0.77, "source": "FEIR Addendum 7 (Aug 2024) Figure 5, Proposed 2024 CP Maximum Building Heights, PDF p.23 (printed p.17)", "fill_color": "#f58918", "georef_rms_m": 0.17, "confidence": "high"}, "geometry": {"type": "Polygon", "coordinates": [[[-122.3849532, 37.7151024], [-122.3850251, 37.7150222], [-122.3848597, 37.7149272], [-122.3843074, 37.7146101], [-122.3840428, 37.7149053], [-122.3847643, 37.7153131], [-122.3849532, 37.7151024]]]}}, {"type": "Feature", "properties": {"height_ft": 65, "height_rule": null, "height_ft_if_park": null, "block_id": "AG-1", "innovation_district_parcel": null, "area_acres": 1.451, "source": "FEIR Addendum 7 (Aug 2024) Figure 5, Proposed 2024 CP Maximum Building Heights, PDF p.23 (printed p.17)", "fill_color": "#f58918", "georef_rms_m": 0.17, "confidence": "high"}, "geometry": {"type": "Polygon", "coordinates": [[[-122.3850433, 37.7201226], [-122.3854588, 37.7196588], [-122.3845991, 37.7191719], [-122.3842392, 37.7195735], [-122.3842281, 37.7195886], [-122.3842238, 37.7195995], [-122.3842214, 37.7196102], [-122.3842208, 37.7196205], [-122.384222, 37.7196305], [-122.384225, 37.7196403], [-122.3842297, 37.7196499], [-122.3842363, 37.7196593], [-122.3842446, 37.7196685], [-122.3842608, 37.7196808], [-122.3850431, 37.720123], [-122.3850432, 37.7201226], [-122.3850433, 37.7201226]]]}}, {"type": "Feature", "properties": {"height_ft": 65, "height_rule": null, "height_ft_if_park": null, "block_id": "CS-9a", "innovation_district_parcel": null, "area_acres": 0.921, "source": "FEIR Addendum 7 (Aug 2024) Figure 5, Proposed 2024 CP Maximum Building Heights, PDF p.23 (printed p.17)", "fill_color": "#f58918", "georef_rms_m": 0.17, "confidence": "high"}, "geometry": {"type": "Polygon", "coordinates": [[[-122.3844406, 37.7121276], [-122.3850579, 37.711666], [-122.384671, 37.7113391], [-122.3840534, 37.7117997], [-122.3840529, 37.7118001], [-122.3844406, 37.7121276]]]}}, {"type": "Feature", "properties": {"height_ft": 65, "height_rule": null, "height_ft_if_park": null, "block_id": "CN-3b", "innovation_district_parcel": null, "area_acres": 1.506, "source": "FEIR Addendum 7 (Aug 2024) Figure 5, Proposed 2024 CP Maximum Building Heights, PDF p.23 (printed p.17)", "fill_color": "#f58918", "georef_rms_m": 0.17, "confidence": "high"}, "geometry": {"type": "Polygon", "coordinates": [[[-122.3850552, 37.7182689], [-122.3855224, 37.717749], [-122.3855215, 37.7177486], [-122.3847264, 37.7172993], [-122.3842609, 37.7178183], [-122.3850552, 37.7182689]]]}}, {"type": "Feature", "properties": {"height_ft": 65, "height_rule": null, "height_ft_if_park": null, "block_id": "CS-11b", "innovation_district_parcel": null, "area_acres": 1.327, "source": "FEIR Addendum 7 (Aug 2024) Figure 5, Proposed 2024 CP Maximum Building Heights, PDF p.23 (printed p.17)", "fill_color": "#f58918", "georef_rms_m": 0.17, "confidence": "high"}, "geometry": {"type": "Polygon", "coordinates": [[[-122.384713, 37.7111567], [-122.3854099, 37.710636], [-122.3847851, 37.7102581], [-122.3841826, 37.7107086], [-122.384713, 37.7111567]]]}}, {"type": "Feature", "properties": {"height_ft": 65, "height_rule": null, "height_ft_if_park": null, "block_id": "CN-2b", "innovation_district_parcel": null, "area_acres": 1.316, "source": "FEIR Addendum 7 (Aug 2024) Figure 5, Proposed 2024 CP Maximum Building Heights, PDF p.23 (printed p.17)", "fill_color": "#f58918", "georef_rms_m": 0.17, "confidence": "high"}, "geometry": {"type": "Polygon", "coordinates": [[[-122.3852286, 37.7164642], [-122.3856769, 37.7159648], [-122.3849551, 37.7155557], [-122.3849304, 37.7155831], [-122.3845063, 37.7160556], [-122.3852286, 37.7164642]]]}}, {"type": "Feature", "properties": {"height_ft": 65, "height_rule": null, "height_ft_if_park": null, "block_id": "AG-2", "innovation_district_parcel": null, "area_acres": 1.236, "source": "FEIR Addendum 7 (Aug 2024) Figure 5, Proposed 2024 CP Maximum Building Heights, PDF p.23 (printed p.17)", "fill_color": "#f58918", "georef_rms_m": 0.17, "confidence": "high"}, "geometry": {"type": "Polygon", "coordinates": [[[-122.3855494, 37.7195271], [-122.3859108, 37.7191243], [-122.3850684, 37.7186482], [-122.3847069, 37.7190508], [-122.3855494, 37.7195271]]]}}, {"type": "Feature", "properties": {"height_ft": 65, "height_rule": null, "height_ft_if_park": null, "block_id": "CN-3a", "innovation_district_parcel": null, "area_acres": 1.403, "source": "FEIR Addendum 7 (Aug 2024) Figure 5, Proposed 2024 CP Maximum Building Heights, PDF p.23 (printed p.17)", "fill_color": "#f58918", "georef_rms_m": 0.17, "confidence": "high"}, "geometry": {"type": "Polygon", "coordinates": [[[-122.385603, 37.7176592], [-122.3860371, 37.7171759], [-122.3852414, 37.7167253], [-122.3848072, 37.7172095], [-122.3856029, 37.7176591], [-122.385603, 37.7176592]]]}}, {"type": "Feature", "properties": {"height_ft": 65, "height_rule": null, "height_ft_if_park": null, "block_id": "CS-11a", "innovation_district_parcel": null, "area_acres": 1.117, "source": "FEIR Addendum 7 (Aug 2024) Figure 5, Proposed 2024 CP Maximum Building Heights, PDF p.23 (printed p.17)", "fill_color": "#f58918", "georef_rms_m": 0.17, "confidence": "high"}, "geometry": {"type": "Polygon", "coordinates": [[[-122.3851958, 37.7115645], [-122.3859736, 37.7109825], [-122.3859379, 37.7109571], [-122.3858397, 37.7108959], [-122.3855211, 37.7107031], [-122.3848075, 37.7112365], [-122.3851958, 37.7115645]]]}}, {"type": "Feature", "properties": {"height_ft": 65, "height_rule": null, "height_ft_if_park": null, "block_id": "CN-2a", "innovation_district_parcel": null, "area_acres": 0.775, "source": "FEIR Addendum 7 (Aug 2024) Figure 5, Proposed 2024 CP Maximum Building Heights, PDF p.23 (printed p.17)", "fill_color": "#f58918", "georef_rms_m": 0.17, "confidence": "high"}, "geometry": {"type": "Polygon", "coordinates": [[[-122.3857569, 37.7158753], [-122.3862063, 37.7153746], [-122.3854842, 37.7149662], [-122.3862058, 37.7153745], [-122.3862059, 37.7153745], [-122.3862059, 37.7153746], [-122.3862059, 37.7153747], [-122.3862058, 37.7153747], [-122.3860194, 37.7155826], [-122.3860193, 37.7155826], [-122.3860193, 37.7155827], [-122.3860192, 37.7155827], [-122.3860191, 37.7155826], [-122.3853011, 37.7151703], [-122.3853011, 37.7151702], [-122.385301, 37.7151702], [-122.3850597, 37.7154391], [-122.3850349, 37.7154665], [-122.3850356, 37.7154669], [-122.3857567, 37.7158752], [-122.3857569, 37.7158753]]]}}, {"type": "Feature", "properties": {"height_ft": 65, "height_rule": null, "height_ft_if_park": null, "block_id": "AG-20", "innovation_district_parcel": null, "area_acres": 1.22, "source": "FEIR Addendum 7 (Aug 2024) Figure 5, Proposed 2024 CP Maximum Building Heights, PDF p.23 (printed p.17)", "fill_color": "#f58918", "georef_rms_m": 0.17, "confidence": "high"}, "geometry": {"type": "Polygon", "coordinates": [[[-122.3858772, 37.7205943], [-122.3862932, 37.720131], [-122.3855721, 37.7197227], [-122.3851547, 37.720186], [-122.3858772, 37.7205943]]]}}, {"type": "Feature", "properties": {"height_ft": 65, "height_rule": null, "height_ft_if_park": null, "block_id": "AG-4", "innovation_district_parcel": null, "area_acres": 1.23, "source": "FEIR Addendum 7 (Aug 2024) Figure 5, Proposed 2024 CP Maximum Building Heights, PDF p.23 (printed p.17)", "fill_color": "#f58918", "georef_rms_m": 0.17, "confidence": "high"}, "geometry": {"type": "Polygon", "coordinates": [[[-122.3862232, 37.718775], [-122.3865831, 37.7183735], [-122.385742, 37.7178973], [-122.3853821, 37.7182978], [-122.3862232, 37.718775]]]}}, {"type": "Feature", "properties": {"height_ft": 65, "height_rule": null, "height_ft_if_park": null, "block_id": "CN-1b", "innovation_district_parcel": null, "area_acres": 1.452, "source": "FEIR Addendum 7 (Aug 2024) Figure 5, Proposed 2024 CP Maximum Building Heights, PDF p.23 (printed p.17)", "fill_color": "#f58918", "georef_rms_m": 0.17, "confidence": "high"}, "geometry": {"type": "Polygon", "coordinates": [[[-122.3861868, 37.7170071], [-122.3866363, 37.7165064], [-122.3858408, 37.7160571], [-122.3858401, 37.7160567], [-122.3853912, 37.7165576], [-122.3861868, 37.7170071]]]}}, {"type": "Feature", "properties": {"height_ft": 65, "height_rule": null, "height_ft_if_park": null, "block_id": "AG-11", "innovation_district_parcel": null, "area_acres": 1.029, "source": "FEIR Addendum 7 (Aug 2024) Figure 5, Proposed 2024 CP Maximum Building Heights, PDF p.23 (printed p.17)", "fill_color": "#f58918", "georef_rms_m": 0.17, "confidence": "high"}, "geometry": {"type": "Polygon", "coordinates": [[[-122.3864024, 37.7200099], [-122.3867638, 37.7196072], [-122.3860634, 37.71921], [-122.385702, 37.7196128], [-122.3864024, 37.7200099]]]}}, {"type": "Feature", "properties": {"height_ft": 65, "height_rule": null, "height_ft_if_park": null, "block_id": "CN-1a", "innovation_district_parcel": null, "area_acres": 0.852, "source": "FEIR Addendum 7 (Aug 2024) Figure 5, Proposed 2024 CP Maximum Building Heights, PDF p.23 (printed p.17)", "fill_color": "#f58918", "georef_rms_m": 0.17, "confidence": "high"}, "geometry": {"type": "Polygon", "coordinates": [[[-122.3867164, 37.7164169], [-122.3869778, 37.7161257], [-122.3861862, 37.715671], [-122.3861862, 37.7156709], [-122.3861862, 37.7156708], [-122.3863688, 37.7154671], [-122.3863689, 37.7154671], [-122.386369, 37.7154671], [-122.3867667, 37.7156923], [-122.3863689, 37.7154669], [-122.3863688, 37.7154669], [-122.3859204, 37.7159672], [-122.3859208, 37.7159675], [-122.3867164, 37.7164169]]]}}, {"type": "Feature", "properties": {"height_ft": 65, "height_rule": null, "height_ft_if_park": null, "block_id": "AG-19", "innovation_district_parcel": null, "area_acres": 1.347, "source": "FEIR Addendum 7 (Aug 2024) Figure 5, Proposed 2024 CP Maximum Building Heights, PDF p.23 (printed p.17)", "fill_color": "#f58918", "georef_rms_m": 0.17, "confidence": "high"}, "geometry": {"type": "Polygon", "coordinates": [[[-122.387262, 37.7206864], [-122.3872662, 37.7206817], [-122.386469, 37.7202301], [-122.386053, 37.7206934], [-122.3868504, 37.7211449], [-122.387262, 37.7206864]]]}}, {"type": "Feature", "properties": {"height_ft": 65, "height_rule": null, "height_ft_if_park": null, "block_id": "AG-9", "innovation_district_parcel": null, "area_acres": 1.026, "source": "FEIR Addendum 7 (Aug 2024) Figure 5, Proposed 2024 CP Maximum Building Heights, PDF p.23 (printed p.17)", "fill_color": "#f58918", "georef_rms_m": 0.17, "confidence": "high"}, "geometry": {"type": "Polygon", "coordinates": [[[-122.3870775, 37.7192579], [-122.3874361, 37.7188564], [-122.3867356, 37.7184591], [-122.3863757, 37.7188607], [-122.3870775, 37.7192579]]]}}, {"type": "Feature", "properties": {"height_ft": 65, "height_rule": null, "height_ft_if_park": null, "block_id": "AG-12", "innovation_district_parcel": null, "area_acres": 1.138, "source": "FEIR Addendum 7 (Aug 2024) Figure 5, Proposed 2024 CP Maximum Building Heights, PDF p.23 (printed p.17)", "fill_color": "#f58918", "georef_rms_m": 0.17, "confidence": "high"}, "geometry": {"type": "Polygon", "coordinates": [[[-122.3873521, 37.7205474], [-122.3877135, 37.7201445], [-122.3869382, 37.7197062], [-122.3865768, 37.720109], [-122.3873521, 37.7205474]]]}}, {"type": "Feature", "properties": {"height_ft": 65, "height_rule": null, "height_ft_if_park": null, "block_id": "AG-18", "innovation_district_parcel": null, "area_acres": 0.849, "source": "FEIR Addendum 7 (Aug 2024) Figure 5, Proposed 2024 CP Maximum Building Heights, PDF p.23 (printed p.17)", "fill_color": "#f58918", "georef_rms_m": 0.17, "confidence": "high"}, "geometry": {"type": "Polygon", "coordinates": [[[-122.3878853, 37.7210391], [-122.3878854, 37.7210391], [-122.3873746, 37.72075], [-122.3869637, 37.7212088], [-122.3874688, 37.7214948], [-122.3878852, 37.7210392], [-122.3878853, 37.7210392], [-122.3878853, 37.7210391]]]}}, {"type": "Feature", "properties": {"height_ft": 65, "height_rule": null, "height_ft_if_park": null, "block_id": "AG-13", "innovation_district_parcel": null, "area_acres": 1.137, "source": "FEIR Addendum 7 (Aug 2024) Figure 5, Proposed 2024 CP Maximum Building Heights, PDF p.23 (printed p.17)", "fill_color": "#f58918", "georef_rms_m": 0.17, "confidence": "high"}, "geometry": {"type": "Polygon", "coordinates": [[[-122.3880301, 37.7197964], [-122.3883901, 37.7193961], [-122.3876119, 37.7189555], [-122.3872519, 37.7193558], [-122.3880301, 37.7197964]]]}}, {"type": "Feature", "properties": {"height_ft": 65, "height_rule": null, "height_ft_if_park": null, "block_id": "AG-17", "innovation_district_parcel": null, "area_acres": 0.702, "source": "FEIR Addendum 7 (Aug 2024) Figure 5, Proposed 2024 CP Maximum Building Heights, PDF p.23 (printed p.17)", "fill_color": "#f58918", "georef_rms_m": 0.17, "confidence": "high"}, "geometry": {"type": "Polygon", "coordinates": [[[-122.3883508, 37.7205051], [-122.3883509, 37.7205051], [-122.3878716, 37.7202336], [-122.3875104, 37.7206375], [-122.3879867, 37.7209066], [-122.3883508, 37.7205052], [-122.3883508, 37.7205051]]]}}, {"type": "Feature", "properties": {"height_ft": 65, "height_rule": null, "height_ft_if_park": null, "block_id": "AG-16", "innovation_district_parcel": null, "area_acres": 0.701, "source": "FEIR Addendum 7 (Aug 2024) Figure 5, Proposed 2024 CP Maximum Building Heights, PDF p.23 (printed p.17)", "fill_color": "#f58918", "georef_rms_m": 0.17, "confidence": "high"}, "geometry": {"type": "Polygon", "coordinates": [[[-122.389023, 37.7197541], [-122.389023, 37.719754], [-122.3885425, 37.7194817], [-122.3881824, 37.7198833], [-122.3886602, 37.7201533], [-122.389023, 37.7197541]]]}}, {"type": "Feature", "properties": {"height_ft": 40, "height_rule": null, "height_ft_if_park": null, "block_id": "CS-3", "innovation_district_parcel": null, "area_acres": 0.31, "source": "FEIR Addendum 7 (Aug 2024) Figure 5, Proposed 2024 CP Maximum Building Heights, PDF p.23 (printed p.17)", "fill_color": "#f8df25", "georef_rms_m": 0.17, "confidence": "high"}, "geometry": {"type": "Polygon", "coordinates": [[[-122.3804538, 37.7137494], [-122.3809016, 37.7132499], [-122.3809011, 37.7132495], [-122.3807319, 37.7131535], [-122.3802836, 37.7136529], [-122.380453, 37.7137489], [-122.3804538, 37.7137494]]]}}, {"type": "Feature", "properties": {"height_ft": 40, "height_rule": null, "height_ft_if_park": null, "block_id": "CS-5", "innovation_district_parcel": null, "area_acres": 0.309, "source": "FEIR Addendum 7 (Aug 2024) Figure 5, Proposed 2024 CP Maximum Building Heights, PDF p.23 (printed p.17)", "fill_color": "#f8df25", "georef_rms_m": 0.17, "confidence": "high"}, "geometry": {"type": "Polygon", "coordinates": [[[-122.38101, 37.7131291], [-122.3814576, 37.7126295], [-122.3814572, 37.7126291], [-122.3812883, 37.7125334], [-122.3808405, 37.7130324], [-122.3810089, 37.7131284], [-122.38101, 37.7131291]]]}}, {"type": "Feature", "properties": {"height_ft": 40, "height_rule": null, "height_ft_if_park": null, "block_id": "CS-12a", "innovation_district_parcel": null, "area_acres": 1.625, "source": "FEIR Addendum 7 (Aug 2024) Figure 5, Proposed 2024 CP Maximum Building Heights, PDF p.23 (printed p.17)", "fill_color": "#f8df25", "georef_rms_m": 0.17, "confidence": "high"}, "geometry": {"type": "Polygon", "coordinates": [[[-122.3814791, 37.7114149], [-122.3824549, 37.7106865], [-122.3817699, 37.7101078], [-122.3817698, 37.7101078], [-122.3817206, 37.7101523], [-122.3816625, 37.7102141], [-122.3816119, 37.7102799], [-122.381569, 37.710349], [-122.3815338, 37.7104208], [-122.3815065, 37.7104948], [-122.381487, 37.7105703], [-122.3814755, 37.7106469], [-122.3814721, 37.7107239], [-122.3814791, 37.7114149]]]}}, {"type": "Feature", "properties": {"height_ft": 40, "height_rule": null, "height_ft_if_park": null, "block_id": "CS-12b", "innovation_district_parcel": null, "area_acres": 1.444, "source": "FEIR Addendum 7 (Aug 2024) Figure 5, Proposed 2024 CP Maximum Building Heights, PDF p.23 (printed p.17)", "fill_color": "#f8df25", "georef_rms_m": 0.17, "confidence": "high"}, "geometry": {"type": "Polygon", "coordinates": [[[-122.3826049, 37.710575], [-122.3834959, 37.7099099], [-122.3826473, 37.7098465], [-122.3825708, 37.7098432], [-122.3825707, 37.7098432], [-122.3824955, 37.7098437], [-122.3824195, 37.7098489], [-122.3823436, 37.7098584], [-122.3822684, 37.7098722], [-122.3821945, 37.7098902], [-122.3821228, 37.7099122], [-122.3820539, 37.7099381], [-122.3819884, 37.7099677], [-122.3819243, 37.710001], [-122.3826049, 37.710575]]]}}, {"type": "Feature", "properties": {"height_ft": 40, "height_rule": null, "height_ft_if_park": null, "block_id": "AG-5", "innovation_district_parcel": null, "area_acres": 1.551, "source": "FEIR Addendum 7 (Aug 2024) Figure 5, Proposed 2024 CP Maximum Building Heights, PDF p.23 (printed p.17)", "fill_color": "#f8df25", "georef_rms_m": 0.17, "confidence": "high"}, "geometry": {"type": "Polygon", "coordinates": [[[-122.3875907, 37.7187609], [-122.3878092, 37.7185164], [-122.3869857, 37.7180503], [-122.3860698, 37.7175319], [-122.3858499, 37.7177762], [-122.3867669, 37.7182951], [-122.3875906, 37.7187611], [-122.3875907, 37.7187609]]]}}, {"type": "Feature", "properties": {"height_ft": 40, "height_rule": null, "height_ft_if_park": null, "block_id": "AG-6", "innovation_district_parcel": null, "area_acres": 0.802, "source": "FEIR Addendum 7 (Aug 2024) Figure 5, Proposed 2024 CP Maximum Building Heights, PDF p.23 (printed p.17)", "fill_color": "#f8df25", "georef_rms_m": 0.17, "confidence": "high"}, "geometry": {"type": "Polygon", "coordinates": [[[-122.3873225, 37.7168951], [-122.3873225, 37.716895], [-122.3873224, 37.7168949], [-122.3873223, 37.7168949], [-122.3868724, 37.7166412], [-122.3864342, 37.7171302], [-122.3868839, 37.7173849], [-122.386884, 37.7173849], [-122.3873225, 37.7168951]]]}}, {"type": "Feature", "properties": {"height_ft": 40, "height_rule": null, "height_ft_if_park": null, "block_id": "AG-7", "innovation_district_parcel": null, "area_acres": 0.819, "source": "FEIR Addendum 7 (Aug 2024) Figure 5, Proposed 2024 CP Maximum Building Heights, PDF p.23 (printed p.17)", "fill_color": "#f8df25", "georef_rms_m": 0.17, "confidence": "high"}, "geometry": {"type": "Polygon", "coordinates": [[[-122.3874028, 37.7168057], [-122.3878504, 37.7163059], [-122.387402, 37.7160511], [-122.3869532, 37.7165513], [-122.3869537, 37.7165515], [-122.3874022, 37.7168053], [-122.3874028, 37.7168057]]]}}, {"type": "Feature", "properties": {"height_ft": 40, "height_rule": null, "height_ft_if_park": null, "block_id": "AG-18", "innovation_district_parcel": null, "area_acres": 0.461, "source": "FEIR Addendum 7 (Aug 2024) Figure 5, Proposed 2024 CP Maximum Building Heights, PDF p.23 (printed p.17)", "fill_color": "#f8df25", "georef_rms_m": 0.17, "confidence": "high"}, "geometry": {"type": "Polygon", "coordinates": [[[-122.3877471, 37.7216524], [-122.3881589, 37.7211938], [-122.3878853, 37.7210391], [-122.3874688, 37.7214949], [-122.3877471, 37.7216524]]]}}, {"type": "Feature", "properties": {"height_ft": 40, "height_rule": null, "height_ft_if_park": null, "block_id": "AG-14", "innovation_district_parcel": null, "area_acres": 1.55, "source": "FEIR Addendum 7 (Aug 2024) Figure 5, Proposed 2024 CP Maximum Building Heights, PDF p.23 (printed p.17)", "fill_color": "#f8df25", "georef_rms_m": 0.17, "confidence": "high"}, "geometry": {"type": "Polygon", "coordinates": [[[-122.3894152, 37.7197934], [-122.3896336, 37.7195489], [-122.3887935, 37.7190733], [-122.3878942, 37.7185643], [-122.3876746, 37.7188086], [-122.3885746, 37.7193178], [-122.3894152, 37.7197934]]]}}, {"type": "Feature", "properties": {"height_ft": 40, "height_rule": null, "height_ft_if_park": null, "block_id": "AG-17", "innovation_district_parcel": null, "area_acres": 0.418, "source": "FEIR Addendum 7 (Aug 2024) Figure 5, Proposed 2024 CP Maximum Building Heights, PDF p.23 (printed p.17)", "fill_color": "#f8df25", "georef_rms_m": 0.17, "confidence": "high"}, "geometry": {"type": "Polygon", "coordinates": [[[-122.3882723, 37.721068], [-122.3886337, 37.7206652], [-122.3883509, 37.7205051], [-122.3879864, 37.720907], [-122.3882723, 37.721068]]]}}, {"type": "Feature", "properties": {"height_ft": 40, "height_rule": null, "height_ft_if_park": null, "block_id": "AG-16", "innovation_district_parcel": null, "area_acres": 0.417, "source": "FEIR Addendum 7 (Aug 2024) Figure 5, Proposed 2024 CP Maximum Building Heights, PDF p.23 (printed p.17)", "fill_color": "#f8df25", "georef_rms_m": 0.17, "confidence": "high"}, "geometry": {"type": "Polygon", "coordinates": [[[-122.3889456, 37.7203149], [-122.3893072, 37.7199142], [-122.3890231, 37.719754], [-122.389023, 37.719754], [-122.3886597, 37.7201538], [-122.3886597, 37.7201539], [-122.3889456, 37.7203149]]]}}, {"type": "Feature", "properties": {"height_ft": 65, "height_rule": "40 ft if park, 65 ft if development parcel", "height_ft_if_park": 40, "block_id": "CN-12", "innovation_district_parcel": null, "area_acres": 3.124, "source": "FEIR Addendum 7 (Aug 2024) Figure 5, Proposed 2024 CP Maximum Building Heights, PDF p.23 (printed p.17)", "fill_color": "#f8df25", "georef_rms_m": 0.17, "confidence": "high"}, "geometry": {"type": "Polygon", "coordinates": [[[-122.3840968, 37.717726], [-122.3850773, 37.716633], [-122.3842933, 37.716189], [-122.3833129, 37.7172832], [-122.3840968, 37.717726]]]}}, {"type": "Feature", "properties": {"height_ft": 80, "height_rule": null, "height_ft_if_park": null, "block_id": "CS-6a", "innovation_district_parcel": null, "area_acres": 0.31, "source": "FEIR Addendum 7 (Aug 2024) Figure 5, Proposed 2024 CP Maximum Building Heights, PDF p.23 (printed p.17)", "fill_color": "#a28471", "georef_rms_m": 0.17, "confidence": "high"}, "geometry": {"type": "Polygon", "coordinates": [[[-122.3831367, 37.7133283], [-122.3837023, 37.7129049], [-122.3835603, 37.7127849], [-122.3831166, 37.7131166], [-122.382995, 37.713208], [-122.3831367, 37.7133283]]]}}, {"type": "Feature", "properties": {"height_ft": 80, "height_rule": null, "height_ft_if_park": null, "block_id": "CN-11a", "innovation_district_parcel": null, "area_acres": 0.402, "source": "FEIR Addendum 7 (Aug 2024) Figure 5, Proposed 2024 CP Maximum Building Heights, PDF p.23 (printed p.17)", "fill_color": "#a28471", "georef_rms_m": 0.17, "confidence": "high"}, "geometry": {"type": "Polygon", "coordinates": [[[-122.384141, 37.7145212], [-122.3843277, 37.7143132], [-122.3835233, 37.7138569], [-122.3837939, 37.7140108], [-122.383794, 37.7140108], [-122.383794, 37.7140109], [-122.383794, 37.714011], [-122.3836125, 37.7142177], [-122.384141, 37.7145212]]]}}, {"type": "Feature", "properties": {"height_ft": 80, "height_rule": null, "height_ft_if_park": null, "block_id": "CS-8a", "innovation_district_parcel": null, "area_acres": 0.326, "source": "FEIR Addendum 7 (Aug 2024) Figure 5, Proposed 2024 CP Maximum Building Heights, PDF p.23 (printed p.17)", "fill_color": "#a28471", "georef_rms_m": 0.17, "confidence": "high"}, "geometry": {"type": "Polygon", "coordinates": [[[-122.3840377, 37.7126549], [-122.3844335, 37.7123594], [-122.3842903, 37.7122392], [-122.383896, 37.7125347], [-122.383896, 37.7125348], [-122.3838959, 37.7125348], [-122.3838958, 37.7125348], [-122.3836969, 37.7126834], [-122.3838396, 37.712804], [-122.3840377, 37.7126551], [-122.3840377, 37.712655], [-122.3840377, 37.7126549]]]}}, {"type": "Feature", "properties": {"height_ft": 80, "height_rule": null, "height_ft_if_park": null, "block_id": "CN-10a", "innovation_district_parcel": null, "area_acres": 0.545, "source": "FEIR Addendum 7 (Aug 2024) Figure 5, Proposed 2024 CP Maximum Building Heights, PDF p.23 (printed p.17)", "fill_color": "#a28471", "georef_rms_m": 0.17, "confidence": "high"}, "geometry": {"type": "Polygon", "coordinates": [[[-122.3850261, 37.7150228], [-122.3852128, 37.7148146], [-122.3844919, 37.7144044], [-122.3843073, 37.7146101], [-122.3850261, 37.7150228]]]}}, {"type": "Feature", "properties": {"height_ft": 80, "height_rule": null, "height_ft_if_park": null, "block_id": "CS-9a", "innovation_district_parcel": null, "area_acres": 0.327, "source": "FEIR Addendum 7 (Aug 2024) Figure 5, Proposed 2024 CP Maximum Building Heights, PDF p.23 (printed p.17)", "fill_color": "#a28471", "georef_rms_m": 0.17, "confidence": "high"}, "geometry": {"type": "Polygon", "coordinates": [[[-122.3845776, 37.7122434], [-122.3851956, 37.7117825], [-122.3850579, 37.711666], [-122.3844406, 37.7121276], [-122.3845776, 37.7122434]]]}}, {"type": "Feature", "properties": {"height_ft": 80, "height_rule": null, "height_ft_if_park": null, "block_id": "CS-11a", "innovation_district_parcel": null, "area_acres": 0.414, "source": "FEIR Addendum 7 (Aug 2024) Figure 5, Proposed 2024 CP Maximum Building Heights, PDF p.23 (printed p.17)", "fill_color": "#a28471", "georef_rms_m": 0.17, "confidence": "high"}, "geometry": {"type": "Polygon", "coordinates": [[[-122.3853328, 37.7116805], [-122.386119, 37.7110927], [-122.3860373, 37.7110284], [-122.3860226, 37.7110173], [-122.3859736, 37.7109825], [-122.3851958, 37.7115645], [-122.3853328, 37.7116805]]]}}, {"type": "Feature", "properties": {"height_ft": 80, "height_rule": null, "height_ft_if_park": null, "block_id": "CN-2a", "innovation_district_parcel": null, "area_acres": 0.542, "source": "FEIR Addendum 7 (Aug 2024) Figure 5, Proposed 2024 CP Maximum Building Heights, PDF p.23 (printed p.17)", "fill_color": "#a28471", "georef_rms_m": 0.17, "confidence": "high"}, "geometry": {"type": "Polygon", "coordinates": [[[-122.3860193, 37.7155827], [-122.3862059, 37.7153746], [-122.385484, 37.7149661], [-122.385301, 37.7151702], [-122.3860193, 37.7155827]]]}}, {"type": "Feature", "properties": {"height_ft": 80, "height_rule": null, "height_ft_if_park": null, "block_id": "CN-1a", "innovation_district_parcel": null, "area_acres": 0.598, "source": "FEIR Addendum 7 (Aug 2024) Figure 5, Proposed 2024 CP Maximum Building Heights, PDF p.23 (printed p.17)", "fill_color": "#a28471", "georef_rms_m": 0.17, "confidence": "high"}, "geometry": {"type": "Polygon", "coordinates": [[[-122.3869778, 37.7161257], [-122.3871645, 37.7159175], [-122.3863689, 37.715467], [-122.3863688, 37.715467], [-122.3861861, 37.7156709], [-122.3869778, 37.7161257]]]}}, {"type": "Feature", "properties": {"height_ft": 85, "height_rule": null, "height_ft_if_park": null, "block_id": "CN-9b", "innovation_district_parcel": null, "area_acres": 0.515, "source": "FEIR Addendum 7 (Aug 2024) Figure 5, Proposed 2024 CP Maximum Building Heights, PDF p.23 (printed p.17)", "fill_color": "#cd4550", "georef_rms_m": 0.17, "confidence": "high"}, "geometry": {"type": "Polygon", "coordinates": [[[-122.3816883, 37.7163644], [-122.3821486, 37.7158402], [-122.3818815, 37.7156888], [-122.3814124, 37.7162085], [-122.3816883, 37.7163644]]]}}, {"type": "Feature", "properties": {"height_ft": 85, "height_rule": null, "height_ft_if_park": null, "block_id": "CN-9a", "innovation_district_parcel": null, "area_acres": 0.481, "source": "FEIR Addendum 7 (Aug 2024) Figure 5, Proposed 2024 CP Maximum Building Heights, PDF p.23 (printed p.17)", "fill_color": "#cd4550", "georef_rms_m": 0.17, "confidence": "high"}, "geometry": {"type": "Polygon", "coordinates": [[[-122.3822375, 37.7157555], [-122.3826655, 37.7152679], [-122.3823958, 37.7151153], [-122.3819616, 37.7155995], [-122.3822375, 37.7157555]]]}}, {"type": "Feature", "properties": {"height_ft": 85, "height_rule": null, "height_ft_if_park": null, "block_id": "CN-11b", "innovation_district_parcel": null, "area_acres": 0.5, "source": "FEIR Addendum 7 (Aug 2024) Figure 5, Proposed 2024 CP Maximum Building Heights, PDF p.23 (printed p.17)", "fill_color": "#cd4550", "georef_rms_m": 0.17, "confidence": "high"}, "geometry": {"type": "Polygon", "coordinates": [[[-122.3828228, 37.7151032], [-122.3832646, 37.7145996], [-122.3829938, 37.7144458], [-122.3825455, 37.7149452], [-122.3828228, 37.7151032]]]}}, {"type": "Feature", "properties": {"height_ft": 85, "height_rule": null, "height_ft_if_park": null, "block_id": "CN-11a", "innovation_district_parcel": null, "area_acres": 0.5, "source": "FEIR Addendum 7 (Aug 2024) Figure 5, Proposed 2024 CP Maximum Building Heights, PDF p.23 (printed p.17)", "fill_color": "#cd4550", "georef_rms_m": 0.17, "confidence": "high"}, "geometry": {"type": "Polygon", "coordinates": [[[-122.3833523, 37.7145143], [-122.383794, 37.7140109], [-122.3835233, 37.7138569], [-122.383075, 37.7143563], [-122.3833523, 37.7145143]]]}}]}