{"type": "FeatureCollection", "metadata": {"title": "Candlestick Center Innovation District boundary and parcels A-N", "crs": "EPSG:4326 (lon, lat)", "generated": "2026-10-09", "georeferencing": "see georeferencing.json in this folder"}, "features": [{"type": "Feature", "properties": {"kind": "innovation_district_boundary", "name": "Candlestick Center Innovation District", "area_acres": 22.3, "derivation": "outline of parcels A-N (Addendum 7 Fig 5 vector, 3 ft morphological closing of hairline gaps)", "check_vs_d4d_block_plan_CC1": {"CC1_area_acres": 22.35, "table_7_3_acres": 22.29, "IoU": 0.997}, "check_vs_fig3_innovation_district_land_use_acres": 22.38, "confidence": "high"}, "geometry": {"type": "Polygon", "coordinates": [[[-122.3875231, 37.7152829], [-122.3875232, 37.7152827], [-122.3875232, 37.7152821], [-122.3875405, 37.7151749], [-122.3875405, 37.7151747], [-122.3875405, 37.7151746], [-122.3875405, 37.7151741], [-122.3875491, 37.7150693], [-122.3875491, 37.715069], [-122.3875491, 37.7149616], [-122.3875491, 37.7149614], [-122.387549, 37.714961], [-122.3875489, 37.71496], [-122.3875488, 37.7149595], [-122.3875412, 37.7148813], [-122.3875412, 37.7148812], [-122.3874537, 37.714209], [-122.3874537, 37.7142086], [-122.3874536, 37.7142078], [-122.3874536, 37.714207], [-122.3874536, 37.7142063], [-122.3874536, 37.7142061], [-122.3873511, 37.7134061], [-122.387351, 37.7134056], [-122.387351, 37.7134047], [-122.3873511, 37.7134039], [-122.3873512, 37.7134036], [-122.3873512, 37.7134034], [-122.3872852, 37.7128848], [-122.3872851, 37.7128846], [-122.3872851, 37.7128841], [-122.3872817, 37.7128623], [-122.3872817, 37.7128619], [-122.3872816, 37.7128612], [-122.3872677, 37.7127748], [-122.3872676, 37.7127745], [-122.3872455, 37.7126911], [-122.3872454, 37.7126909], [-122.3872453, 37.7126906], [-122.387245, 37.7126899], [-122.3872448, 37.7126892], [-122.3872447, 37.7126888], [-122.3872446, 37.7126885], [-122.3872137, 37.71259], [-122.3872136, 37.7125896], [-122.3871708, 37.7124949], [-122.3871704, 37.7124939], [-122.3871702, 37.7124932], [-122.3871702, 37.712493], [-122.3871701, 37.7124929], [-122.387122, 37.7123991], [-122.3871218, 37.7123987], [-122.3870617, 37.7123082], [-122.3870616, 37.7123081], [-122.3868673, 37.7120283], [-122.3868669, 37.7120275], [-122.3868665, 37.7120267], [-122.3868662, 37.7120258], [-122.3868661, 37.712025], [-122.3868661, 37.7120243], [-122.386866, 37.7120242], [-122.3868659, 37.712024], [-122.3863983, 37.7113546], [-122.3863981, 37.7113544], [-122.3863979, 37.7113543], [-122.3863837, 37.7113434], [-122.3863835, 37.7113433], [-122.3863833, 37.7113432], [-122.3863661, 37.7113344], [-122.3863658, 37.7113343], [-122.3863656, 37.7113343], [-122.3863489, 37.7113346], [-122.3863486, 37.7113346], [-122.3863484, 37.7113347], [-122.3863287, 37.7113395], [-122.3863285, 37.7113395], [-122.3863283, 37.7113396], [-122.3862154, 37.7113962], [-122.3862147, 37.7113966], [-122.3862145, 37.7113967], [-122.3862139, 37.7113969], [-122.3862136, 37.711397], [-122.3861077, 37.7114597], [-122.386107, 37.7114601], [-122.3861063, 37.7114604], [-122.3861062, 37.7114604], [-122.386106, 37.7114606], [-122.3860049, 37.7115308], [-122.3860047, 37.7115309], [-122.3854901, 37.7119132], [-122.3854899, 37.7119133], [-122.3854899, 37.7119134], [-122.3854893, 37.7119139], [-122.3854887, 37.7119145], [-122.3854879, 37.7119151], [-122.3854871, 37.7119156], [-122.3854867, 37.7119158], [-122.3854866, 37.7119159], [-122.3851032, 37.7122036], [-122.3851022, 37.7122043], [-122.385102, 37.7122045], [-122.3849811, 37.7123002], [-122.3849809, 37.7123003], [-122.3848626, 37.7124007], [-122.3848624, 37.7124008], [-122.3847542, 37.7125045], [-122.384754, 37.7125047], [-122.3847538, 37.7125049], [-122.3847532, 37.7125057], [-122.3847524, 37.7125064], [-122.3847516, 37.712507], [-122.3847514, 37.7125071], [-122.3847513, 37.7125073], [-122.3846546, 37.7126107], [-122.3846546, 37.7126108], [-122.3843579, 37.712941], [-122.3843579, 37.7129411], [-122.3843573, 37.7129417], [-122.3843566, 37.7129423], [-122.3843559, 37.7129429], [-122.3843551, 37.7129434], [-122.3843548, 37.7129435], [-122.3843546, 37.7129437], [-122.3837284, 37.7136457], [-122.3837277, 37.7136464], [-122.3837275, 37.7136466], [-122.3837274, 37.7136468], [-122.3837165, 37.7136626], [-122.3837164, 37.7136628], [-122.3837164, 37.713663], [-122.3837141, 37.713681], [-122.3837141, 37.7136812], [-122.3837141, 37.7136814], [-122.38372, 37.7136983], [-122.3837201, 37.7136985], [-122.3837202, 37.7136986], [-122.3837207, 37.7136992], [-122.3837212, 37.7136998], [-122.3837217, 37.7137005], [-122.383722, 37.7137011], [-122.383722, 37.7137012], [-122.3837222, 37.7137013], [-122.3837408, 37.7137196], [-122.3837409, 37.7137198], [-122.3837411, 37.7137199], [-122.3849184, 37.714387], [-122.3849186, 37.7143871], [-122.3849187, 37.7143871], [-122.3849194, 37.7143873], [-122.3849204, 37.7143876], [-122.3849212, 37.714388], [-122.384922, 37.7143885], [-122.3849228, 37.714389], [-122.3849235, 37.7143895], [-122.3849241, 37.7143902], [-122.3849247, 37.7143908], [-122.3849248, 37.714391], [-122.384925, 37.7143913], [-122.3849252, 37.7143914], [-122.3854992, 37.7147167], [-122.3854994, 37.7147168], [-122.3854996, 37.7147168], [-122.3855003, 37.7147168], [-122.3855014, 37.7147169], [-122.3855025, 37.7147171], [-122.3855035, 37.7147174], [-122.3855045, 37.7147178], [-122.3855054, 37.7147183], [-122.3864395, 37.7152457], [-122.3864397, 37.7152458], [-122.3864406, 37.7152463], [-122.3864413, 37.7152468], [-122.386442, 37.7152474], [-122.3864427, 37.7152481], [-122.3864427, 37.7152482], [-122.386443, 37.7152485], [-122.3864432, 37.7152486], [-122.3872542, 37.7157065], [-122.3872546, 37.7157067], [-122.3872552, 37.715707], [-122.3872808, 37.7157177], [-122.387281, 37.7157178], [-122.3872813, 37.7157178], [-122.3873096, 37.7157173], [-122.3873099, 37.7157173], [-122.3873101, 37.7157172], [-122.3873353, 37.7157056], [-122.3873355, 37.7157055], [-122.3873357, 37.7157053], [-122.3873521, 37.7156893], [-122.3873523, 37.7156891], [-122.3873525, 37.7156889], [-122.3874101, 37.7155921], [-122.3874105, 37.7155915], [-122.3874107, 37.7155913], [-122.3874108, 37.7155911], [-122.3874109, 37.715591], [-122.3874566, 37.7154903], [-122.3874567, 37.7154901], [-122.3874567, 37.71549], [-122.3874567, 37.7154899], [-122.387457, 37.7154891], [-122.3874942, 37.7153865], [-122.3874943, 37.7153862], [-122.3875231, 37.7152829]]]}}, {"type": "Feature", "properties": {"kind": "innovation_district_parcel", "parcel": "M", "height_ft": 85, "signature_building": true, "area_acres": 1.11, "height_source": "FEIR Addendum 7 Fig 5 (PDF p.23) fill colour; same colour class in D4D Fig A5.3N", "raster_colour_class_check": true, "letter_source": "D4D 2024 Figure A5.3N (PDF p.38, raster) registered onto the Fig 5 vector parcels; letter read inside each parcel", "geometry_source": "FEIR Addendum 7 Figure 5 (vector), PDF p.23", "note": "Heights may be increased along the diagonal plane up to the adjacent height district (Fig A5.3N note: parcels H, K, M)", "confidence": "high (geometry, height); medium-high (letter, visual reading of registered raster)"}, "geometry": {"type": "Polygon", "coordinates": [[[-122.3837339, 37.7136961], [-122.3848197, 37.7136073], [-122.3847801, 37.7133008], [-122.3847798, 37.7133006], [-122.3843548, 37.7129435], [-122.383728, 37.7136462], [-122.3837275, 37.7136466], [-122.3837164, 37.7136628], [-122.3837141, 37.7136812], [-122.3837201, 37.7136985], [-122.3837231, 37.7136971], [-122.3837339, 37.7136961]]]}}, {"type": "Feature", "properties": {"kind": "innovation_district_parcel", "parcel": "N", "height_ft": 85, "signature_building": true, "area_acres": 1.05, "height_source": "FEIR Addendum 7 Fig 5 (PDF p.23) fill colour; same colour class in D4D Fig A5.3N", "raster_colour_class_check": true, "letter_source": "D4D 2024 Figure A5.3N (PDF p.38, raster) registered onto the Fig 5 vector parcels; letter read inside each parcel", "geometry_source": "FEIR Addendum 7 Figure 5 (vector), PDF p.23", "note": null, "confidence": "high (geometry, height); medium-high (letter, visual reading of registered raster)"}, "geometry": {"type": "Polygon", "coordinates": [[[-122.3848203, 37.7136121], [-122.3837385, 37.7136997], [-122.3837261, 37.7137007], [-122.3837237, 37.7137009], [-122.383722, 37.7137012], [-122.3837409, 37.7137198], [-122.3849186, 37.7143871], [-122.3848696, 37.7139996], [-122.3848203, 37.7136121]]]}}, {"type": "Feature", "properties": {"kind": "innovation_district_parcel", "parcel": "K", "height_ft": 120, "signature_building": false, "area_acres": 1.65, "height_source": "FEIR Addendum 7 Fig 5 (PDF p.23) fill colour; same colour class in D4D Fig A5.3N", "raster_colour_class_check": true, "letter_source": "D4D 2024 Figure A5.3N (PDF p.38, raster) registered onto the Fig 5 vector parcels; letter read inside each parcel", "geometry_source": "FEIR Addendum 7 Figure 5 (vector), PDF p.23", "note": "Heights may be increased along the diagonal plane up to the adjacent height district (Fig A5.3N note: parcels H, K, M)", "confidence": "high (geometry, height); medium-high (letter, visual reading of registered raster)"}, "geometry": {"type": "Polygon", "coordinates": [[[-122.3847832, 37.7133005], [-122.384823, 37.7136071], [-122.3851541, 37.713581], [-122.385485, 37.7135546], [-122.3854232, 37.7130723], [-122.3854231, 37.713072], [-122.3851782, 37.7128676], [-122.3847514, 37.7125071], [-122.3846546, 37.7126107], [-122.3843578, 37.7129412], [-122.3847829, 37.7132985], [-122.3847832, 37.7133005]]]}}, {"type": "Feature", "properties": {"kind": "innovation_district_parcel", "parcel": "C", "height_ft": 120, "signature_building": false, "area_acres": 1.69, "height_source": "FEIR Addendum 7 Fig 5 (PDF p.23) fill colour; same colour class in D4D Fig A5.3N", "raster_colour_class_check": true, "letter_source": "D4D 2024 Figure A5.3N (PDF p.38, raster) registered onto the Fig 5 vector parcels; letter read inside each parcel", "geometry_source": "FEIR Addendum 7 Figure 5 (vector), PDF p.23", "note": null, "confidence": "high (geometry, height); medium-high (letter, visual reading of registered raster)"}, "geometry": {"type": "Polygon", "coordinates": [[[-122.386231, 37.7134936], [-122.3862738, 37.7134907], [-122.3862743, 37.7134907], [-122.3873512, 37.7134036], [-122.3872851, 37.7128846], [-122.3872851, 37.7128843], [-122.3872816, 37.7128619], [-122.3872816, 37.7128615], [-122.3872676, 37.7127747], [-122.3872454, 37.7126909], [-122.3861653, 37.7129769], [-122.3861917, 37.7131854], [-122.386231, 37.7134936]]]}}, {"type": "Feature", "properties": {"kind": "innovation_district_parcel", "parcel": "H", "height_ft": 120, "signature_building": false, "area_acres": 1.98, "height_source": "FEIR Addendum 7 Fig 5 (PDF p.23) fill colour; same colour class in D4D Fig A5.3N", "raster_colour_class_check": true, "letter_source": "D4D 2024 Figure A5.3N (PDF p.38, raster) registered onto the Fig 5 vector parcels; letter read inside each parcel", "geometry_source": "FEIR Addendum 7 Figure 5 (vector), PDF p.23", "note": "Heights may be increased along the diagonal plane up to the adjacent height district (Fig A5.3N note: parcels H, K, M)", "confidence": "high (geometry, height); medium-high (letter, visual reading of registered raster)"}, "geometry": {"type": "Polygon", "coordinates": [[[-122.3854246, 37.7130709], [-122.385426, 37.713072], [-122.3854882, 37.7135545], [-122.3858582, 37.7135243], [-122.386228, 37.7134938], [-122.3861771, 37.7130942], [-122.3861625, 37.7129769], [-122.3861623, 37.7129769], [-122.3860926, 37.7124279], [-122.3860716, 37.7124101], [-122.3860689, 37.7124078], [-122.3860537, 37.712395], [-122.3859405, 37.712301], [-122.3859402, 37.7123011], [-122.3852506, 37.7128154], [-122.3852191, 37.7128389], [-122.385184, 37.7128654], [-122.3854246, 37.7130709]]]}}, {"type": "Feature", "properties": {"kind": "innovation_district_parcel", "parcel": "G", "height_ft": 160, "signature_building": false, "area_acres": 1.3, "height_source": "FEIR Addendum 7 Fig 5 (PDF p.23) fill colour; same colour class in D4D Fig A5.3N", "raster_colour_class_check": true, "letter_source": "D4D 2024 Figure A5.3N (PDF p.38, raster) registered onto the Fig 5 vector parcels; letter read inside each parcel", "geometry_source": "FEIR Addendum 7 Figure 5 (vector), PDF p.23", "note": null, "confidence": "high (geometry, height); medium-high (letter, visual reading of registered raster)"}, "geometry": {"type": "Polygon", "coordinates": [[[-122.3847542, 37.7125049], [-122.3851808, 37.712863], [-122.3851811, 37.712863], [-122.3859373, 37.7122986], [-122.3854867, 37.7119158], [-122.3851025, 37.7122042], [-122.3851022, 37.7122043], [-122.384981, 37.7123003], [-122.3848625, 37.7124007], [-122.384754, 37.7125047], [-122.3847542, 37.7125049]]]}}, {"type": "Feature", "properties": {"kind": "innovation_district_parcel", "parcel": "L", "height_ft": 160, "signature_building": false, "area_acres": 1.6, "height_source": "FEIR Addendum 7 Fig 5 (PDF p.23) fill colour; same colour class in D4D Fig A5.3N", "raster_colour_class_check": true, "letter_source": "D4D 2024 Figure A5.3N (PDF p.38, raster) registered onto the Fig 5 vector parcels; letter read inside each parcel", "geometry_source": "FEIR Addendum 7 Figure 5 (vector), PDF p.23", "note": null, "confidence": "high (geometry, height); medium-high (letter, visual reading of registered raster)"}, "geometry": {"type": "Polygon", "coordinates": [[[-122.3854994, 37.7147168], [-122.3855583, 37.7146515], [-122.3856167, 37.7145843], [-122.3854854, 37.7135572], [-122.3851542, 37.7135844], [-122.3848237, 37.7136118], [-122.384925, 37.7143913], [-122.3854994, 37.7147168]]]}}, {"type": "Feature", "properties": {"kind": "innovation_district_parcel", "parcel": "J", "height_ft": 160, "signature_building": false, "area_acres": 1.15, "height_source": "FEIR Addendum 7 Fig 5 (PDF p.23) fill colour; same colour class in D4D Fig A5.3N", "raster_colour_class_check": true, "letter_source": "D4D 2024 Figure A5.3N (PDF p.38, raster) registered onto the Fig 5 vector parcels; letter read inside each parcel", "geometry_source": "FEIR Addendum 7 Figure 5 (vector), PDF p.23", "note": null, "confidence": "high (geometry, height); medium-high (letter, visual reading of registered raster)"}, "geometry": {"type": "Polygon", "coordinates": [[[-122.3868653, 37.7147703], [-122.3863761, 37.7146311], [-122.3863744, 37.7146306], [-122.3863677, 37.7145748], [-122.3863669, 37.7145712], [-122.3856851, 37.7146264], [-122.3856846, 37.7146264], [-122.3856816, 37.7146247], [-122.38562, 37.7145885], [-122.3855612, 37.7146526], [-122.3855038, 37.7147174], [-122.3864397, 37.7152458], [-122.3868653, 37.7147703]]]}}, {"type": "Feature", "properties": {"kind": "innovation_district_parcel", "parcel": "I", "height_ft": 160, "signature_building": false, "area_acres": 1.93, "height_source": "FEIR Addendum 7 Fig 5 (PDF p.23) fill colour; same colour class in D4D Fig A5.3N", "raster_colour_class_check": true, "letter_source": "D4D 2024 Figure A5.3N (PDF p.38, raster) registered onto the Fig 5 vector parcels; letter read inside each parcel", "geometry_source": "FEIR Addendum 7 Figure 5 (vector), PDF p.23", "note": null, "confidence": "high (geometry, height); medium-high (letter, visual reading of registered raster)"}, "geometry": {"type": "Polygon", "coordinates": [[[-122.38562, 37.7145857], [-122.3856844, 37.7146219], [-122.3863666, 37.7145666], [-122.3863541, 37.7144676], [-122.3862282, 37.7134963], [-122.3858582, 37.7135265], [-122.3854884, 37.713557], [-122.3856197, 37.7145838], [-122.38562, 37.7145857]]]}}, {"type": "Feature", "properties": {"kind": "innovation_district_parcel", "parcel": "A", "height_ft": 180, "signature_building": true, "area_acres": 1.89, "height_source": "FEIR Addendum 7 Fig 5 (PDF p.23) fill colour; same colour class in D4D Fig A5.3N", "raster_colour_class_check": true, "letter_source": "D4D 2024 Figure A5.3N (PDF p.38, raster) registered onto the Fig 5 vector parcels; letter read inside each parcel", "geometry_source": "FEIR Addendum 7 Figure 5 (vector), PDF p.23", "note": null, "confidence": "high (geometry, height); medium-high (letter, visual reading of registered raster)"}, "geometry": {"type": "Polygon", "coordinates": [[[-122.3868661, 37.7120242], [-122.3863981, 37.7113544], [-122.3863835, 37.7113433], [-122.3863658, 37.7113343], [-122.3863486, 37.7113346], [-122.3863285, 37.7113395], [-122.3862147, 37.7113966], [-122.3862139, 37.7113969], [-122.3861067, 37.7114603], [-122.3861062, 37.7114604], [-122.3860048, 37.7115308], [-122.3854899, 37.7119133], [-122.3859404, 37.7122962], [-122.3859417, 37.7122953], [-122.3860624, 37.7123977], [-122.3860686, 37.7124027], [-122.3860717, 37.7124053], [-122.3864691, 37.7122152], [-122.3868661, 37.7120242]]]}}, {"type": "Feature", "properties": {"kind": "innovation_district_parcel", "parcel": "B", "height_ft": 180, "signature_building": false, "area_acres": 1.6, "height_source": "FEIR Addendum 7 Fig 5 (PDF p.23) fill colour; same colour class in D4D Fig A5.3N", "raster_colour_class_check": true, "letter_source": "D4D 2024 Figure A5.3N (PDF p.38, raster) registered onto the Fig 5 vector parcels; letter read inside each parcel", "geometry_source": "FEIR Addendum 7 Figure 5 (vector), PDF p.23", "note": null, "confidence": "high (geometry, height); medium-high (letter, visual reading of registered raster)"}, "geometry": {"type": "Polygon", "coordinates": [[[-122.3860954, 37.7124256], [-122.3860956, 37.7124277], [-122.3861651, 37.7129738], [-122.3872447, 37.7126887], [-122.3872137, 37.7125898], [-122.3871705, 37.7124944], [-122.3871702, 37.712493], [-122.3871219, 37.7123989], [-122.3870617, 37.7123082], [-122.3868666, 37.7120273], [-122.3864706, 37.7122174], [-122.3860803, 37.7124058], [-122.3860755, 37.7124082], [-122.386095, 37.7124254], [-122.3860954, 37.7124256]]]}}, {"type": "Feature", "properties": {"kind": "innovation_district_parcel", "parcel": "D", "height_ft": 180, "signature_building": false, "area_acres": 1.97, "height_source": "FEIR Addendum 7 Fig 5 (PDF p.23) fill colour; same colour class in D4D Fig A5.3N", "raster_colour_class_check": true, "letter_source": "D4D 2024 Figure A5.3N (PDF p.38, raster) registered onto the Fig 5 vector parcels; letter read inside each parcel", "geometry_source": "FEIR Addendum 7 Figure 5 (vector), PDF p.23", "note": null, "confidence": "high (geometry, height); medium-high (letter, visual reading of registered raster)"}, "geometry": {"type": "Polygon", "coordinates": [[[-122.3863148, 37.7141366], [-122.3874536, 37.7142063], [-122.3873511, 37.7134061], [-122.3862745, 37.7134931], [-122.3862744, 37.7134931], [-122.3862338, 37.7134958], [-122.3862312, 37.7134962], [-122.3862498, 37.7136392], [-122.3863148, 37.7141366]]]}}, {"type": "Feature", "properties": {"kind": "innovation_district_parcel", "parcel": "E", "height_ft": 180, "signature_building": false, "area_acres": 1.69, "height_source": "FEIR Addendum 7 Fig 5 (PDF p.23) fill colour; same colour class in D4D Fig A5.3N", "raster_colour_class_check": true, "letter_source": "D4D 2024 Figure A5.3N (PDF p.38, raster) registered onto the Fig 5 vector parcels; letter read inside each parcel", "geometry_source": "FEIR Addendum 7 Figure 5 (vector), PDF p.23", "note": null, "confidence": "high (geometry, height); medium-high (letter, visual reading of registered raster)"}, "geometry": {"type": "Polygon", "coordinates": [[[-122.3874537, 37.7142088], [-122.3863148, 37.7141391], [-122.3863695, 37.7145664], [-122.3863695, 37.7145666], [-122.3863698, 37.7145666], [-122.3863772, 37.7146284], [-122.3868689, 37.7147659], [-122.3868714, 37.7147666], [-122.3875472, 37.7149592], [-122.3875489, 37.7149597], [-122.3875412, 37.7148812], [-122.3874537, 37.7142088]]]}}, {"type": "Feature", "properties": {"kind": "innovation_district_parcel", "parcel": "F", "height_ft": 160, "signature_building": true, "area_acres": 1.54, "height_source": "FEIR Addendum 7 Fig 5 (PDF p.23) fill colour; same colour class in D4D Fig A5.3N", "raster_colour_class_check": true, "letter_source": "D4D 2024 Figure A5.3N (PDF p.38, raster) registered onto the Fig 5 vector parcels; letter read inside each parcel", "geometry_source": "FEIR Addendum 7 Figure 5 (vector), PDF p.23", "note": null, "confidence": "high (geometry, height); medium-high (letter, visual reading of registered raster)"}, "geometry": {"type": "Polygon", "coordinates": [[[-122.3873355, 37.7157055], [-122.3873523, 37.7156891], [-122.3874103, 37.7155918], [-122.3874108, 37.7155911], [-122.3874567, 37.7154901], [-122.3874568, 37.7154895], [-122.3874942, 37.7153863], [-122.3875232, 37.7152827], [-122.3875232, 37.7152824], [-122.3875405, 37.7151747], [-122.3875405, 37.7151744], [-122.3875491, 37.7150691], [-122.3875491, 37.7149614], [-122.3875462, 37.7149615], [-122.3868716, 37.7147719], [-122.3866574, 37.7150099], [-122.386443, 37.7152485], [-122.3872542, 37.7157065], [-122.3872549, 37.7157069], [-122.387281, 37.7157178], [-122.3873099, 37.7157173], [-122.3873355, 37.7157055]]]}}]}