{"type": "FeatureCollection", "metadata": {"title": "Land use, 2024 Modified Project Variant", "note": "Addendum 7 Fig 3 where its map frame reaches; DDA Exhibit A Development Plan (May 2025, same classes on all 42 blocks both maps cover) elsewhere. overlay=true features are hatches drawn over a base use.", "crs": "EPSG:4326 (lon, lat)", "generated": "2026-10-09", "georeferencing": "see georeferencing.json in this folder"}, "features": [{"type": "Feature", "properties": {"land_use": "Parks and Open Space", "density_range": null, "overlay": false, "source": "FEIR Addendum 7 (Aug 2024) Figure 3, 2024 Modified Project Variant Land Use Plan, PDF p.21", "fill_colors": ["#b0dc72"], "legend_colour": "#b0db72", "legend_colour_distance_rgb": 1.0, "block_ids": [], "area_acres": 35.626, "confidence": "high"}, "geometry": {"type": "Polygon", "coordinates": [[[-122.3920898, 37.709405], [-122.3923393, 37.7092034], [-122.3922177, 37.7091232], [-122.3922079, 37.7091337], [-122.3921966, 37.7091419], [-122.3921854, 37.7091524], [-122.3921741, 37.7091606], [-122.3921609, 37.7091695], [-122.3921609, 37.7091696], [-122.3921495, 37.7091787], [-122.3921393, 37.709188], [-122.3921299, 37.7091975], [-122.3921208, 37.709207], [-122.3921116, 37.7092165], [-122.3921018, 37.709226], [-122.392091, 37.7092354], [-122.3920797, 37.7092424], [-122.3920796, 37.7092424], [-122.3920683, 37.7092506], [-122.3920587, 37.7092587], [-122.3920495, 37.7092668], [-122.3920405, 37.7092749], [-122.3920316, 37.7092831], [-122.3920225, 37.7092913], [-122.3920131, 37.7092995], [-122.392003, 37.7093078], [-122.3919922, 37.7093162], [-122.3919823, 37.7093243], [-122.3919823, 37.7093244], [-122.3919696, 37.7093326], [-122.3919596, 37.7093384], [-122.3919427, 37.7093525], [-122.3919343, 37.7093607], [-122.3919254, 37.7093706], [-122.3919253, 37.7093706], [-122.3919172, 37.7093782], [-122.3919097, 37.7093841], [-122.3919025, 37.7093891], [-122.3918957, 37.7093938], [-122.3918889, 37.7093989], [-122.3918821, 37.7094051], [-122.3918821, 37.7094052], [-122.391875, 37.7094133], [-122.3918681, 37.7094214], [-122.391868, 37.7094214], [-122.3918597, 37.7094307], [-122.3918482, 37.7094362], [-122.3918387, 37.7094425], [-122.3918303, 37.7094495], [-122.3918224, 37.7094569], [-122.391814, 37.7094645], [-122.3918045, 37.7094722], [-122.3917931, 37.7094798], [-122.391779, 37.7094871], [-122.3917691, 37.7094953], [-122.391769, 37.7094953], [-122.3917607, 37.7095035], [-122.3917606, 37.7095035], [-122.3917408, 37.7095188], [-122.3917235, 37.7095329], [-122.3917076, 37.7095461], [-122.391692, 37.7095587], [-122.3916754, 37.7095712], [-122.3916569, 37.7095839], [-122.3916352, 37.7095972], [-122.3916093, 37.7096115], [-122.3915407, 37.7096402], [-122.3915009, 37.7096592], [-122.3915009, 37.7096593], [-122.3914852, 37.7096652], [-122.3914565, 37.7096714], [-122.3914564, 37.7096714], [-122.3914419, 37.7096671], [-122.3913923, 37.7096473], [-122.391299, 37.7096076], [-122.3911964, 37.7095498], [-122.3911041, 37.7094975], [-122.3910262, 37.7094427], [-122.390975, 37.7094172], [-122.3908958, 37.7093704], [-122.3908491, 37.7093472], [-122.3907804, 37.7093174], [-122.3907348, 37.7092815], [-122.3907347, 37.7092815], [-122.3906524, 37.7092234], [-122.3906524, 37.7092233], [-122.3906302, 37.7092031], [-122.390588, 37.7091889], [-122.3905502, 37.709178], [-122.3905096, 37.7091707], [-122.3904809, 37.7091735], [-122.3904736, 37.7091748], [-122.3904406, 37.7091799], [-122.3904309, 37.7091961], [-122.3904309, 37.7091962], [-122.3904308, 37.7091962], [-122.390411, 37.7092057], [-122.3903681, 37.709219], [-122.390341, 37.7092297], [-122.3903295, 37.7092322], [-122.3903295, 37.7092323], [-122.3903186, 37.7092531], [-122.3903185, 37.7092531], [-122.3903134, 37.7092761], [-122.3903133, 37.7092761], [-122.3902982, 37.7092981], [-122.3902981, 37.7092981], [-122.3902883, 37.7093086], [-122.3902882, 37.7093086], [-122.3902775, 37.7093351], [-122.3902774, 37.7093352], [-122.3902548, 37.7093527], [-122.3902281, 37.7093761], [-122.390228, 37.7093762], [-122.3902068, 37.7093902], [-122.3901787, 37.7094193], [-122.3901208, 37.7094616], [-122.3901207, 37.7094616], [-122.3900835, 37.7094702], [-122.3900834, 37.7094702], [-122.3900734, 37.7094704], [-122.3900149, 37.7094955], [-122.3899655, 37.709533], [-122.3899331, 37.709561], [-122.3899331, 37.7095611], [-122.389933, 37.7095611], [-122.3899117, 37.7095706], [-122.3898629, 37.7095784], [-122.3898012, 37.7095897], [-122.3898011, 37.7095897], [-122.389761, 37.7095984], [-122.3897466, 37.709601], [-122.3897264, 37.7096001], [-122.3896988, 37.7095937], [-122.3896727, 37.7095873], [-122.3896726, 37.7095873], [-122.3896593, 37.7095749], [-122.3896108, 37.7095402], [-122.3895594, 37.7095079], [-122.3895594, 37.7095078], [-122.3895536, 37.7095034], [-122.3895504, 37.7094931], [-122.3895256, 37.7094832], [-122.389514, 37.70948], [-122.3895022, 37.7094722], [-122.3894964, 37.7094688], [-122.3894963, 37.7094688], [-122.3894963, 37.7094687], [-122.3894947, 37.7094608], [-122.3894944, 37.7094505], [-122.3894828, 37.7094462], [-122.3894827, 37.7094462], [-122.3894518, 37.7094192], [-122.3893871, 37.7093756], [-122.3893429, 37.7093454], [-122.3893109, 37.7093334], [-122.3892829, 37.7093132], [-122.3892432, 37.7092864], [-122.3892184, 37.709273], [-122.3891921, 37.709262], [-122.3891804, 37.7092554], [-122.3891644, 37.7092498], [-122.3891513, 37.7092444], [-122.389141, 37.7092389], [-122.3891338, 37.7092367], [-122.3891337, 37.7092367], [-122.3891337, 37.7092366], [-122.3891247, 37.709223], [-122.3890966, 37.7091983], [-122.389048, 37.709159], [-122.3889772, 37.7091052], [-122.3889023, 37.7090526], [-122.3888553, 37.7090213], [-122.3888552, 37.7090213], [-122.3888286, 37.7089955], [-122.3887527, 37.708959], [-122.3887527, 37.7089589], [-122.3886811, 37.7089281], [-122.3886359, 37.7089093], [-122.3885964, 37.7088905], [-122.3885468, 37.7088708], [-122.3885468, 37.7088707], [-122.3885262, 37.7088528], [-122.3885103, 37.7088519], [-122.3885102, 37.7088519], [-122.3884857, 37.70885], [-122.3884698, 37.7088492], [-122.3884697, 37.7088492], [-122.3884204, 37.7088386], [-122.3884029, 37.7088286], [-122.3884029, 37.7088285], [-122.3883866, 37.708815], [-122.3883647, 37.7088039], [-122.3883386, 37.7087964], [-122.3883385, 37.7087964], [-122.3882961, 37.7087765], [-122.3882684, 37.7087655], [-122.3882613, 37.7087645], [-122.3882612, 37.7087645], [-122.3882478, 37.7087486], [-122.3882255, 37.7087238], [-122.3882007, 37.7087128], [-122.3881891, 37.7087107], [-122.3881603, 37.7087146], [-122.3881331, 37.7087243], [-122.3881002, 37.7087317], [-122.3880631, 37.7087484], [-122.3880217, 37.7087651], [-122.3880007, 37.7087861], [-122.3879599, 37.7088223], [-122.3879359, 37.7088434], [-122.3879133, 37.7088644], [-122.3878922, 37.7088819], [-122.387871, 37.7088972], [-122.3878556, 37.7089181], [-122.3878488, 37.7089308], [-122.3878218, 37.7089462], [-122.3878105, 37.7089544], [-122.3877881, 37.7089789], [-122.3877726, 37.708994], [-122.3877569, 37.7090034], [-122.3877343, 37.7090176], [-122.3877315, 37.7090202], [-122.3877315, 37.7090203], [-122.3877301, 37.7090211], [-122.3877284, 37.7090231], [-122.387723, 37.7090281], [-122.3877146, 37.7090363], [-122.3876839, 37.7090723], [-122.3876494, 37.7091278], [-122.3876493, 37.7091279], [-122.3876125, 37.7091538], [-122.3875645, 37.7091935], [-122.3875644, 37.7091935], [-122.3874782, 37.7092546], [-122.3874131, 37.7093027], [-122.3873808, 37.7093331], [-122.3873539, 37.7093553], [-122.387303, 37.7093917], [-122.3872263, 37.7094354], [-122.3871112, 37.7095027], [-122.3870702, 37.7095355], [-122.3870138, 37.7095811], [-122.3869012, 37.7096312], [-122.3868161, 37.7096807], [-122.3867195, 37.7097375], [-122.3866271, 37.7097905], [-122.3865548, 37.709822], [-122.3863774, 37.7098911], [-122.3863758, 37.7098918], [-122.3863745, 37.7098924], [-122.3862771, 37.7099354], [-122.386277, 37.7099354], [-122.3861488, 37.7099752], [-122.3861059, 37.7099874], [-122.38607, 37.7099938], [-122.3860412, 37.7099943], [-122.3860411, 37.7099943], [-122.3860023, 37.7099972], [-122.3859662, 37.7099978], [-122.3859257, 37.7099928], [-122.3858392, 37.7099943], [-122.3858391, 37.7099943], [-122.3858, 37.7099869], [-122.3857665, 37.709976], [-122.3857198, 37.7099539], [-122.3856022, 37.7098756], [-122.3854804, 37.7097976], [-122.3851655, 37.7096218], [-122.385005, 37.7095558], [-122.3847831, 37.7094565], [-122.3847831, 37.7094564], [-122.3845786, 37.7093625], [-122.3845013, 37.7093272], [-122.3845012, 37.7093272], [-122.3844617, 37.7093072], [-122.3844356, 37.7092996], [-122.3844355, 37.7092996], [-122.3844004, 37.7092796], [-122.3843081, 37.7092824], [-122.384272, 37.7092828], [-122.3842357, 37.7092826], [-122.3841992, 37.7092816], [-122.3841628, 37.7092795], [-122.3841266, 37.7092762], [-122.3840907, 37.7092716], [-122.3840553, 37.7092654], [-122.3840205, 37.7092575], [-122.3840204, 37.7092574], [-122.3839867, 37.7092385], [-122.3839463, 37.7092346], [-122.3839318, 37.7092325], [-122.3839317, 37.7092325], [-122.383862, 37.7092166], [-122.3838027, 37.7092096], [-122.3837236, 37.7092144], [-122.3837235, 37.7092144], [-122.3836587, 37.7092166], [-122.3836268, 37.7092149], [-122.3834972, 37.7092216], [-122.3834064, 37.7092209], [-122.3833731, 37.709218], [-122.383373, 37.709218], [-122.3832425, 37.7091882], [-122.3831612, 37.7091712], [-122.383064, 37.7091534], [-122.3830107, 37.7091508], [-122.3829978, 37.7091545], [-122.3829286, 37.7091603], [-122.3828204, 37.7091575], [-122.382747, 37.7091634], [-122.3827469, 37.7091634], [-122.3827006, 37.709155], [-122.3827006, 37.7091549], [-122.3826888, 37.7091483], [-122.3826112, 37.7091542], [-122.3826111, 37.7091542], [-122.3825734, 37.7091468], [-122.3825246, 37.7091546], [-122.3825045, 37.7091561], [-122.3825044, 37.7091561], [-122.3824712, 37.7091555], [-122.3823888, 37.7091466], [-122.3822744, 37.7091324], [-122.3822207, 37.7091185], [-122.382171, 37.7090952], [-122.3821275, 37.7090868], [-122.3821274, 37.7090868], [-122.3820878, 37.70906], [-122.3820497, 37.70904], [-122.3820012, 37.709003], [-122.3820011, 37.709003], [-122.3819817, 37.708977], [-122.3819667, 37.7089543], [-122.3819443, 37.708926], [-122.3819265, 37.7089092], [-122.3818857, 37.7088961], [-122.3818465, 37.7088853], [-122.3817668, 37.7088718], [-122.3816685, 37.7088643], [-122.381438, 37.708875], [-122.3813559, 37.7088764], [-122.3812548, 37.7088748], [-122.3811535, 37.7088627], [-122.3810231, 37.708842], [-122.3808741, 37.7088297], [-122.3807556, 37.7088179], [-122.3806835, 37.7088191], [-122.3805999, 37.7088228], [-122.3805537, 37.7088236], [-122.3805133, 37.7088186], [-122.3804308, 37.7088062], [-122.3804307, 37.7088062], [-122.3803654, 37.7087925], [-122.3803016, 37.7087786], [-122.380227, 37.7087409], [-122.3799709, 37.7086289], [-122.3800232, 37.7105693], [-122.3800601, 37.7105832], [-122.3800602, 37.7105832], [-122.38009, 37.710617], [-122.38009, 37.7106171], [-122.3800949, 37.7106388], [-122.3801215, 37.7107139], [-122.3801226, 37.7107563], [-122.3801282, 37.710856], [-122.3801387, 37.7109245], [-122.3801387, 37.7109246], [-122.3801296, 37.7110163], [-122.3801272, 37.7111424], [-122.3801266, 37.7111746], [-122.3801151, 37.7112802], [-122.3801097, 37.711349], [-122.3801097, 37.7113491], [-122.380092, 37.7113849], [-122.3800565, 37.7115139], [-122.380049, 37.7115272], [-122.380109, 37.7137533], [-122.3802275, 37.7136211], [-122.3806754, 37.7131216], [-122.3807842, 37.7130002], [-122.3812313, 37.7125015], [-122.3812313, 37.7125014], [-122.3812314, 37.7125014], [-122.3812315, 37.7125014], [-122.3812882, 37.7125336], [-122.3812883, 37.7125336], [-122.3812884, 37.7125336], [-122.3814571, 37.7126292], [-122.3814575, 37.7126296], [-122.3816895, 37.7123708], [-122.3815965, 37.7122922], [-122.381564, 37.7122629], [-122.3815332, 37.7122334], [-122.3815039, 37.7122033], [-122.3814762, 37.7121726], [-122.3814499, 37.7121411], [-122.3814249, 37.7121087], [-122.3814014, 37.7120751], [-122.381379, 37.7120404], [-122.3813473, 37.7119835], [-122.381346, 37.7119836], [-122.3813459, 37.7119836], [-122.3813459, 37.7119835], [-122.3813458, 37.7119835], [-122.3813458, 37.7119834], [-122.3813447, 37.7118335], [-122.3813289, 37.7107656], [-122.3813271, 37.710698], [-122.381333, 37.710613], [-122.381348, 37.7105293], [-122.381348, 37.7105292], [-122.3813718, 37.7104471], [-122.3814042, 37.710367], [-122.3814451, 37.7102894], [-122.3814941, 37.7102146], [-122.3815512, 37.7101432], [-122.3816161, 37.7100754], [-122.3816724, 37.7100251], [-122.3817317, 37.7099783], [-122.3818218, 37.7099197], [-122.3819176, 37.7098686], [-122.3819177, 37.7098686], [-122.3820185, 37.7098251], [-122.3821238, 37.7097895], [-122.3822328, 37.7097619], [-122.3822329, 37.7097619], [-122.382345, 37.7097425], [-122.3824597, 37.7097315], [-122.3825761, 37.709729], [-122.3826599, 37.7097333], [-122.3838929, 37.7098258], [-122.3839898, 37.7098344], [-122.3840744, 37.7098466], [-122.3841583, 37.7098618], [-122.3842413, 37.7098802], [-122.384323, 37.7099016], [-122.3844034, 37.7099261], [-122.3844821, 37.7099537], [-122.384559, 37.7099844], [-122.3846338, 37.7100183], [-122.3847157, 37.7100592], [-122.3847963, 37.7101049], [-122.3853327, 37.7104293], [-122.3853328, 37.7104293], [-122.3853328, 37.7104294], [-122.3855281, 37.7105474], [-122.3861015, 37.7108929], [-122.3861267, 37.7108673], [-122.3861268, 37.7108673], [-122.3861269, 37.7108673], [-122.3861664, 37.7108907], [-122.3861938, 37.7109037], [-122.3862198, 37.710912], [-122.3862449, 37.710916], [-122.3862449, 37.7109161], [-122.3862696, 37.7109164], [-122.3862946, 37.7109135], [-122.3863202, 37.7109079], [-122.386347, 37.7109], [-122.3863755, 37.7108905], [-122.3863756, 37.7108905], [-122.3863987, 37.7108836], [-122.3866444, 37.7108092], [-122.3866445, 37.7108092], [-122.3866446, 37.7108092], [-122.3866614, 37.7108456], [-122.3866615, 37.7108456], [-122.3884357, 37.7103098], [-122.3884919, 37.7102949], [-122.3885483, 37.7102812], [-122.388605, 37.7102689], [-122.3886621, 37.7102579], [-122.3887196, 37.7102485], [-122.3887776, 37.7102408], [-122.3888361, 37.7102349], [-122.3888952, 37.7102309], [-122.3888953, 37.7102309], [-122.3897953, 37.7101765], [-122.3905823, 37.7101517], [-122.3905825, 37.7101048], [-122.3905825, 37.7101047], [-122.3905826, 37.7101047], [-122.3905826, 37.7101046], [-122.3906661, 37.7101021], [-122.3907496, 37.7100949], [-122.3908329, 37.710082], [-122.390913, 37.7100635], [-122.3909131, 37.7100635], [-122.3909132, 37.7100636], [-122.3909317, 37.7101068], [-122.3910233, 37.7100811], [-122.3910919, 37.7100577], [-122.3911586, 37.7100326], [-122.3912236, 37.7100057], [-122.3912869, 37.7099768], [-122.3913486, 37.7099458], [-122.3914087, 37.7099126], [-122.3914673, 37.7098769], [-122.3915245, 37.7098387], [-122.3915981, 37.7097859], [-122.3920898, 37.709405]]]}}, {"type": "Feature", "properties": {"land_use": "Parks and Open Space", "density_range": null, "overlay": false, "source": "FEIR Addendum 7 (Aug 2024) Figure 3, 2024 Modified Project Variant Land Use Plan, PDF p.21", "fill_colors": ["#b0dc72"], "legend_colour": "#b0db72", "legend_colour_distance_rgb": 1.0, "block_ids": [], "area_acres": 7.759, "confidence": "high"}, "geometry": {"type": "Polygon", "coordinates": [[[-122.381838, 37.7153642], [-122.3821741, 37.7149894], [-122.3814563, 37.7145833], [-122.3814558, 37.7145829], [-122.3810769, 37.7148657], [-122.3810768, 37.7148657], [-122.3810768, 37.7148658], [-122.3810263, 37.7149034], [-122.3810264, 37.7149035], [-122.3810265, 37.7149035], [-122.3810265, 37.7149036], [-122.3810264, 37.7149036], [-122.3810264, 37.7149037], [-122.381026, 37.714904], [-122.3810259, 37.714904], [-122.3810258, 37.714904], [-122.3810249, 37.7149035], [-122.380184, 37.7144272], [-122.3801327, 37.7143961], [-122.3801261, 37.714391], [-122.3802213, 37.7179237], [-122.3811943, 37.7179072], [-122.3811585, 37.7178869], [-122.3807179, 37.7176375], [-122.3807178, 37.7176375], [-122.3807178, 37.7176374], [-122.3804459, 37.7171356], [-122.3804459, 37.7171355], [-122.3804554, 37.7170575], [-122.3804706, 37.7169804], [-122.3804931, 37.7169055], [-122.380509, 37.7168634], [-122.3805215, 37.7168306], [-122.3805215, 37.7168305], [-122.380992, 37.7163069], [-122.3811756, 37.7161043], [-122.381838, 37.7153642]]]}}, {"type": "Feature", "properties": {"land_use": "Parks and Open Space", "density_range": null, "overlay": false, "source": "FEIR Addendum 7 (Aug 2024) Figure 3, 2024 Modified Project Variant Land Use Plan, PDF p.21", "fill_colors": ["#b0dc72"], "legend_colour": "#b0db72", "legend_colour_distance_rgb": 1.0, "block_ids": [], "area_acres": 0.612, "confidence": "high"}, "geometry": {"type": "Polygon", "coordinates": [[[-122.3829447, 37.7134711], [-122.3829694, 37.7134527], [-122.3818326, 37.7124911], [-122.3816244, 37.712723], [-122.3820871, 37.712985], [-122.3822002, 37.7130492], [-122.3829447, 37.7134711]]]}}, {"type": "Feature", "properties": {"land_use": "Parks and Open Space", "density_range": null, "overlay": false, "source": "FEIR Addendum 7 (Aug 2024) Figure 3, 2024 Modified Project Variant Land Use Plan, PDF p.21", "fill_colors": ["#b0dc72"], "legend_colour": "#b0db72", "legend_colour_distance_rgb": 1.0, "block_ids": [], "area_acres": 2.062, "confidence": "high"}, "geometry": {"type": "Polygon", "coordinates": [[[-122.3824524, 37.7148769], [-122.3834272, 37.7137899], [-122.3830876, 37.713555], [-122.3818092, 37.7145096], [-122.3818036, 37.7145167], [-122.3818053, 37.7145246], [-122.3818053, 37.7145247], [-122.3818113, 37.7145314], [-122.382428, 37.7148807], [-122.3824368, 37.7148829], [-122.3824454, 37.7148816], [-122.3824524, 37.7148769]]]}}, {"type": "Feature", "properties": {"land_use": "Parks and Open Space", "density_range": null, "overlay": false, "source": "FEIR Addendum 7 (Aug 2024) Figure 3, 2024 Modified Project Variant Land Use Plan, PDF p.21", "fill_colors": ["#b0dc72"], "legend_colour": "#b0db72", "legend_colour_distance_rgb": 1.0, "block_ids": ["CN-12"], "area_acres": 3.123, "confidence": "high"}, "geometry": {"type": "Polygon", "coordinates": [[[-122.3840961, 37.7177255], [-122.3850765, 37.7166326], [-122.3842927, 37.7161887], [-122.3833123, 37.7172828], [-122.3840961, 37.7177255]]]}}, {"type": "Feature", "properties": {"land_use": "Parks and Open Space", "density_range": null, "overlay": false, "source": "FEIR Addendum 7 (Aug 2024) Figure 3, 2024 Modified Project Variant Land Use Plan, PDF p.21", "fill_colors": ["#b0dc72"], "legend_colour": "#b0db72", "legend_colour_distance_rgb": 1.0, "block_ids": [], "area_acres": 0.774, "confidence": "high"}, "geometry": {"type": "Polygon", "coordinates": [[[-122.3845393, 37.7125516], [-122.3845855, 37.7125003], [-122.3845839, 37.7124946], [-122.3845457, 37.7124712], [-122.3845413, 37.7124701], [-122.3845386, 37.7124713], [-122.3832644, 37.7134225], [-122.3835687, 37.7136328], [-122.3845393, 37.7125516]]]}}, {"type": "Feature", "properties": {"land_use": "Parks and Open Space", "density_range": null, "overlay": false, "source": "FEIR Addendum 7 (Aug 2024) Figure 3, 2024 Modified Project Variant Land Use Plan, PDF p.21", "fill_colors": ["#b0dc72"], "legend_colour": "#b0db72", "legend_colour_distance_rgb": 1.0, "block_ids": [], "area_acres": 3.588, "confidence": "high"}, "geometry": {"type": "Polygon", "coordinates": [[[-122.3884303, 37.7133103], [-122.3893792, 37.7130293], [-122.3876766, 37.7115811], [-122.3874237, 37.7117688], [-122.3874236, 37.7117688], [-122.3874235, 37.7117688], [-122.3867414, 37.7111891], [-122.3866431, 37.7112367], [-122.3866417, 37.7112389], [-122.3870379, 37.7118053], [-122.3870834, 37.7118354], [-122.3871382, 37.7118322], [-122.3871915, 37.7118324], [-122.387239, 37.7118373], [-122.3872391, 37.7118373], [-122.3872856, 37.7118452], [-122.3873309, 37.7118561], [-122.3873309, 37.7118562], [-122.3873747, 37.7118701], [-122.3874167, 37.7118871], [-122.3874566, 37.7119071], [-122.3874567, 37.7119071], [-122.3874943, 37.7119301], [-122.3874944, 37.7119301], [-122.3875295, 37.7119561], [-122.3875975, 37.7120146], [-122.3876612, 37.7120754], [-122.3877056, 37.7121229], [-122.387747, 37.7121721], [-122.3877854, 37.7122228], [-122.3878208, 37.712275], [-122.387853, 37.7123284], [-122.3878821, 37.712383], [-122.387908, 37.7124385], [-122.3879081, 37.7124385], [-122.3879308, 37.7124949], [-122.3879559, 37.7125712], [-122.3881899, 37.7133808], [-122.3884303, 37.7133103]]]}}, {"type": "Feature", "properties": {"land_use": "Parks and Open Space", "density_range": null, "overlay": false, "source": "FEIR Addendum 7 (Aug 2024) Figure 3, 2024 Modified Project Variant Land Use Plan, PDF p.21", "fill_colors": ["#b0dc72"], "legend_colour": "#b0db72", "legend_colour_distance_rgb": 1.0, "block_ids": [], "area_acres": 3.622, "confidence": "high"}, "geometry": {"type": "Polygon", "coordinates": [[[-122.3878363, 37.7155609], [-122.3885925, 37.7147172], [-122.3884653, 37.7145509], [-122.3883709, 37.7144251], [-122.3882826, 37.7142957], [-122.3882005, 37.7141632], [-122.3881249, 37.7140281], [-122.3881248, 37.7140281], [-122.3880559, 37.7138907], [-122.3879937, 37.7137515], [-122.3879386, 37.713611], [-122.3878907, 37.7134697], [-122.3878862, 37.7134595], [-122.3878862, 37.7134594], [-122.3879962, 37.7133165], [-122.3877732, 37.7125892], [-122.3877498, 37.712522], [-122.3877288, 37.7124716], [-122.3877048, 37.7124221], [-122.3876778, 37.7123736], [-122.3876479, 37.7123262], [-122.3876153, 37.71228], [-122.38758, 37.712235], [-122.3875421, 37.7121914], [-122.3875016, 37.7121492], [-122.3874439, 37.7120951], [-122.3874275, 37.7120822], [-122.3874065, 37.7120677], [-122.3873822, 37.7120535], [-122.3873559, 37.7120413], [-122.387329, 37.7120329], [-122.3873289, 37.7120329], [-122.3873025, 37.71203], [-122.387278, 37.7120344], [-122.3872565, 37.7120479], [-122.3872464, 37.7121043], [-122.387314, 37.7122005], [-122.3873607, 37.712273], [-122.3874045, 37.7123468], [-122.387468, 37.712505], [-122.3874976, 37.7125882], [-122.3875229, 37.7126714], [-122.3875426, 37.712757], [-122.3875564, 37.7128416], [-122.3878159, 37.7148622], [-122.3878238, 37.7149412], [-122.387826, 37.7150202], [-122.3878252, 37.7150993], [-122.3878253, 37.7151757], [-122.3878179, 37.7152536], [-122.3878179, 37.7152537], [-122.3878038, 37.7153323], [-122.3877837, 37.715411], [-122.3877584, 37.7154888], [-122.3877286, 37.715565], [-122.387695, 37.7156389], [-122.3876585, 37.7157096], [-122.3876102, 37.7157929], [-122.3875659, 37.7158613], [-122.3875711, 37.7158944], [-122.3880004, 37.716137], [-122.3880242, 37.7161102], [-122.3880242, 37.7161101], [-122.3880356, 37.7160961], [-122.3880447, 37.7160807], [-122.3880513, 37.7160643], [-122.3880554, 37.7160472], [-122.3880568, 37.7160299], [-122.3880554, 37.7160128], [-122.3880511, 37.7159961], [-122.3880438, 37.7159804], [-122.3878363, 37.7155611], [-122.3878362, 37.7155611], [-122.3878362, 37.715561], [-122.3878363, 37.715561], [-122.3878363, 37.7155609]]]}}, {"type": "Feature", "properties": {"land_use": "Residential Density II", "density_range": "50-125 units per acre", "overlay": false, "source": "FEIR Addendum 7 (Aug 2024) Figure 3, 2024 Modified Project Variant Land Use Plan, PDF p.21", "fill_colors": ["#f9a745"], "legend_colour": "#f9b033", "legend_colour_distance_rgb": 20.1, "block_ids": ["CS-2b"], "area_acres": 0.842, "confidence": "high"}, "geometry": {"type": "Polygon", "coordinates": [[[-122.3810827, 37.7141049], [-122.3815306, 37.7136057], [-122.3810679, 37.7133441], [-122.3806198, 37.7138434], [-122.3810825, 37.714105], [-122.3810827, 37.7141049]]]}}, {"type": "Feature", "properties": {"land_use": "Residential Density II", "density_range": "50-125 units per acre", "overlay": false, "source": "FEIR Addendum 7 (Aug 2024) Figure 3, 2024 Modified Project Variant Land Use Plan, PDF p.21", "fill_colors": ["#f9a745"], "legend_colour": "#f9b033", "legend_colour_distance_rgb": 20.1, "block_ids": ["CS-2a"], "area_acres": 0.957, "confidence": "high"}, "geometry": {"type": "Polygon", "coordinates": [[[-122.3816585, 37.7144308], [-122.3822326, 37.7140027], [-122.381644, 37.7136699], [-122.3816437, 37.7136701], [-122.3811958, 37.7141692], [-122.3816585, 37.7144308]]]}}, {"type": "Feature", "properties": {"land_use": "Residential Density II", "density_range": "50-125 units per acre", "overlay": false, "source": "FEIR Addendum 7 (Aug 2024) Figure 3, 2024 Modified Project Variant Land Use Plan, PDF p.21", "fill_colors": ["#f9a745"], "legend_colour": "#f9b033", "legend_colour_distance_rgb": 20.1, "block_ids": ["CS-4b"], "area_acres": 0.843, "confidence": "high"}, "geometry": {"type": "Polygon", "coordinates": [[[-122.3820869, 37.7129852], [-122.3820871, 37.712985], [-122.3816244, 37.7127231], [-122.3811759, 37.7132231], [-122.3816385, 37.713485], [-122.3816387, 37.7134845], [-122.3820869, 37.7129852]]]}}, {"type": "Feature", "properties": {"land_use": "Residential Density II", "density_range": "50-125 units per acre", "overlay": false, "source": "FEIR Addendum 7 (Aug 2024) Figure 3, 2024 Modified Project Variant Land Use Plan, PDF p.21", "fill_colors": ["#f9a745"], "legend_colour": "#f9b033", "legend_colour_distance_rgb": 20.1, "block_ids": ["CN-7a"], "area_acres": 1.157, "confidence": "high"}, "geometry": {"type": "Polygon", "coordinates": [[[-122.3825215, 37.7178131], [-122.3829025, 37.7173883], [-122.3821555, 37.7169651], [-122.3821553, 37.7169655], [-122.3817744, 37.7173902], [-122.3817744, 37.7173903], [-122.3825215, 37.7178131]]]}}, {"type": "Feature", "properties": {"land_use": "Residential Density II", "density_range": "50-125 units per acre", "overlay": false, "source": "FEIR Addendum 7 (Aug 2024) Figure 3, 2024 Modified Project Variant Land Use Plan, PDF p.21", "fill_colors": ["#f9a745"], "legend_colour": "#f9b033", "legend_colour_distance_rgb": 20.1, "block_ids": ["CS-6b"], "area_acres": 1.156, "confidence": "high"}, "geometry": {"type": "Polygon", "coordinates": [[[-122.3825118, 37.7128004], [-122.3830775, 37.712377], [-122.3825475, 37.7119288], [-122.3819818, 37.7123521], [-122.3825118, 37.7128004]]]}}, {"type": "Feature", "properties": {"land_use": "Residential Density II", "density_range": "50-125 units per acre", "overlay": false, "source": "FEIR Addendum 7 (Aug 2024) Figure 3, 2024 Modified Project Variant Land Use Plan, PDF p.21", "fill_colors": ["#f9a745"], "legend_colour": "#f9b033", "legend_colour_distance_rgb": 20.1, "block_ids": ["CS-7b"], "area_acres": 1.256, "confidence": "high"}, "geometry": {"type": "Polygon", "coordinates": [[[-122.3825066, 37.7117067], [-122.3831206, 37.7112486], [-122.3825876, 37.7107992], [-122.3819751, 37.7112564], [-122.3819754, 37.7112565], [-122.3825066, 37.7117067]]]}}, {"type": "Feature", "properties": {"land_use": "Residential Density II", "density_range": "50-125 units per acre", "overlay": false, "source": "FEIR Addendum 7 (Aug 2024) Figure 3, 2024 Modified Project Variant Land Use Plan, PDF p.21", "fill_colors": ["#f9a745"], "legend_colour": "#f9b033", "legend_colour_distance_rgb": 20.1, "block_ids": ["CS-6a"], "area_acres": 1.155, "confidence": "high"}, "geometry": {"type": "Polygon", "coordinates": [[[-122.3831363, 37.7133284], [-122.3837019, 37.712905], [-122.38356, 37.712785], [-122.3831727, 37.7124573], [-122.383172, 37.7124579], [-122.383172, 37.712458], [-122.3826063, 37.7128801], [-122.3831363, 37.7133284]]]}}, {"type": "Feature", "properties": {"land_use": "Residential Density II", "density_range": "50-125 units per acre", "overlay": false, "source": "FEIR Addendum 7 (Aug 2024) Figure 3, 2024 Modified Project Variant Land Use Plan, PDF p.21", "fill_colors": ["#f9a745"], "legend_colour": "#f9b033", "legend_colour_distance_rgb": 20.1, "block_ids": ["CS-10a"], "area_acres": 1.303, "confidence": "high"}, "geometry": {"type": "Polygon", "coordinates": [[[-122.3832691, 37.7111383], [-122.3839044, 37.7106637], [-122.383904, 37.7106633], [-122.3833725, 37.710214], [-122.383372, 37.7102134], [-122.3827361, 37.7106878], [-122.3832691, 37.7111383]]]}}, {"type": "Feature", "properties": {"land_use": "Residential Density II", "density_range": "50-125 units per acre", "overlay": false, "source": "FEIR Addendum 7 (Aug 2024) Figure 3, 2024 Modified Project Variant Land Use Plan, PDF p.21", "fill_colors": ["#f9a745", "#fab233"], "legend_colour": "#f9b033", "legend_colour_distance_rgb": 20.1, "block_ids": ["CS-8a"], "area_acres": 1.212, "confidence": "high"}, "geometry": {"type": "Polygon", "coordinates": [[[-122.3840371, 37.7126552], [-122.3844331, 37.7123597], [-122.3839038, 37.711912], [-122.3833091, 37.7123559], [-122.3833087, 37.7123563], [-122.3836965, 37.7126835], [-122.3838391, 37.7128041], [-122.3838392, 37.7128041], [-122.3840371, 37.7126552]]]}}, {"type": "Feature", "properties": {"land_use": "Residential Density II", "density_range": "50-125 units per acre", "overlay": false, "source": "FEIR Addendum 7 (Aug 2024) Figure 3, 2024 Modified Project Variant Land Use Plan, PDF p.21", "fill_colors": ["#f9a745", "#fab233"], "legend_colour": "#f9b033", "legend_colour_distance_rgb": 20.1, "block_ids": ["CN-10a"], "area_acres": 1.315, "confidence": "high"}, "geometry": {"type": "Polygon", "coordinates": [[[-122.3850915, 37.714947], [-122.385212, 37.7148127], [-122.3844912, 37.7144044], [-122.384371, 37.7145384], [-122.3840424, 37.7149052], [-122.3847636, 37.715313], [-122.3849524, 37.7151023], [-122.3850915, 37.714947]]]}}, {"type": "Feature", "properties": {"land_use": "Residential Density II", "density_range": "50-125 units per acre", "overlay": false, "source": "FEIR Addendum 7 (Aug 2024) Figure 3, 2024 Modified Project Variant Land Use Plan, PDF p.21", "fill_colors": ["#f9a745"], "legend_colour": "#f9b033", "legend_colour_distance_rgb": 20.1, "block_ids": ["CS-9a"], "area_acres": 1.247, "confidence": "high"}, "geometry": {"type": "Polygon", "coordinates": [[[-122.3845771, 37.7122437], [-122.3851951, 37.7117828], [-122.3850572, 37.7116664], [-122.3846705, 37.7113395], [-122.384053, 37.7117999], [-122.3840525, 37.7118004], [-122.38444, 37.7121278], [-122.3845771, 37.7122437]]]}}, {"type": "Feature", "properties": {"land_use": "Residential Density II", "density_range": "50-125 units per acre", "overlay": false, "source": "FEIR Addendum 7 (Aug 2024) Figure 3, 2024 Modified Project Variant Land Use Plan, PDF p.21", "fill_colors": ["#f9a745"], "legend_colour": "#f9b033", "legend_colour_distance_rgb": 20.1, "block_ids": ["CN-3b"], "area_acres": 0.927, "confidence": "high"}, "geometry": {"type": "Polygon", "coordinates": [[[-122.385444, 37.7178348], [-122.3855214, 37.7177486], [-122.3855207, 37.7177482], [-122.3855206, 37.7177482], [-122.3847256, 37.717299], [-122.3842602, 37.7178178], [-122.3843238, 37.7178539], [-122.385444, 37.7178348]]]}}, {"type": "Feature", "properties": {"land_use": "Residential Density II", "density_range": "50-125 units per acre", "overlay": false, "source": "FEIR Addendum 7 (Aug 2024) Figure 3, 2024 Modified Project Variant Land Use Plan, PDF p.21", "fill_colors": ["#f9a745"], "legend_colour": "#f9b033", "legend_colour_distance_rgb": 20.1, "block_ids": ["CS-11b"], "area_acres": 1.327, "confidence": "high"}, "geometry": {"type": "Polygon", "coordinates": [[[-122.3847125, 37.7111571], [-122.3854094, 37.7106365], [-122.3847846, 37.7102587], [-122.3841822, 37.710709], [-122.3847125, 37.7111571]]]}}, {"type": "Feature", "properties": {"land_use": "Residential Density II", "density_range": "50-125 units per acre", "overlay": false, "source": "FEIR Addendum 7 (Aug 2024) Figure 3, 2024 Modified Project Variant Land Use Plan, PDF p.21", "fill_colors": ["#f9a745"], "legend_colour": "#f9b033", "legend_colour_distance_rgb": 20.1, "block_ids": ["CN-2b"], "area_acres": 1.315, "confidence": "high"}, "geometry": {"type": "Polygon", "coordinates": [[[-122.3852277, 37.7164639], [-122.3856759, 37.7159646], [-122.3849543, 37.7155555], [-122.3849295, 37.7155829], [-122.3845057, 37.7160554], [-122.3852277, 37.7164639]]]}}, {"type": "Feature", "properties": {"land_use": "Residential Density II", "density_range": "50-125 units per acre", "overlay": false, "source": "FEIR Addendum 7 (Aug 2024) Figure 3, 2024 Modified Project Variant Land Use Plan, PDF p.21", "fill_colors": ["#f9a745"], "legend_colour": "#f9b033", "legend_colour_distance_rgb": 20.1, "block_ids": ["CN-3a"], "area_acres": 1.403, "confidence": "high"}, "geometry": {"type": "Polygon", "coordinates": [[[-122.3856022, 37.7176588], [-122.3860361, 37.7171756], [-122.3852406, 37.716725], [-122.3848064, 37.7172092], [-122.385602, 37.7176586], [-122.385602, 37.7176587], [-122.3856022, 37.7176588]]]}}, {"type": "Feature", "properties": {"land_use": "Residential Density II", "density_range": "50-125 units per acre", "overlay": false, "source": "FEIR Addendum 7 (Aug 2024) Figure 3, 2024 Modified Project Variant Land Use Plan, PDF p.21", "fill_colors": ["#f9a745"], "legend_colour": "#f9b033", "legend_colour_distance_rgb": 20.1, "block_ids": ["CS-11a"], "area_acres": 1.531, "confidence": "high"}, "geometry": {"type": "Polygon", "coordinates": [[[-122.3853322, 37.7116807], [-122.3861184, 37.7110932], [-122.3860366, 37.7110289], [-122.3860219, 37.7110179], [-122.3859729, 37.7109829], [-122.3859374, 37.7109576], [-122.385839, 37.7108963], [-122.385839, 37.7108962], [-122.3855206, 37.7107036], [-122.3848069, 37.7112369], [-122.3851951, 37.7115648], [-122.3853322, 37.7116807]]]}}, {"type": "Feature", "properties": {"land_use": "Residential Density II", "density_range": "50-125 units per acre", "overlay": false, "source": "FEIR Addendum 7 (Aug 2024) Figure 3, 2024 Modified Project Variant Land Use Plan, PDF p.21", "fill_colors": ["#f9a745"], "legend_colour": "#f9b033", "legend_colour_distance_rgb": 20.1, "block_ids": ["CN-2a"], "area_acres": 1.317, "confidence": "high"}, "geometry": {"type": "Polygon", "coordinates": [[[-122.3857559, 37.7158752], [-122.3862052, 37.7153745], [-122.3854832, 37.7149661], [-122.385483, 37.7149662], [-122.3850589, 37.715439], [-122.3850341, 37.7154663], [-122.3850349, 37.7154667], [-122.3857557, 37.715875], [-122.3857559, 37.7158752]]]}}, {"type": "Feature", "properties": {"land_use": "Residential Density II", "density_range": "50-125 units per acre", "overlay": false, "source": "FEIR Addendum 7 (Aug 2024) Figure 3, 2024 Modified Project Variant Land Use Plan, PDF p.21", "fill_colors": ["#f9a745"], "legend_colour": "#f9b033", "legend_colour_distance_rgb": 20.1, "block_ids": ["CN-1b"], "area_acres": 1.452, "confidence": "high"}, "geometry": {"type": "Polygon", "coordinates": [[[-122.386186, 37.7170068], [-122.3866353, 37.7165062], [-122.38584, 37.7160569], [-122.3858392, 37.7160566], [-122.3853904, 37.7165574], [-122.386186, 37.7170068]]]}}, {"type": "Feature", "properties": {"land_use": "Residential Density II", "density_range": "50-125 units per acre", "overlay": false, "source": "FEIR Addendum 7 (Aug 2024) Figure 3, 2024 Modified Project Variant Land Use Plan, PDF p.21", "fill_colors": ["#fab233"], "legend_colour": "#f9b033", "legend_colour_distance_rgb": 2.2, "block_ids": ["CN-1a"], "area_acres": 1.449, "confidence": "high"}, "geometry": {"type": "Polygon", "coordinates": [[[-122.3867153, 37.7164168], [-122.3871635, 37.7159175], [-122.3863679, 37.7154669], [-122.3859196, 37.7159672], [-122.3859198, 37.7159673], [-122.3867153, 37.7164168]]]}}, {"type": "Feature", "properties": {"land_use": "Residential Density I", "density_range": "15-75 units per acre", "overlay": false, "source": "FEIR Addendum 7 (Aug 2024) Figure 3, 2024 Modified Project Variant Land Use Plan, PDF p.21", "fill_colors": ["#f0ee41"], "legend_colour": "#f7eb5c", "legend_colour_distance_rgb": 28.1, "block_ids": ["CS-3"], "area_acres": 0.31, "confidence": "high"}, "geometry": {"type": "Polygon", "coordinates": [[[-122.3804538, 37.7137494], [-122.3809015, 37.7132499], [-122.380901, 37.7132496], [-122.3807318, 37.7131535], [-122.3802835, 37.7136528], [-122.3804528, 37.7137488], [-122.3804538, 37.7137494]]]}}, {"type": "Feature", "properties": {"land_use": "Residential Density I", "density_range": "15-75 units per acre", "overlay": false, "source": "FEIR Addendum 7 (Aug 2024) Figure 3, 2024 Modified Project Variant Land Use Plan, PDF p.21", "fill_colors": ["#f0ee41"], "legend_colour": "#f7eb5c", "legend_colour_distance_rgb": 28.1, "block_ids": ["CN-6b"], "area_acres": 0.962, "confidence": "high"}, "geometry": {"type": "Polygon", "coordinates": [[[-122.3815495, 37.7174526], [-122.3815498, 37.7174523], [-122.3807204, 37.716983], [-122.3805677, 37.7171518], [-122.3808015, 37.7175833], [-122.3812202, 37.7178181], [-122.3812203, 37.7178181], [-122.3812203, 37.7178182], [-122.3815495, 37.7174526]]]}}, {"type": "Feature", "properties": {"land_use": "Residential Density I", "density_range": "15-75 units per acre", "overlay": false, "source": "FEIR Addendum 7 (Aug 2024) Figure 3, 2024 Modified Project Variant Land Use Plan, PDF p.21", "fill_colors": ["#f0ee41"], "legend_colour": "#f7eb5c", "legend_colour_distance_rgb": 28.1, "block_ids": ["CS-5"], "area_acres": 0.309, "confidence": "high"}, "geometry": {"type": "Polygon", "coordinates": [[[-122.3810098, 37.713129], [-122.3814575, 37.7126296], [-122.3814571, 37.7126292], [-122.3812883, 37.7125335], [-122.3808406, 37.7130325], [-122.3810088, 37.7131285], [-122.3810098, 37.713129]]]}}, {"type": "Feature", "properties": {"land_use": "Residential Density I", "density_range": "15-75 units per acre", "overlay": false, "source": "FEIR Addendum 7 (Aug 2024) Figure 3, 2024 Modified Project Variant Land Use Plan, PDF p.21", "fill_colors": ["#f0ee41"], "legend_colour": "#f7eb5c", "legend_colour_distance_rgb": 28.1, "block_ids": ["CN-6a"], "area_acres": 0.465, "confidence": "high"}, "geometry": {"type": "Polygon", "coordinates": [[[-122.3813679, 37.7179042], [-122.38232, 37.717888], [-122.3816623, 37.717516], [-122.381332, 37.7178839], [-122.3813679, 37.7179042]]]}}, {"type": "Feature", "properties": {"land_use": "Residential Density I", "density_range": "15-75 units per acre", "overlay": false, "source": "FEIR Addendum 7 (Aug 2024) Figure 3, 2024 Modified Project Variant Land Use Plan, PDF p.21", "fill_colors": ["#f0ee41"], "legend_colour": "#f7eb5c", "legend_colour_distance_rgb": 28.1, "block_ids": ["CS-12a"], "area_acres": 1.624, "confidence": "high"}, "geometry": {"type": "Polygon", "coordinates": [[[-122.3814791, 37.7114151], [-122.3824548, 37.7106869], [-122.3817698, 37.7101083], [-122.3817206, 37.7101527], [-122.3816625, 37.7102145], [-122.3816119, 37.7102803], [-122.381569, 37.7103494], [-122.3815338, 37.7104212], [-122.3815064, 37.7104951], [-122.3814869, 37.7105707], [-122.3814754, 37.7106473], [-122.381472, 37.7107242], [-122.3814791, 37.7114151]]]}}, {"type": "Feature", "properties": {"land_use": "Residential Density I", "density_range": "15-75 units per acre", "overlay": false, "source": "FEIR Addendum 7 (Aug 2024) Figure 3, 2024 Modified Project Variant Land Use Plan, PDF p.21", "fill_colors": ["#f0ee41"], "legend_colour": "#f7eb5c", "legend_colour_distance_rgb": 28.1, "block_ids": ["CS-12b"], "area_acres": 1.443, "confidence": "high"}, "geometry": {"type": "Polygon", "coordinates": [[[-122.3826048, 37.7105754], [-122.3834956, 37.7099105], [-122.3826472, 37.709847], [-122.3825706, 37.7098437], [-122.3824953, 37.7098442], [-122.3824194, 37.7098493], [-122.3823434, 37.7098588], [-122.3823434, 37.7098589], [-122.3822682, 37.7098727], [-122.3821944, 37.7098907], [-122.3821227, 37.7099127], [-122.3821226, 37.7099127], [-122.3820537, 37.7099385], [-122.3820537, 37.7099386], [-122.3819882, 37.7099682], [-122.3819243, 37.7100014], [-122.3826048, 37.7105754]]]}}, {"type": "Feature", "properties": {"land_use": "Residential Density I", "density_range": "15-75 units per acre", "overlay": false, "source": "FEIR Addendum 7 (Aug 2024) Figure 3, 2024 Modified Project Variant Land Use Plan, PDF p.21", "fill_colors": ["#f0ee41"], "legend_colour": "#f7eb5c", "legend_colour_distance_rgb": 28.1, "block_ids": ["CS-10b"], "area_acres": 0.94, "confidence": "high"}, "geometry": {"type": "Polygon", "coordinates": [[[-122.3840056, 37.710588], [-122.3845941, 37.7101484], [-122.3845108, 37.7101098], [-122.3844489, 37.7100834], [-122.3843843, 37.710059], [-122.3843177, 37.7100366], [-122.3842495, 37.7100166], [-122.3841803, 37.7099989], [-122.3841106, 37.7099838], [-122.3840409, 37.7099714], [-122.3840408, 37.7099714], [-122.3839716, 37.709962], [-122.3838776, 37.7099521], [-122.3837359, 37.7099419], [-122.3834731, 37.710138], [-122.3840056, 37.710588]]]}}, {"type": "Feature", "properties": {"land_use": "Residential Density I", "density_range": "15-75 units per acre", "overlay": false, "source": "FEIR Addendum 7 (Aug 2024) Figure 3, 2024 Modified Project Variant Land Use Plan, PDF p.21", "fill_colors": ["#f0ee41"], "legend_colour": "#f7eb5c", "legend_colour_distance_rgb": 28.1, "block_ids": ["AG-5"], "area_acres": 0.264, "confidence": "high"}, "geometry": {"type": "Polygon", "coordinates": [[[-122.3859383, 37.7178264], [-122.3865707, 37.7178156], [-122.3860688, 37.7175315], [-122.385849, 37.7177759], [-122.3859383, 37.7178264]]]}}, {"type": "Feature", "properties": {"land_use": "Residential Density I", "density_range": "15-75 units per acre", "overlay": false, "source": "FEIR Addendum 7 (Aug 2024) Figure 3, 2024 Modified Project Variant Land Use Plan, PDF p.21", "fill_colors": ["#f0ee41"], "legend_colour": "#f7eb5c", "legend_colour_distance_rgb": 28.1, "block_ids": ["AG-6"], "area_acres": 0.802, "confidence": "high"}, "geometry": {"type": "Polygon", "coordinates": [[[-122.3868829, 37.7173846], [-122.3873214, 37.7168949], [-122.3873212, 37.7168947], [-122.3868714, 37.716641], [-122.3864331, 37.7171298], [-122.3868829, 37.7173846]]]}}, {"type": "Feature", "properties": {"land_use": "Residential Density I", "density_range": "15-75 units per acre", "overlay": false, "source": "FEIR Addendum 7 (Aug 2024) Figure 3, 2024 Modified Project Variant Land Use Plan, PDF p.21", "fill_colors": ["#f0ee41"], "legend_colour": "#f7eb5c", "legend_colour_distance_rgb": 28.1, "block_ids": ["AG-7"], "area_acres": 0.818, "confidence": "high"}, "geometry": {"type": "Polygon", "coordinates": [[[-122.3874018, 37.7168054], [-122.3878492, 37.7163057], [-122.3874009, 37.716051], [-122.3874008, 37.716051], [-122.3869522, 37.716551], [-122.3869527, 37.7165514], [-122.387401, 37.716805], [-122.3874018, 37.7168054]]]}}, {"type": "Feature", "properties": {"land_use": "Residential Density III", "density_range": "100-175 units per acre", "overlay": false, "source": "FEIR Addendum 7 (Aug 2024) Figure 3, 2024 Modified Project Variant Land Use Plan, PDF p.21", "fill_colors": ["#d15f31"], "legend_colour": "#d46031", "legend_colour_distance_rgb": 3.2, "block_ids": ["CS-1"], "area_acres": 1.598, "confidence": "high"}, "geometry": {"type": "Polygon", "coordinates": [[[-122.3814559, 37.7145829], [-122.3815071, 37.7145446], [-122.3803354, 37.7138813], [-122.3801651, 37.7137849], [-122.380165, 37.7137849], [-122.380165, 37.7137848], [-122.3801649, 37.7137848], [-122.3801649, 37.7137849], [-122.3801649, 37.713785], [-122.3801114, 37.7138446], [-122.380124, 37.7143108], [-122.380124, 37.7143109], [-122.3801965, 37.7143681], [-122.3810767, 37.7148657], [-122.3810767, 37.7148658], [-122.3814559, 37.7145829]]]}}, {"type": "Feature", "properties": {"land_use": "Residential Density III", "density_range": "100-175 units per acre", "overlay": false, "source": "FEIR Addendum 7 (Aug 2024) Figure 3, 2024 Modified Project Variant Land Use Plan, PDF p.21", "fill_colors": ["#d15f31"], "legend_colour": "#d46031", "legend_colour_distance_rgb": 3.2, "block_ids": ["CN-9b"], "area_acres": 1.521, "confidence": "high"}, "geometry": {"type": "Polygon", "coordinates": [[[-122.3822178, 37.716663], [-122.3826842, 37.7161439], [-122.3818811, 37.7156885], [-122.381415, 37.7162079], [-122.3822178, 37.716663]]]}}, {"type": "Feature", "properties": {"land_use": "Residential Density III", "density_range": "100-175 units per acre", "overlay": false, "source": "FEIR Addendum 7 (Aug 2024) Figure 3, 2024 Modified Project Variant Land Use Plan, PDF p.21", "fill_colors": ["#d15f31"], "legend_colour": "#d46031", "legend_colour_distance_rgb": 3.2, "block_ids": ["CN-8b"], "area_acres": 1.366, "confidence": "high"}, "geometry": {"type": "Polygon", "coordinates": [[[-122.3831042, 37.7171636], [-122.3835697, 37.7166448], [-122.3835693, 37.7166446], [-122.3835692, 37.7166446], [-122.3828483, 37.7162363], [-122.3828479, 37.716236], [-122.3823819, 37.7167553], [-122.3831042, 37.7171636]]]}}, {"type": "Feature", "properties": {"land_use": "Residential Density III", "density_range": "100-175 units per acre", "overlay": false, "source": "FEIR Addendum 7 (Aug 2024) Figure 3, 2024 Modified Project Variant Land Use Plan, PDF p.21", "fill_colors": ["#d15f31"], "legend_colour": "#d46031", "legend_colour_distance_rgb": 3.2, "block_ids": ["CN-11b"], "area_acres": 1.467, "confidence": "high"}, "geometry": {"type": "Polygon", "coordinates": [[[-122.3833496, 37.7154014], [-122.3837984, 37.7149014], [-122.3837977, 37.714901], [-122.3837976, 37.714901], [-122.3829948, 37.714446], [-122.3829948, 37.7144459], [-122.3829945, 37.7144458], [-122.3825452, 37.7149464], [-122.3833496, 37.7154014]]]}}, {"type": "Feature", "properties": {"land_use": "Residential Density III", "density_range": "100-175 units per acre", "overlay": false, "source": "FEIR Addendum 7 (Aug 2024) Figure 3, 2024 Modified Project Variant Land Use Plan, PDF p.21", "fill_colors": ["#d15f31"], "legend_colour": "#d46031", "legend_colour_distance_rgb": 3.2, "block_ids": ["CN-4b"], "area_acres": 0.351, "confidence": "high"}, "geometry": {"type": "Polygon", "coordinates": [[[-122.3828716, 37.7178786], [-122.3837446, 37.7178638], [-122.3831743, 37.7175409], [-122.3831736, 37.7175418], [-122.3828716, 37.7178786]]]}}, {"type": "Feature", "properties": {"land_use": "Residential Density III", "density_range": "100-175 units per acre", "overlay": false, "source": "FEIR Addendum 7 (Aug 2024) Figure 3, 2024 Modified Project Variant Land Use Plan, PDF p.21", "fill_colors": ["#d15f31"], "legend_colour": "#d46031", "legend_colour_distance_rgb": 3.2, "block_ids": ["CN-8a"], "area_acres": 1.274, "confidence": "high"}, "geometry": {"type": "Polygon", "coordinates": [[[-122.3836505, 37.716555], [-122.3840846, 37.7160708], [-122.3833623, 37.7156625], [-122.3829282, 37.7161467], [-122.3836505, 37.716555]]]}}, {"type": "Feature", "properties": {"land_use": "Residential Density III", "density_range": "100-175 units per acre", "overlay": false, "source": "FEIR Addendum 7 (Aug 2024) Figure 3, 2024 Modified Project Variant Land Use Plan, PDF p.21", "fill_colors": ["#d15f31"], "legend_colour": "#d46031", "legend_colour_distance_rgb": 3.2, "block_ids": ["CN-10b"], "area_acres": 1.315, "confidence": "high"}, "geometry": {"type": "Polygon", "coordinates": [[[-122.3842345, 37.7159033], [-122.3846833, 37.7154024], [-122.383962, 37.7149946], [-122.3835136, 37.7154949], [-122.3842345, 37.7159033]]]}}, {"type": "Feature", "properties": {"land_use": "Residential Density IV", "density_range": "175-285 units per acre", "overlay": false, "source": "FEIR Addendum 7 (Aug 2024) Figure 3, 2024 Modified Project Variant Land Use Plan, PDF p.21", "fill_colors": ["#a6681f"], "legend_colour": "#a7691e", "legend_colour_distance_rgb": 1.7, "block_ids": ["CN-7b"], "area_acres": 1.286, "confidence": "high"}, "geometry": {"type": "Polygon", "coordinates": [[[-122.3816618, 37.7173267], [-122.3820425, 37.7169011], [-122.3812133, 37.7164315], [-122.3808323, 37.7168574], [-122.3816618, 37.7173267]]]}}, {"type": "Feature", "properties": {"land_use": "Residential Density IV", "density_range": "175-285 units per acre", "overlay": false, "source": "FEIR Addendum 7 (Aug 2024) Figure 3, 2024 Modified Project Variant Land Use Plan, PDF p.21", "fill_colors": ["#a6681f"], "legend_colour": "#a7691e", "legend_colour_distance_rgb": 1.7, "block_ids": ["CS-7a"], "area_acres": 1.085, "confidence": "high"}, "geometry": {"type": "Polygon", "coordinates": [[[-122.3818224, 37.7122173], [-122.382406, 37.7117818], [-122.3818751, 37.7113328], [-122.381874, 37.711332], [-122.3814818, 37.7116249], [-122.3814864, 37.7116856], [-122.3814969, 37.7117449], [-122.3815128, 37.7118034], [-122.3815129, 37.7118034], [-122.381534, 37.7118609], [-122.3815602, 37.7119171], [-122.3815914, 37.7119717], [-122.3816273, 37.7120244], [-122.3816679, 37.7120749], [-122.3817131, 37.7121229], [-122.3817633, 37.7121679], [-122.3818224, 37.7122173]]]}}, {"type": "Feature", "properties": {"land_use": "Residential Density IV", "density_range": "175-285 units per acre", "overlay": false, "source": "FEIR Addendum 7 (Aug 2024) Figure 3, 2024 Modified Project Variant Land Use Plan, PDF p.21", "fill_colors": ["#a6681f"], "legend_colour": "#a7691e", "legend_colour_distance_rgb": 1.7, "block_ids": ["CS-4a"], "area_acres": 1.242, "confidence": "high"}, "geometry": {"type": "Polygon", "coordinates": [[[-122.3823713, 37.7138995], [-122.3829447, 37.7134711], [-122.3822002, 37.7130492], [-122.3821998, 37.7130498], [-122.3817519, 37.7135489], [-122.3823713, 37.7138995]]]}}, {"type": "Feature", "properties": {"land_use": "Residential Density IV", "density_range": "175-285 units per acre", "overlay": false, "source": "FEIR Addendum 7 (Aug 2024) Figure 3, 2024 Modified Project Variant Land Use Plan, PDF p.21", "fill_colors": ["#a6681f"], "legend_colour": "#a7691e", "legend_colour_distance_rgb": 1.7, "block_ids": ["CN-9a"], "area_acres": 1.419, "confidence": "high"}, "geometry": {"type": "Polygon", "coordinates": [[[-122.382765, 37.7160539], [-122.3831997, 37.7155701], [-122.3823955, 37.7151151], [-122.3823954, 37.7151151], [-122.3819612, 37.7155992], [-122.382765, 37.7160539]]]}}, {"type": "Feature", "properties": {"land_use": "Residential Density IV", "density_range": "175-285 units per acre", "overlay": false, "source": "FEIR Addendum 7 (Aug 2024) Figure 3, 2024 Modified Project Variant Land Use Plan, PDF p.21", "fill_colors": ["#a6681f"], "legend_colour": "#a7691e", "legend_colour_distance_rgb": 1.7, "block_ids": ["CS-8b"], "area_acres": 1.215, "confidence": "high"}, "geometry": {"type": "Polygon", "coordinates": [[[-122.3832147, 37.7122761], [-122.3838085, 37.7118317], [-122.3832786, 37.7113834], [-122.3826833, 37.7118279], [-122.3832142, 37.7122763], [-122.3832147, 37.7122761]]]}}, {"type": "Feature", "properties": {"land_use": "Residential Density IV", "density_range": "175-285 units per acre", "overlay": false, "source": "FEIR Addendum 7 (Aug 2024) Figure 3, 2024 Modified Project Variant Land Use Plan, PDF p.21", "fill_colors": ["#a6681f"], "legend_colour": "#a7691e", "legend_colour_distance_rgb": 1.7, "block_ids": ["CN-11a"], "area_acres": 1.465, "confidence": "high"}, "geometry": {"type": "Polygon", "coordinates": [[[-122.3838782, 37.7148121], [-122.3843271, 37.7143121], [-122.3835228, 37.713857], [-122.3834025, 37.713991], [-122.3834025, 37.7139911], [-122.3830747, 37.7143563], [-122.3838782, 37.7148121]]]}}, {"type": "Feature", "properties": {"land_use": "Residential Density IV", "density_range": "175-285 units per acre", "overlay": false, "source": "FEIR Addendum 7 (Aug 2024) Figure 3, 2024 Modified Project Variant Land Use Plan, PDF p.21", "fill_colors": ["#a6681f"], "legend_colour": "#a7691e", "legend_colour_distance_rgb": 1.7, "block_ids": ["CS-9b"], "area_acres": 1.262, "confidence": "high"}, "geometry": {"type": "Polygon", "coordinates": [[[-122.3839585, 37.7117202], [-122.3845759, 37.7112597], [-122.384045, 37.7108111], [-122.383427, 37.7112719], [-122.383958, 37.7117206], [-122.3839581, 37.7117206], [-122.3839585, 37.7117202]]]}}, {"type": "Feature", "properties": {"land_use": "Innovation District (Commercial & Retail)", "density_range": null, "overlay": false, "source": "FEIR Addendum 7 (Aug 2024) Figure 3, 2024 Modified Project Variant Land Use Plan, PDF p.21", "fill_colors": ["#eca2ce", "#eda1cf", "#eda3d0"], "legend_colour": "#f37c9e", "legend_colour_distance_rgb": 63.7, "block_ids": ["CC-1"], "area_acres": 22.381, "confidence": "high"}, "geometry": {"type": "Polygon", "coordinates": [[[-122.3873534, 37.7156952], [-122.387357, 37.7156901], [-122.387357, 37.7156898], [-122.387357, 37.7156897], [-122.3873571, 37.7156897], [-122.3873971, 37.7156223], [-122.3874328, 37.7155536], [-122.387464, 37.7154835], [-122.3874906, 37.7154124], [-122.3875127, 37.7153403], [-122.3875301, 37.7152673], [-122.3875302, 37.7152673], [-122.3875429, 37.7151937], [-122.387551, 37.7151195], [-122.3875268, 37.7147371], [-122.3872856, 37.7128619], [-122.3872856, 37.7128617], [-122.3872739, 37.7127893], [-122.3872577, 37.7127175], [-122.387237, 37.7126466], [-122.387237, 37.7126465], [-122.3872117, 37.7125766], [-122.3871821, 37.7125077], [-122.3871481, 37.7124401], [-122.3871098, 37.7123738], [-122.3870674, 37.7123091], [-122.3870674, 37.712309], [-122.3870674, 37.7123089], [-122.3870675, 37.7123089], [-122.3870687, 37.7123084], [-122.3869906, 37.7121951], [-122.3867716, 37.7118826], [-122.3864024, 37.7113548], [-122.3863997, 37.7113514], [-122.3863963, 37.7113483], [-122.3863924, 37.7113456], [-122.3863882, 37.7113431], [-122.3863836, 37.711341], [-122.3863788, 37.7113392], [-122.3863739, 37.7113377], [-122.386369, 37.7113365], [-122.3863642, 37.7113356], [-122.3863593, 37.7113351], [-122.3863544, 37.711335], [-122.3863495, 37.7113353], [-122.3863447, 37.711336], [-122.3863399, 37.711337], [-122.3863353, 37.7113384], [-122.3863308, 37.7113401], [-122.3863304, 37.7113403], [-122.3863287, 37.7113411], [-122.3863286, 37.7113412], [-122.3863286, 37.7113411], [-122.3863253, 37.7113405], [-122.3863251, 37.7113405], [-122.386325, 37.7113405], [-122.3862761, 37.7113616], [-122.3861794, 37.7114137], [-122.3860886, 37.7114679], [-122.3860008, 37.711529], [-122.385619, 37.7118152], [-122.3856185, 37.7118175], [-122.3856184, 37.7118214], [-122.3856184, 37.7118215], [-122.3856183, 37.7118215], [-122.3853433, 37.7120262], [-122.3853291, 37.7120344], [-122.385329, 37.7120344], [-122.3853289, 37.7120344], [-122.3853277, 37.7120334], [-122.3850986, 37.7122023], [-122.3850317, 37.7122554], [-122.385032, 37.7122556], [-122.3850321, 37.7122556], [-122.3850321, 37.7122557], [-122.3850321, 37.7122558], [-122.385032, 37.7122558], [-122.385013, 37.7122709], [-122.384994, 37.7122861], [-122.3849753, 37.7123014], [-122.3849568, 37.7123167], [-122.3849386, 37.7123321], [-122.3849206, 37.7123475], [-122.3849028, 37.712363], [-122.3848853, 37.7123786], [-122.3848853, 37.7123787], [-122.3848854, 37.7123787], [-122.3848854, 37.7123788], [-122.3848853, 37.7123788], [-122.3848726, 37.7123923], [-122.3848647, 37.712405], [-122.384615, 37.7126614], [-122.384615, 37.7126615], [-122.3846058, 37.7126672], [-122.3845951, 37.7126756], [-122.3845855, 37.7126849], [-122.3845864, 37.7126854], [-122.3845865, 37.7126854], [-122.3845865, 37.7126855], [-122.3845865, 37.7126856], [-122.3837238, 37.7136445], [-122.3837228, 37.7136477], [-122.3837228, 37.7136478], [-122.383716, 37.7136572], [-122.3837119, 37.7136673], [-122.3837103, 37.7136777], [-122.3837112, 37.713688], [-122.3837146, 37.713698], [-122.3837204, 37.7137073], [-122.3837285, 37.7137158], [-122.3837389, 37.7137229], [-122.3837402, 37.7137222], [-122.3837402, 37.7137221], [-122.3837403, 37.7137221], [-122.3837404, 37.7137221], [-122.3837404, 37.7137222], [-122.3853371, 37.7146254], [-122.3853371, 37.7146255], [-122.3853371, 37.7146256], [-122.385337, 37.714626], [-122.3853519, 37.7146327], [-122.3853585, 37.7146345], [-122.3856598, 37.7148061], [-122.385662, 37.7148083], [-122.3856779, 37.7148191], [-122.385678, 37.7148191], [-122.385678, 37.7148192], [-122.3856778, 37.7148195], [-122.3872488, 37.7157107], [-122.3872501, 37.7157115], [-122.3872564, 37.7157146], [-122.3872629, 37.7157171], [-122.3872697, 37.7157191], [-122.3872768, 37.7157205], [-122.3872839, 37.7157213], [-122.3872912, 37.7157214], [-122.3872984, 37.715721], [-122.3873057, 37.7157199], [-122.3873127, 37.7157182], [-122.3873128, 37.7157182], [-122.3873129, 37.7157181], [-122.3873199, 37.7157165], [-122.3873199, 37.7157164], [-122.3873266, 37.7157142], [-122.3873329, 37.7157114], [-122.3873388, 37.715708], [-122.3873442, 37.7157042], [-122.3873491, 37.7156999], [-122.3873534, 37.7156952]]]}}, {"type": "Feature", "properties": {"land_use": "Active Ground Floor Use", "density_range": null, "overlay": true, "source": "FEIR Addendum 7 (Aug 2024) Figure 3, 2024 Modified Project Variant Land Use Plan, PDF p.21", "fill_colors": ["hatch #f27d9d"], "legend_colour": "#e02d5d", "legend_colour_distance_rgb": 104.0, "block_ids": ["CS-6a"], "area_acres": 0.31, "confidence": "high"}, "geometry": {"type": "Polygon", "coordinates": [[[-122.3831363, 37.7133284], [-122.383702, 37.712905], [-122.3835602, 37.7127849], [-122.3831162, 37.7131167], [-122.3829946, 37.7132082], [-122.3831363, 37.7133284]]]}}, {"type": "Feature", "properties": {"land_use": "Active Ground Floor Use", "density_range": null, "overlay": true, "source": "FEIR Addendum 7 (Aug 2024) Figure 3, 2024 Modified Project Variant Land Use Plan, PDF p.21", "fill_colors": ["hatch #f27d9d"], "legend_colour": "#e02d5d", "legend_colour_distance_rgb": 104.0, "block_ids": ["CN-11a"], "area_acres": 0.393, "confidence": "high"}, "geometry": {"type": "Polygon", "coordinates": [[[-122.3842067, 37.7144459], [-122.3843271, 37.7143121], [-122.3835228, 37.713857], [-122.3834024, 37.7139908], [-122.3834024, 37.713991], [-122.3842065, 37.7144459], [-122.3842067, 37.7144459]]]}}, {"type": "Feature", "properties": {"land_use": "Active Ground Floor Use", "density_range": null, "overlay": true, "source": "FEIR Addendum 7 (Aug 2024) Figure 3, 2024 Modified Project Variant Land Use Plan, PDF p.21", "fill_colors": ["hatch #f27d9d"], "legend_colour": "#e02d5d", "legend_colour_distance_rgb": 104.0, "block_ids": ["CS-8a"], "area_acres": 0.217, "confidence": "high"}, "geometry": {"type": "Polygon", "coordinates": [[[-122.3840371, 37.7126552], [-122.3844331, 37.7123596], [-122.3842899, 37.7122395], [-122.3838954, 37.7125349], [-122.3840371, 37.7126552]]]}}, {"type": "Feature", "properties": {"land_use": "Active Ground Floor Use", "density_range": null, "overlay": true, "source": "FEIR Addendum 7 (Aug 2024) Figure 3, 2024 Modified Project Variant Land Use Plan, PDF p.21", "fill_colors": ["hatch #f27d9d"], "legend_colour": "#e02d5d", "legend_colour_distance_rgb": 104.0, "block_ids": ["CN-10a"], "area_acres": 0.352, "confidence": "high"}, "geometry": {"type": "Polygon", "coordinates": [[[-122.3850915, 37.714947], [-122.385212, 37.7148132], [-122.3844912, 37.7144044], [-122.384371, 37.7145384], [-122.3850915, 37.714947]]]}}, {"type": "Feature", "properties": {"land_use": "Active Ground Floor Use", "density_range": null, "overlay": true, "source": "FEIR Addendum 7 (Aug 2024) Figure 3, 2024 Modified Project Variant Land Use Plan, PDF p.21", "fill_colors": ["hatch #f27d9d"], "legend_colour": "#e02d5d", "legend_colour_distance_rgb": 104.0, "block_ids": ["CS-9a"], "area_acres": 0.327, "confidence": "high"}, "geometry": {"type": "Polygon", "coordinates": [[[-122.3845771, 37.7122437], [-122.3851951, 37.7117828], [-122.3850578, 37.7116659], [-122.3844398, 37.712128], [-122.3845771, 37.7122437]]]}}, {"type": "Feature", "properties": {"land_use": "Active Ground Floor Use", "density_range": null, "overlay": true, "source": "FEIR Addendum 7 (Aug 2024) Figure 3, 2024 Modified Project Variant Land Use Plan, PDF p.21", "fill_colors": ["hatch #f27d9d"], "legend_colour": "#e02d5d", "legend_colour_distance_rgb": 104.0, "block_ids": ["CS-11a"], "area_acres": 0.414, "confidence": "high"}, "geometry": {"type": "Polygon", "coordinates": [[[-122.3853322, 37.7116807], [-122.3861184, 37.7110932], [-122.3860477, 37.7110371], [-122.3859741, 37.7109822], [-122.3851949, 37.711565], [-122.3853322, 37.7116807]]]}}, {"type": "Feature", "properties": {"land_use": "Active Ground Floor Use", "density_range": null, "overlay": true, "source": "FEIR Addendum 7 (Aug 2024) Figure 3, 2024 Modified Project Variant Land Use Plan, PDF p.21", "fill_colors": ["hatch #f27d9d"], "legend_colour": "#e02d5d", "legend_colour_distance_rgb": 104.0, "block_ids": ["CN-2a"], "area_acres": 0.352, "confidence": "high"}, "geometry": {"type": "Polygon", "coordinates": [[[-122.386213, 37.715378], [-122.386213, 37.7153779], [-122.3854922, 37.7149692], [-122.3854921, 37.7149692], [-122.3853719, 37.7151032], [-122.3860925, 37.7155118], [-122.386213, 37.715378]]]}}, {"type": "Feature", "properties": {"land_use": "Community Use (hatch: multiple land uses permitted)", "density_range": null, "overlay": true, "source": "FEIR Addendum 7 (Aug 2024) Figure 3, 2024 Modified Project Variant Land Use Plan, PDF p.21", "fill_colors": ["hatch #8c4fad"], "legend_colour": "#8d4dac", "legend_colour_distance_rgb": 2.4, "block_ids": ["CS-4a"], "area_acres": 0.192, "confidence": "high"}, "geometry": {"type": "Polygon", "coordinates": [[[-122.3827093, 37.7136474], [-122.3829454, 37.7134714], [-122.3826817, 37.7133224], [-122.382458, 37.7134786], [-122.3827093, 37.7136474]]]}}, {"type": "Feature", "properties": {"land_use": "Community Use (hatch: multiple land uses permitted)", "density_range": null, "overlay": true, "source": "FEIR Addendum 7 (Aug 2024) Figure 3, 2024 Modified Project Variant Land Use Plan, PDF p.21", "fill_colors": ["hatch #8c4fad"], "legend_colour": "#8d4dac", "legend_colour_distance_rgb": 2.4, "block_ids": ["CS-8a"], "area_acres": 0.109, "confidence": "high"}, "geometry": {"type": "Polygon", "coordinates": [[[-122.3838392, 37.7128041], [-122.3840371, 37.7126552], [-122.3838954, 37.7125349], [-122.383696, 37.7126839], [-122.383696, 37.7126841], [-122.3838391, 37.7128041], [-122.3838392, 37.7128041]]]}}, {"type": "Feature", "properties": {"land_use": "Community Use (hatch: multiple land uses permitted)", "density_range": null, "overlay": true, "source": "FEIR Addendum 7 (Aug 2024) Figure 3, 2024 Modified Project Variant Land Use Plan, PDF p.21", "fill_colors": ["hatch #8c4fad"], "legend_colour": "#8d4dac", "legend_colour_distance_rgb": 2.4, "block_ids": ["CN-1a"], "area_acres": 0.36, "confidence": "high"}, "geometry": {"type": "Polygon", "coordinates": [[[-122.3867153, 37.7164167], [-122.3871635, 37.7159175], [-122.3869671, 37.7158051], [-122.3865176, 37.7163055], [-122.3867153, 37.7164167]]]}}, {"type": "Feature", "properties": {"land_use": "Parks and Open Space", "density_range": null, "overlay": false, "source": "DDA Exhibit A Development Plan (map generated May 8 2025), PDF p.2", "fill_colors": ["#b0dc72"], "legend_colour": "#b0db72", "legend_colour_distance_rgb": 1.0, "block_ids": [], "area_acres": 12.635, "confidence": "high"}, "geometry": {"type": "Polygon", "coordinates": [[[-122.3800093, 37.7105664], [-122.3800232, 37.7105717], [-122.379971, 37.7086323], [-122.3799469, 37.7086218], [-122.3797209, 37.7085284], [-122.3796552, 37.7085065], [-122.3795858, 37.7084927], [-122.3795609, 37.7084853], [-122.3795348, 37.7084742], [-122.3795054, 37.7084632], [-122.3794329, 37.708444], [-122.3793678, 37.7084393], [-122.3792569, 37.708439], [-122.3791589, 37.7084407], [-122.3791588, 37.7084407], [-122.3790795, 37.7084478], [-122.3789721, 37.7084658], [-122.378972, 37.7084658], [-122.3788323, 37.7084715], [-122.3787125, 37.7084736], [-122.3786546, 37.7084667], [-122.3786545, 37.7084667], [-122.3786285, 37.7084591], [-122.3785518, 37.7084443], [-122.3784809, 37.7084412], [-122.3784808, 37.7084412], [-122.3783915, 37.7084427], [-122.3783558, 37.7084512], [-122.3783557, 37.7084512], [-122.3783082, 37.708452], [-122.3782372, 37.7084454], [-122.3777236, 37.7084393], [-122.3775001, 37.7084409], [-122.3773749, 37.7084454], [-122.3773748, 37.7084454], [-122.3773318, 37.7084508], [-122.3773317, 37.7084508], [-122.377158, 37.7084319], [-122.3771579, 37.7084319], [-122.3768983, 37.7084251], [-122.3766846, 37.708423], [-122.376461, 37.7084188], [-122.3764034, 37.7084222], [-122.3764033, 37.7084222], [-122.376292, 37.708416], [-122.3762082, 37.7084082], [-122.3760754, 37.7084027], [-122.3760063, 37.7084005], [-122.3759127, 37.7084078], [-122.3757759, 37.7084135], [-122.3757038, 37.7084205], [-122.3756593, 37.7084282], [-122.3755886, 37.7084305], [-122.3754709, 37.7084476], [-122.3753588, 37.7084666], [-122.3751043, 37.7084883], [-122.374969, 37.7084964], [-122.3749159, 37.7085086], [-122.3747185, 37.7085178], [-122.3746638, 37.7085222], [-122.3746637, 37.7085222], [-122.3745854, 37.7085533], [-122.3745541, 37.7085666], [-122.3744968, 37.7085848], [-122.3744968, 37.7085849], [-122.37446, 37.708606], [-122.3744377, 37.7086396], [-122.3744136, 37.7086596], [-122.3744048, 37.7086997], [-122.3743899, 37.7087377], [-122.3743863, 37.7087666], [-122.3743944, 37.7088019], [-122.3744021, 37.7088317], [-122.3744104, 37.7088575], [-122.3744205, 37.7088809], [-122.3744335, 37.7089033], [-122.3744504, 37.7089263], [-122.3744723, 37.7089514], [-122.3745005, 37.70898], [-122.3745296, 37.7089954], [-122.3745886, 37.7090414], [-122.3746287, 37.7090671], [-122.3746738, 37.7090903], [-122.3747224, 37.7091118], [-122.3747731, 37.7091321], [-122.3748244, 37.709152], [-122.3748748, 37.7091722], [-122.3749228, 37.7091932], [-122.374967, 37.7092159], [-122.3750829, 37.7092817], [-122.3751518, 37.7093296], [-122.37523, 37.7093856], [-122.3753576, 37.709466], [-122.3754501, 37.7095273], [-122.3755234, 37.7095662], [-122.3756112, 37.7096105], [-122.3756579, 37.7096326], [-122.3757072, 37.7096432], [-122.3757073, 37.7096432], [-122.3757073, 37.7096433], [-122.3757306, 37.7096599], [-122.3757307, 37.7096599], [-122.3757644, 37.7096743], [-122.3758685, 37.7096895], [-122.3759622, 37.7096902], [-122.3760388, 37.7096889], [-122.3761109, 37.7096911], [-122.3761571, 37.7096926], [-122.3762148, 37.7096916], [-122.3762863, 37.7096765], [-122.3762864, 37.7096765], [-122.3763222, 37.7096611], [-122.3763622, 37.7096466], [-122.3763901, 37.7096164], [-122.3763965, 37.7095854], [-122.3764061, 37.7095679], [-122.376419, 37.7095082], [-122.3764569, 37.7094181], [-122.3764845, 37.7093775], [-122.3765203, 37.7093174], [-122.3765203, 37.7093173], [-122.3765749, 37.7092558], [-122.3766122, 37.7092], [-122.3766123, 37.7092], [-122.3766569, 37.7091466], [-122.3766957, 37.7090909], [-122.3767376, 37.7090316], [-122.3767497, 37.7090051], [-122.3767637, 37.7089878], [-122.3767637, 37.7089877], [-122.3768483, 37.7089199], [-122.3768484, 37.7089199], [-122.3768854, 37.7089077], [-122.3768855, 37.7089077], [-122.3769283, 37.708892], [-122.3769767, 37.7088706], [-122.3770194, 37.7088491], [-122.3771478, 37.708792], [-122.3772191, 37.7087642], [-122.3772863, 37.7087402], [-122.3773706, 37.7087148], [-122.3773707, 37.7087148], [-122.3774461, 37.7086824], [-122.3775245, 37.7086524], [-122.3776274, 37.7086163], [-122.3777275, 37.7085825], [-122.3778023, 37.7085696], [-122.3778024, 37.7085696], [-122.3778502, 37.7085803], [-122.377901, 37.7086023], [-122.3779588, 37.7086239], [-122.3780145, 37.7086509], [-122.3780683, 37.7086822], [-122.3780683, 37.7086823], [-122.3781202, 37.7087167], [-122.3781702, 37.708753], [-122.3782184, 37.7087902], [-122.3782647, 37.708827], [-122.3783093, 37.7088622], [-122.3783909, 37.7089491], [-122.3784092, 37.7089797], [-122.3784252, 37.7090334], [-122.37845, 37.7091554], [-122.3784581, 37.7091852], [-122.3784735, 37.7092181], [-122.3784904, 37.7092635], [-122.3784905, 37.7092635], [-122.3784922, 37.7092762], [-122.3785064, 37.7093149], [-122.3785448, 37.709352], [-122.3785596, 37.7093621], [-122.3785596, 37.7093622], [-122.3785877, 37.7093891], [-122.3786057, 37.709413], [-122.3786293, 37.7094273], [-122.3786294, 37.7094274], [-122.3786529, 37.7094486], [-122.3786766, 37.7094678], [-122.3787034, 37.709504], [-122.3787172, 37.70953], [-122.378734, 37.709556], [-122.3787508, 37.7095821], [-122.3787674, 37.7096082], [-122.3787674, 37.7096083], [-122.3787834, 37.7096346], [-122.3787986, 37.7096613], [-122.3788128, 37.7096882], [-122.3788256, 37.7097157], [-122.3788369, 37.7097436], [-122.3788446, 37.7097605], [-122.3788551, 37.7097753], [-122.3788552, 37.7097753], [-122.3788434, 37.7098212], [-122.3788371, 37.7098466], [-122.3788529, 37.7099035], [-122.3788684, 37.7099411], [-122.3788685, 37.7099411], [-122.3788878, 37.7099696], [-122.3789794, 37.710039], [-122.3790161, 37.7100647], [-122.37905, 37.710095], [-122.3790824, 37.710123], [-122.379134, 37.7101622], [-122.3791753, 37.7101959], [-122.379205, 37.7102219], [-122.379227, 37.7102408], [-122.3792786, 37.7102801], [-122.3793547, 37.7103131], [-122.3793897, 37.7103309], [-122.3793898, 37.710331], [-122.379425, 37.7103555], [-122.3794938, 37.7103886], [-122.3795522, 37.7104127], [-122.3796222, 37.7104438], [-122.3796472, 37.710457], [-122.3796691, 37.7104727], [-122.3796885, 37.7104906], [-122.3797132, 37.7105052], [-122.3797133, 37.7105052], [-122.3798432, 37.7105029], [-122.3798433, 37.7105029], [-122.3798869, 37.7105171], [-122.3799521, 37.7105354], [-122.3799885, 37.7105518], [-122.3800092, 37.7105664], [-122.3800093, 37.7105664]]]}}, {"type": "Feature", "properties": {"land_use": "Parks and Open Space", "density_range": null, "overlay": false, "source": "DDA Exhibit A Development Plan (map generated May 8 2025), PDF p.2", "fill_colors": ["#b0dc72"], "legend_colour": "#b0db72", "legend_colour_distance_rgb": 1.0, "block_ids": [], "area_acres": 45.172, "confidence": "high"}, "geometry": {"type": "Polygon", "coordinates": [[[-122.3804304, 37.7238237], [-122.3840118, 37.7198265], [-122.3840104, 37.7198177], [-122.3837977, 37.7196987], [-122.3834694, 37.7200633], [-122.3834694, 37.7200634], [-122.3834693, 37.7200634], [-122.3834692, 37.7200634], [-122.3834692, 37.7200633], [-122.3834691, 37.7200633], [-122.3834691, 37.7200632], [-122.3834692, 37.7200632], [-122.3834889, 37.7200375], [-122.3836888, 37.7198138], [-122.3837248, 37.719646], [-122.3836751, 37.7196184], [-122.3836751, 37.7196183], [-122.383675, 37.7196183], [-122.383675, 37.7196182], [-122.3836751, 37.7196182], [-122.3837871, 37.7194524], [-122.3838361, 37.719399], [-122.3831532, 37.7190131], [-122.3831532, 37.719013], [-122.3831532, 37.7190129], [-122.3830402, 37.7189491], [-122.3822924, 37.7185266], [-122.3822328, 37.7184928], [-122.3820264, 37.7183762], [-122.3820223, 37.7183738], [-122.3812748, 37.7179512], [-122.3812147, 37.7179173], [-122.3802218, 37.7179342], [-122.3802217, 37.7179342], [-122.3802217, 37.7179341], [-122.3802216, 37.7179341], [-122.3802216, 37.717934], [-122.3801261, 37.7143914], [-122.3800853, 37.7143595], [-122.3800428, 37.7143207], [-122.3800061, 37.7142805], [-122.380006, 37.7142805], [-122.3799747, 37.7142386], [-122.3799486, 37.7141945], [-122.3799274, 37.7141478], [-122.3799274, 37.7141477], [-122.3799109, 37.7140981], [-122.3798988, 37.714045], [-122.3798945, 37.7139946], [-122.3798945, 37.7139945], [-122.380109, 37.7137552], [-122.380049, 37.7115272], [-122.3800308, 37.7115594], [-122.3800103, 37.7115932], [-122.3800103, 37.7115933], [-122.3799862, 37.7116142], [-122.3798825, 37.7116757], [-122.3798541, 37.7116875], [-122.3797808, 37.7117439], [-122.3797552, 37.7117637], [-122.3797343, 37.7117961], [-122.3797295, 37.7118278], [-122.3797157, 37.7118616], [-122.3796951, 37.7118965], [-122.3796951, 37.7118966], [-122.3796698, 37.7119319], [-122.3796421, 37.7119667], [-122.379614, 37.7120001], [-122.3795878, 37.7120312], [-122.3795657, 37.7120592], [-122.3795481, 37.7120938], [-122.3795416, 37.7121227], [-122.3795416, 37.7121228], [-122.379518, 37.7121633], [-122.3794907, 37.7122117], [-122.3794906, 37.7122117], [-122.3794654, 37.7122444], [-122.3794654, 37.7122445], [-122.3794375, 37.7122735], [-122.3794294, 37.7122942], [-122.3794293, 37.7122942], [-122.3793937, 37.7123601], [-122.3793803, 37.7123981], [-122.3793626, 37.712433], [-122.379346, 37.7124619], [-122.3793128, 37.7125095], [-122.3792235, 37.7126188], [-122.3791579, 37.7127022], [-122.3790539, 37.7128463], [-122.3789916, 37.7129459], [-122.3789604, 37.7130128], [-122.3789299, 37.713065], [-122.3788809, 37.7131196], [-122.3788414, 37.7131525], [-122.3788136, 37.7131839], [-122.3788135, 37.7131839], [-122.3787538, 37.713217], [-122.3786941, 37.7132524], [-122.3786334, 37.7132936], [-122.3785772, 37.7133483], [-122.3785455, 37.7133982], [-122.3785454, 37.7133982], [-122.3785104, 37.7134412], [-122.3784571, 37.7134984], [-122.3784194, 37.7135436], [-122.3784102, 37.7135668], [-122.3784114, 37.7136089], [-122.3784114, 37.713609], [-122.3784113, 37.713609], [-122.3783985, 37.7136301], [-122.3783899, 37.7136492], [-122.3783832, 37.7136662], [-122.3783761, 37.7136807], [-122.3783761, 37.7136808], [-122.3783665, 37.7136928], [-122.3783664, 37.7136928], [-122.3783519, 37.7137021], [-122.3783518, 37.7137021], [-122.37833, 37.7137086], [-122.3782987, 37.7137119], [-122.378267, 37.7137125], [-122.378211, 37.7137236], [-122.3780499, 37.7138502], [-122.377827, 37.7140296], [-122.3778032, 37.7140505], [-122.377794, 37.7140839], [-122.3778197, 37.7140834], [-122.3778198, 37.7140834], [-122.3778198, 37.7140835], [-122.377836, 37.7140924], [-122.3778538, 37.7141071], [-122.377864, 37.7141182], [-122.3778703, 37.7141365], [-122.3778736, 37.7141489], [-122.3778741, 37.7141685], [-122.3778674, 37.7141767], [-122.3778673, 37.7141767], [-122.3778559, 37.7141824], [-122.3778286, 37.7141933], [-122.3777829, 37.7142068], [-122.3777828, 37.7142068], [-122.3777285, 37.7142146], [-122.3776725, 37.7142269], [-122.377638, 37.7142379], [-122.3775951, 37.7142513], [-122.3775609, 37.7142646], [-122.3775138, 37.7142813], [-122.3774695, 37.7142948], [-122.3774252, 37.7143103], [-122.3773928, 37.7143362], [-122.3773856, 37.7143579], [-122.3773855, 37.7143579], [-122.3773755, 37.7143769], [-122.3773633, 37.714394], [-122.3773496, 37.7144101], [-122.3773349, 37.7144258], [-122.3773199, 37.7144422], [-122.3773052, 37.71446], [-122.3772914, 37.71448], [-122.3772189, 37.7145763], [-122.3772037, 37.714595], [-122.3771706, 37.7146343], [-122.37715, 37.7146576], [-122.3771386, 37.7146707], [-122.3771334, 37.7146794], [-122.3771311, 37.7146893], [-122.3771284, 37.7147061], [-122.3771222, 37.7147356], [-122.3771094, 37.7147834], [-122.3771093, 37.7147834], [-122.3770745, 37.7148241], [-122.3770289, 37.7148971], [-122.3770073, 37.7149558], [-122.3769779, 37.7149861], [-122.3769596, 37.7150064], [-122.3769428, 37.7150258], [-122.3769266, 37.7150446], [-122.3769103, 37.7150628], [-122.3768932, 37.7150807], [-122.3768931, 37.7150807], [-122.3768744, 37.7150983], [-122.3768533, 37.7151157], [-122.376829, 37.7151332], [-122.3767771, 37.7151879], [-122.3766844, 37.7153327], [-122.3766224, 37.7154313], [-122.376599, 37.7154774], [-122.3765671, 37.7155203], [-122.3765043, 37.7156017], [-122.3764235, 37.7157041], [-122.3763508, 37.7157819], [-122.3762528, 37.7158904], [-122.3762012, 37.7159577], [-122.3761933, 37.7159887], [-122.3761737, 37.7160658], [-122.3761759, 37.7161449], [-122.3762064, 37.7161981], [-122.3762508, 37.7162397], [-122.3762508, 37.7162398], [-122.3762772, 37.7162623], [-122.3762772, 37.7162624], [-122.3762993, 37.7162735], [-122.3763315, 37.7162958], [-122.3764633, 37.7163564], [-122.3765625, 37.7163971], [-122.3766239, 37.7164362], [-122.376624, 37.7164362], [-122.3766536, 37.7164585], [-122.3767169, 37.7165125], [-122.3767464, 37.7165314], [-122.3767465, 37.7165314], [-122.3767907, 37.7165684], [-122.3768859, 37.7166207], [-122.3769989, 37.7166967], [-122.3770766, 37.7167355], [-122.3772233, 37.7168245], [-122.3773231, 37.7168859], [-122.3773945, 37.7169156], [-122.3774355, 37.7169411], [-122.3774942, 37.7169745], [-122.3775601, 37.7170077], [-122.3775602, 37.7170077], [-122.377585, 37.7170234], [-122.3776726, 37.7170632], [-122.3776991, 37.7170798], [-122.3776992, 37.7170798], [-122.3777532, 37.7171019], [-122.3778029, 37.7171273], [-122.3778566, 37.7171469], [-122.3778991, 37.7171623], [-122.3779396, 37.7171697], [-122.3779397, 37.7171697], [-122.3779657, 37.7171759], [-122.3780114, 37.7171627], [-122.3780114, 37.7171626], [-122.3780115, 37.7171626], [-122.378108, 37.717161], [-122.3781081, 37.717161], [-122.378156, 37.7171717], [-122.3782026, 37.7171879], [-122.3782435, 37.717208], [-122.378276, 37.7172302], [-122.3783171, 37.7172581], [-122.3783768, 37.7173396], [-122.3783769, 37.7173396], [-122.3784223, 37.7174075], [-122.3784399, 37.717428], [-122.37844, 37.717428], [-122.3784612, 37.717462], [-122.3785643, 37.7174853], [-122.3785849, 37.7174968], [-122.3786049, 37.7175062], [-122.3786247, 37.7175143], [-122.3786445, 37.7175221], [-122.3786646, 37.7175302], [-122.3786852, 37.7175397], [-122.3787067, 37.7175514], [-122.3787294, 37.7175661], [-122.3787294, 37.7175662], [-122.3787533, 37.717592], [-122.3788027, 37.717605], [-122.3788317, 37.7176126], [-122.3788679, 37.7176209], [-122.3789047, 37.7176376], [-122.3789221, 37.7176486], [-122.3789486, 37.7176619], [-122.3789486, 37.717662], [-122.3789852, 37.7176841], [-122.3790292, 37.7177122], [-122.3790687, 37.717732], [-122.3790982, 37.7177488], [-122.3791272, 37.7177619], [-122.3791273, 37.7177619], [-122.3791709, 37.717775], [-122.3792041, 37.7177813], [-122.3792576, 37.7177827], [-122.3793267, 37.7177723], [-122.3793765, 37.7177576], [-122.3793908, 37.7177507], [-122.3793908, 37.7177506], [-122.3794366, 37.7177372], [-122.3794727, 37.7177308], [-122.3794985, 37.7177303], [-122.3794986, 37.7177303], [-122.3795407, 37.7177434], [-122.3795739, 37.7177484], [-122.3796002, 37.7177571], [-122.3796003, 37.7177571], [-122.3796003, 37.7177572], [-122.3796223, 37.7177775], [-122.379669, 37.7177857], [-122.379746, 37.7178086], [-122.3797971, 37.7178305], [-122.3798161, 37.7178475], [-122.3798491, 37.717887], [-122.3798492, 37.717887], [-122.3798492, 37.7178871], [-122.3798528, 37.7179132], [-122.3798549, 37.7179476], [-122.3798615, 37.717976], [-122.3798615, 37.7179761], [-122.3798551, 37.7179992], [-122.3798456, 37.7180222], [-122.3798348, 37.718051], [-122.3798069, 37.7180803], [-122.3797871, 37.7181], [-122.3797509, 37.7181465], [-122.3797163, 37.7181962], [-122.3797163, 37.7181963], [-122.3797026, 37.7182265], [-122.3796893, 37.7182691], [-122.3797039, 37.7183249], [-122.3797161, 37.7183466], [-122.3797612, 37.7183617], [-122.3798196, 37.7183835], [-122.3798956, 37.7184223], [-122.3799615, 37.7184558], [-122.3799801, 37.7184575], [-122.3800192, 37.7184661], [-122.3800193, 37.7184661], [-122.3800501, 37.7184794], [-122.3801041, 37.7185013], [-122.380129, 37.7185181], [-122.3801623, 37.7185265], [-122.3801623, 37.7185266], [-122.3801993, 37.7185513], [-122.3802503, 37.7185824], [-122.380305, 37.7186181], [-122.3803314, 37.7186384], [-122.3803419, 37.7186495], [-122.3803827, 37.7186673], [-122.3804048, 37.7186886], [-122.3805531, 37.7187284], [-122.3806157, 37.7187478], [-122.380677, 37.7187698], [-122.3807087, 37.7187727], [-122.3807781, 37.7187851], [-122.3807782, 37.7187851], [-122.3808504, 37.7187839], [-122.3809386, 37.7187927], [-122.3809803, 37.7187885], [-122.3810422, 37.7187829], [-122.3810423, 37.7187829], [-122.3810637, 37.7187802], [-122.381114, 37.7187735], [-122.3811458, 37.7187698], [-122.3811458, 37.7187697], [-122.3811829, 37.7187599], [-122.381183, 37.7187599], [-122.3812176, 37.7187627], [-122.3812464, 37.7187657], [-122.3812801, 37.7187764], [-122.3813458, 37.7188119], [-122.3813753, 37.7188287], [-122.381393, 37.7188489], [-122.3814156, 37.7188794], [-122.3814542, 37.7189223], [-122.3815049, 37.7189812], [-122.3815347, 37.7190185], [-122.381547, 37.7190434], [-122.3815548, 37.7190638], [-122.38156, 37.7190937], [-122.3816162, 37.7191969], [-122.3816163, 37.7191969], [-122.3816302, 37.7192287], [-122.3816615, 37.7192683], [-122.3816797, 37.7192966], [-122.3817062, 37.7193215], [-122.3817463, 37.7193664], [-122.3817906, 37.7194035], [-122.3818248, 37.7194317], [-122.381854, 37.7194506], [-122.3818832, 37.7194651], [-122.3819211, 37.7194745], [-122.3819212, 37.7194745], [-122.3820688, 37.7195441], [-122.3820993, 37.7195551], [-122.3820993, 37.7195552], [-122.3821346, 37.719581], [-122.3821785, 37.7196054], [-122.3822594, 37.7196554], [-122.3823397, 37.7196918], [-122.3823983, 37.7197219], [-122.3823983, 37.719722], [-122.3824641, 37.7197607], [-122.3825228, 37.7197943], [-122.382574, 37.7198197], [-122.3826253, 37.7198497], [-122.3826903, 37.7199002], [-122.3827837, 37.7199419], [-122.3828082, 37.7199461], [-122.3828083, 37.7199461], [-122.3828708, 37.7199634], [-122.382929, 37.7199763], [-122.3830133, 37.7200045], [-122.3830134, 37.7200046], [-122.383041, 37.7200177], [-122.3830922, 37.7200421], [-122.3831184, 37.7200553], [-122.3831625, 37.7200753], [-122.3831873, 37.7200919], [-122.3832212, 37.720119], [-122.3832362, 37.7201369], [-122.3832703, 37.7201741], [-122.3832703, 37.7201742], [-122.3832848, 37.7202279], [-122.3832882, 37.7202378], [-122.3833166, 37.7202331], [-122.3834639, 37.7200695], [-122.383464, 37.7200695], [-122.3834641, 37.7200695], [-122.3834642, 37.7200695], [-122.3834642, 37.7200696], [-122.3834642, 37.7200697], [-122.3834121, 37.7201373], [-122.3832989, 37.7202631], [-122.3815633, 37.7221886], [-122.3802095, 37.7236991], [-122.3802191, 37.7237056], [-122.3804304, 37.7238237]]]}}, {"type": "Feature", "properties": {"land_use": "Parks and Open Space", "density_range": null, "overlay": false, "source": "DDA Exhibit A Development Plan (map generated May 8 2025), PDF p.2", "fill_colors": ["#b0dc72"], "legend_colour": "#b0db72", "legend_colour_distance_rgb": 1.0, "block_ids": [], "area_acres": 0.716, "confidence": "high"}, "geometry": {"type": "Polygon", "coordinates": [[[-122.386847, 37.7195125], [-122.3869968, 37.7193459], [-122.3869923, 37.7193425], [-122.3859708, 37.7187645], [-122.3859358, 37.7187481], [-122.3858568, 37.7187222], [-122.385791, 37.7187141], [-122.3857405, 37.7187215], [-122.3857074, 37.7187421], [-122.3857073, 37.7187421], [-122.3856935, 37.7187737], [-122.3857011, 37.7188141], [-122.3857322, 37.718861], [-122.3857888, 37.7189123], [-122.3858213, 37.7189334], [-122.3868411, 37.7195103], [-122.386847, 37.7195125]]]}}, {"type": "Feature", "properties": {"land_use": "Parks and Open Space", "density_range": null, "overlay": false, "source": "DDA Exhibit A Development Plan (map generated May 8 2025), PDF p.2", "fill_colors": ["#b0dc72"], "legend_colour": "#b0db72", "legend_colour_distance_rgb": 1.0, "block_ids": [], "area_acres": 0.724, "confidence": "high"}, "geometry": {"type": "Polygon", "coordinates": [[[-122.3883218, 37.7202214], [-122.3883357, 37.7201901], [-122.3883282, 37.7201499], [-122.3882973, 37.7201027], [-122.388241, 37.7200508], [-122.3882088, 37.7200297], [-122.3882088, 37.7200296], [-122.3871784, 37.7194472], [-122.3871725, 37.719445], [-122.3870215, 37.7196113], [-122.3870275, 37.7196158], [-122.3870275, 37.7196159], [-122.3880576, 37.7201983], [-122.3880926, 37.720215], [-122.3881719, 37.7202405], [-122.3882379, 37.7202487], [-122.3882885, 37.7202416], [-122.3883218, 37.7202214]]]}}, {"type": "Feature", "properties": {"land_use": "Residential Density II", "density_range": "50-125 units per acre", "overlay": false, "source": "DDA Exhibit A Development Plan (map generated May 8 2025), PDF p.2", "fill_colors": ["#f9a745"], "legend_colour": "#f9a745", "legend_colour_distance_rgb": 0.0, "block_ids": ["CN-5b"], "area_acres": 1.0, "confidence": "high"}, "geometry": {"type": "Polygon", "coordinates": [[[-122.3834294, 37.7185144], [-122.3834297, 37.7185141], [-122.3826824, 37.7180918], [-122.3826822, 37.718092], [-122.382353, 37.7184593], [-122.3831005, 37.7188817], [-122.3834294, 37.7185144]]]}}, {"type": "Feature", "properties": {"land_use": "Residential Density II", "density_range": "50-125 units per acre", "overlay": false, "source": "DDA Exhibit A Development Plan (map generated May 8 2025), PDF p.2", "fill_colors": ["#f9a745"], "legend_colour": "#f9a745", "legend_colour_distance_rgb": 0.0, "block_ids": ["CN-5a"], "area_acres": 1.001, "confidence": "high"}, "geometry": {"type": "Polygon", "coordinates": [[[-122.3839607, 37.7193682], [-122.3842896, 37.7190002], [-122.3835423, 37.7185777], [-122.3831532, 37.7190129], [-122.3832139, 37.7189462], [-122.383214, 37.7189462], [-122.3832141, 37.7189462], [-122.3832142, 37.7189462], [-122.3839607, 37.7193682]]]}}, {"type": "Feature", "properties": {"land_use": "Residential Density II", "density_range": "50-125 units per acre", "overlay": false, "source": "DDA Exhibit A Development Plan (map generated May 8 2025), PDF p.2", "fill_colors": ["#f9a745"], "legend_colour": "#f9a745", "legend_colour_distance_rgb": 0.0, "block_ids": ["CN-4a"], "area_acres": 1.147, "confidence": "high"}, "geometry": {"type": "Polygon", "coordinates": [[[-122.3836547, 37.718453], [-122.3844017, 37.7188756], [-122.384683, 37.7185612], [-122.3846981, 37.7185404], [-122.3847082, 37.71852], [-122.3847139, 37.7184995], [-122.3847155, 37.718479], [-122.384713, 37.7184588], [-122.3847066, 37.7184391], [-122.3846964, 37.7184201], [-122.3846825, 37.7184021], [-122.3846825, 37.718402], [-122.3846651, 37.7183851], [-122.384665, 37.7183851], [-122.3846429, 37.7183696], [-122.3846428, 37.7183696], [-122.3840368, 37.7180267], [-122.3840363, 37.7180272], [-122.3836555, 37.7184521], [-122.3836547, 37.718453]]]}}, {"type": "Feature", "properties": {"land_use": "Residential Density II", "density_range": "50-125 units per acre", "overlay": false, "source": "DDA Exhibit A Development Plan (map generated May 8 2025), PDF p.2", "fill_colors": ["#f9a745"], "legend_colour": "#f9a745", "legend_colour_distance_rgb": 0.0, "block_ids": ["AG-1"], "area_acres": 1.451, "confidence": "high"}, "geometry": {"type": "Polygon", "coordinates": [[[-122.3850463, 37.7201204], [-122.3854613, 37.7196563], [-122.3846017, 37.71917], [-122.3842418, 37.7195718], [-122.3842309, 37.7195867], [-122.3842266, 37.7195977], [-122.3842241, 37.7196083], [-122.3842235, 37.7196186], [-122.3842247, 37.7196287], [-122.3842277, 37.7196385], [-122.3842325, 37.719648], [-122.384239, 37.7196574], [-122.3842473, 37.7196667], [-122.3842636, 37.7196791], [-122.385046, 37.7201206], [-122.3850463, 37.7201204]]]}}, {"type": "Feature", "properties": {"land_use": "Residential Density II", "density_range": "50-125 units per acre", "overlay": false, "source": "DDA Exhibit A Development Plan (map generated May 8 2025), PDF p.2", "fill_colors": ["#f9a745"], "legend_colour": "#f9a745", "legend_colour_distance_rgb": 0.0, "block_ids": ["CN-3b"], "area_acres": 0.547, "confidence": "high"}, "geometry": {"type": "Polygon", "coordinates": [[[-122.3850569, 37.7182672], [-122.3854355, 37.7178454], [-122.3843455, 37.717864], [-122.3850569, 37.7182672]]]}}, {"type": "Feature", "properties": {"land_use": "Residential Density II", "density_range": "50-125 units per acre", "overlay": false, "source": "DDA Exhibit A Development Plan (map generated May 8 2025), PDF p.2", "fill_colors": ["#f9a745"], "legend_colour": "#f9a745", "legend_colour_distance_rgb": 0.0, "block_ids": ["AG-2"], "area_acres": 1.236, "confidence": "high"}, "geometry": {"type": "Polygon", "coordinates": [[[-122.385552, 37.7195247], [-122.385913, 37.719122], [-122.3850702, 37.7186462], [-122.3847092, 37.7190489], [-122.385552, 37.7195247]]]}}, {"type": "Feature", "properties": {"land_use": "Residential Density II", "density_range": "50-125 units per acre", "overlay": false, "source": "DDA Exhibit A Development Plan (map generated May 8 2025), PDF p.2", "fill_colors": ["#f9a745"], "legend_colour": "#f9a745", "legend_colour_distance_rgb": 0.0, "block_ids": ["AG-20"], "area_acres": 1.219, "confidence": "high"}, "geometry": {"type": "Polygon", "coordinates": [[[-122.38588, 37.7205917], [-122.3862956, 37.7201283], [-122.3855746, 37.7197203], [-122.3851575, 37.7201837], [-122.3858799, 37.7205917], [-122.38588, 37.7205917]]]}}, {"type": "Feature", "properties": {"land_use": "Residential Density II", "density_range": "50-125 units per acre", "overlay": false, "source": "DDA Exhibit A Development Plan (map generated May 8 2025), PDF p.2", "fill_colors": ["#f9a745"], "legend_colour": "#f9a745", "legend_colour_distance_rgb": 0.0, "block_ids": ["AG-4"], "area_acres": 1.229, "confidence": "high"}, "geometry": {"type": "Polygon", "coordinates": [[[-122.386225, 37.7187727], [-122.3865846, 37.7183712], [-122.3857436, 37.7178955], [-122.3853839, 37.7182958], [-122.386225, 37.7187727]]]}}, {"type": "Feature", "properties": {"land_use": "Residential Density II", "density_range": "50-125 units per acre", "overlay": false, "source": "DDA Exhibit A Development Plan (map generated May 8 2025), PDF p.2", "fill_colors": ["#f9a745"], "legend_colour": "#f9a745", "legend_colour_distance_rgb": 0.0, "block_ids": ["AG-11"], "area_acres": 1.029, "confidence": "high"}, "geometry": {"type": "Polygon", "coordinates": [[[-122.3864049, 37.7200072], [-122.3867659, 37.7196045], [-122.3860655, 37.7192077], [-122.3857042, 37.7196104], [-122.3864049, 37.7200072]]]}}, {"type": "Feature", "properties": {"land_use": "Residential Density II", "density_range": "50-125 units per acre", "overlay": false, "source": "DDA Exhibit A Development Plan (map generated May 8 2025), PDF p.2", "fill_colors": ["#f9a745"], "legend_colour": "#f9a745", "legend_colour_distance_rgb": 0.0, "block_ids": ["AG-19"], "area_acres": 1.346, "confidence": "high"}, "geometry": {"type": "Polygon", "coordinates": [[[-122.3871894, 37.7206846], [-122.3871936, 37.7206799], [-122.3863962, 37.7202285], [-122.3859808, 37.7206918], [-122.3867783, 37.721143], [-122.3871894, 37.7206846]]]}}, {"type": "Feature", "properties": {"land_use": "Residential Density II", "density_range": "50-125 units per acre", "overlay": false, "source": "DDA Exhibit A Development Plan (map generated May 8 2025), PDF p.2", "fill_colors": ["#f9a745"], "legend_colour": "#f9a745", "legend_colour_distance_rgb": 0.0, "block_ids": ["AG-9"], "area_acres": 1.025, "confidence": "high"}, "geometry": {"type": "Polygon", "coordinates": [[[-122.3870793, 37.7192552], [-122.3874374, 37.7188535], [-122.386737, 37.7184567], [-122.3863775, 37.7188584], [-122.3870793, 37.7192552]]]}}, {"type": "Feature", "properties": {"land_use": "Residential Density II", "density_range": "50-125 units per acre", "overlay": false, "source": "DDA Exhibit A Development Plan (map generated May 8 2025), PDF p.2", "fill_colors": ["#f9a745"], "legend_colour": "#f9a745", "legend_colour_distance_rgb": 0.0, "block_ids": ["AG-12"], "area_acres": 1.137, "confidence": "high"}, "geometry": {"type": "Polygon", "coordinates": [[[-122.3873545, 37.720544], [-122.3877155, 37.7201413], [-122.3869402, 37.7197034], [-122.3865792, 37.7201061], [-122.3873545, 37.720544]]]}}, {"type": "Feature", "properties": {"land_use": "Residential Density II", "density_range": "50-125 units per acre", "overlay": false, "source": "DDA Exhibit A Development Plan (map generated May 8 2025), PDF p.2", "fill_colors": ["#f9a745"], "legend_colour": "#f9a745", "legend_colour_distance_rgb": 0.0, "block_ids": ["AG-18"], "area_acres": 1.31, "confidence": "high"}, "geometry": {"type": "Polygon", "coordinates": [[[-122.38775, 37.7216488], [-122.3881614, 37.7211901], [-122.3873772, 37.7207468], [-122.3869667, 37.7212054], [-122.3869667, 37.7212055], [-122.38775, 37.7216488]]]}}, {"type": "Feature", "properties": {"land_use": "Residential Density II", "density_range": "50-125 units per acre", "overlay": false, "source": "DDA Exhibit A Development Plan (map generated May 8 2025), PDF p.2", "fill_colors": ["#f9a745"], "legend_colour": "#f9a745", "legend_colour_distance_rgb": 0.0, "block_ids": ["AG-13"], "area_acres": 1.136, "confidence": "high"}, "geometry": {"type": "Polygon", "coordinates": [[[-122.3880318, 37.7197932], [-122.3883914, 37.7193926], [-122.3876135, 37.7189526], [-122.3872536, 37.7193529], [-122.3880318, 37.7197932]]]}}, {"type": "Feature", "properties": {"land_use": "Residential Density II", "density_range": "50-125 units per acre", "overlay": false, "source": "DDA Exhibit A Development Plan (map generated May 8 2025), PDF p.2", "fill_colors": ["#f9a745"], "legend_colour": "#f9a745", "legend_colour_distance_rgb": 0.0, "block_ids": ["AG-17"], "area_acres": 1.119, "confidence": "high"}, "geometry": {"type": "Polygon", "coordinates": [[[-122.3881997, 37.7210656], [-122.3885607, 37.7206629], [-122.3877987, 37.7202314], [-122.3874377, 37.7206355], [-122.3881997, 37.7210656]]]}}, {"type": "Feature", "properties": {"land_use": "Residential Density I", "density_range": "15-75 units per acre", "overlay": false, "source": "DDA Exhibit A Development Plan (map generated May 8 2025), PDF p.2", "fill_colors": ["#f0ee41"], "legend_colour": "#f0ee41", "legend_colour_distance_rgb": 0.0, "block_ids": ["CN-6a"], "area_acres": 0.513, "confidence": "high"}, "geometry": {"type": "Polygon", "coordinates": [[[-122.3824123, 37.7179386], [-122.3824123, 37.7179385], [-122.3823408, 37.7178981], [-122.3813884, 37.7179143], [-122.3820825, 37.7183063], [-122.3824123, 37.7179386]]]}}, {"type": "Feature", "properties": {"land_use": "Residential Density I", "density_range": "15-75 units per acre", "overlay": false, "source": "DDA Exhibit A Development Plan (map generated May 8 2025), PDF p.2", "fill_colors": ["#e8ee42", "#f0ee41"], "legend_colour": "#f0ee41", "legend_colour_distance_rgb": 8.1, "block_ids": ["AG-5", "AG-8"], "area_acres": 1.268, "confidence": "high"}, "geometry": {"type": "Polygon", "coordinates": [[[-122.3875921, 37.7187581], [-122.3878103, 37.7185136], [-122.3869867, 37.7180479], [-122.386594, 37.7178256], [-122.385961, 37.7178364], [-122.3867682, 37.7182926], [-122.3875919, 37.7187583], [-122.3875921, 37.7187581]]]}}, {"type": "Feature", "properties": {"land_use": "Residential Density I", "density_range": "15-75 units per acre", "overlay": false, "source": "DDA Exhibit A Development Plan (map generated May 8 2025), PDF p.2", "fill_colors": ["#f0ee41"], "legend_colour": "#f0ee41", "legend_colour_distance_rgb": 0.0, "block_ids": ["AG-14", "AG-15"], "area_acres": 1.549, "confidence": "high"}, "geometry": {"type": "Polygon", "coordinates": [[[-122.3894167, 37.7197897], [-122.3896349, 37.7195452], [-122.3887947, 37.7190701], [-122.3878953, 37.7185614], [-122.3876759, 37.7188058], [-122.3885759, 37.7193144], [-122.3894167, 37.7197897]]]}}, {"type": "Feature", "properties": {"land_use": "Residential Density III", "density_range": "100-175 units per acre", "overlay": false, "source": "DDA Exhibit A Development Plan (map generated May 8 2025), PDF p.2", "fill_colors": ["#d15f31"], "legend_colour": "#d26031", "legend_colour_distance_rgb": 1.4, "block_ids": ["CS-1"], "area_acres": 0.104, "confidence": "high"}, "geometry": {"type": "Polygon", "coordinates": [[[-122.3801146, 37.7143039], [-122.380124, 37.7143113], [-122.3801115, 37.7138466], [-122.3799643, 37.7140106], [-122.3799754, 37.7140748], [-122.3799805, 37.7140951], [-122.3799883, 37.7141195], [-122.3799992, 37.7141471], [-122.3800136, 37.714177], [-122.380032, 37.7142084], [-122.3800547, 37.7142406], [-122.3800821, 37.7142727], [-122.3801146, 37.7143039]]]}}, {"type": "Feature", "properties": {"land_use": "Residential Density III", "density_range": "100-175 units per acre", "overlay": false, "source": "DDA Exhibit A Development Plan (map generated May 8 2025), PDF p.2", "fill_colors": ["#d15f31"], "legend_colour": "#d26031", "legend_colour_distance_rgb": 1.4, "block_ids": ["CN-4b"], "area_acres": 0.786, "confidence": "high"}, "geometry": {"type": "Polygon", "coordinates": [[[-122.3839233, 37.7179639], [-122.3839242, 37.7179629], [-122.3837666, 37.7178738], [-122.3828644, 37.7178892], [-122.3827954, 37.7179662], [-122.3827951, 37.7179667], [-122.3835421, 37.7183895], [-122.3835426, 37.7183888], [-122.3839233, 37.7179639]]]}}, {"type": "Feature", "properties": {"land_use": "Community Use", "density_range": null, "overlay": false, "source": "DDA Exhibit A Development Plan (map generated May 8 2025), PDF p.2", "fill_colors": ["#8c4fad"], "legend_colour": "#8b4fad", "legend_colour_distance_rgb": 1.0, "block_ids": ["AG-16"], "area_acres": 1.116, "confidence": "high"}, "geometry": {"type": "Polygon", "coordinates": [[[-122.3889478, 37.7203112], [-122.3893074, 37.7199106], [-122.3885439, 37.7194782], [-122.3881843, 37.71988], [-122.3889478, 37.7203112]]]}}]}