{"type": "FeatureCollection", "metadata": {"title": "Mid-block breaks (public easements), Addendum 7 Fig 5", "crs": "EPSG:4326 (lon, lat)", "generated": "2026-10-09", "georeferencing": "see georeferencing.json in this folder"}, "features": [{"type": "Feature", "properties": {"kind": "mid_block_break", "block_id": null, "area_acres": 0.147, "source": "FEIR Addendum 7 Fig 5 hatch \"Mid-block Break\", PDF p.23", "confidence": "high"}, "geometry": {"type": "Polygon", "coordinates": [[[-122.3873227, 37.7168949], [-122.3874028, 37.7168057], [-122.3874022, 37.7168052], [-122.3869537, 37.7165515], [-122.3869532, 37.7165511], [-122.3868724, 37.7166412], [-122.3873224, 37.7168949], [-122.3873227, 37.7168949]]]}}, {"type": "Feature", "properties": {"kind": "mid_block_break", "block_id": null, "area_acres": 0.26, "source": "FEIR Addendum 7 Fig 5 hatch \"Mid-block Break\", PDF p.23", "confidence": "high"}, "geometry": {"type": "Polygon", "coordinates": [[[-122.3866364, 37.7165063], [-122.3867164, 37.7164169], [-122.3862675, 37.7161629], [-122.3859204, 37.7159672], [-122.3858401, 37.7160567], [-122.386636, 37.7165063], [-122.3866364, 37.7165063]]]}}, {"type": "Feature", "properties": {"kind": "mid_block_break", "block_id": null, "area_acres": 0.235, "source": "FEIR Addendum 7 Fig 5 hatch \"Mid-block Break\", PDF p.23", "confidence": "high"}, "geometry": {"type": "Polygon", "coordinates": [[[-122.3850349, 37.7154665], [-122.3849551, 37.7155557], [-122.3856767, 37.7159648], [-122.3857567, 37.7158752], [-122.3853079, 37.7156214], [-122.3850349, 37.7154665]]]}}, {"type": "Feature", "properties": {"kind": "mid_block_break", "block_id": null, "area_acres": 0.235, "source": "FEIR Addendum 7 Fig 5 hatch \"Mid-block Break\", PDF p.23", "confidence": "high"}, "geometry": {"type": "Polygon", "coordinates": [[[-122.3840423, 37.7149041], [-122.3839625, 37.7149933], [-122.384684, 37.7154024], [-122.3847638, 37.7153128], [-122.3843153, 37.7150591], [-122.3840423, 37.7149041]]]}}, {"type": "Feature", "properties": {"kind": "mid_block_break", "block_id": null, "area_acres": 0.262, "source": "FEIR Addendum 7 Fig 5 hatch \"Mid-block Break\", PDF p.23", "confidence": "high"}, "geometry": {"type": "Polygon", "coordinates": [[[-122.383799, 37.7149015], [-122.3838787, 37.7148121], [-122.3834301, 37.7145583], [-122.383075, 37.7143563], [-122.3829952, 37.7144461], [-122.3837987, 37.7149016], [-122.383799, 37.7149015]]]}}, {"type": "Feature", "properties": {"kind": "mid_block_break", "block_id": null, "area_acres": 0.256, "source": "FEIR Addendum 7 Fig 5 hatch \"Mid-block Break\", PDF p.23", "confidence": "high"}, "geometry": {"type": "Polygon", "coordinates": [[[-122.384713, 37.7111567], [-122.3848074, 37.7112365], [-122.3855211, 37.7107031], [-122.3854099, 37.710636], [-122.384713, 37.7111567]]]}}, {"type": "Feature", "properties": {"kind": "mid_block_break", "block_id": null, "area_acres": 0.224, "source": "FEIR Addendum 7 Fig 5 hatch \"Mid-block Break\", PDF p.23", "confidence": "high"}, "geometry": {"type": "Polygon", "coordinates": [[[-122.3839588, 37.7117199], [-122.3840534, 37.7117997], [-122.384671, 37.7113391], [-122.3845765, 37.7112593], [-122.3839588, 37.7117199]]]}}, {"type": "Feature", "properties": {"kind": "mid_block_break", "block_id": null, "area_acres": 0.217, "source": "FEIR Addendum 7 Fig 5 hatch \"Mid-block Break\", PDF p.23", "confidence": "high"}, "geometry": {"type": "Polygon", "coordinates": [[[-122.3832146, 37.7122761], [-122.3833096, 37.7123558], [-122.3839043, 37.7119117], [-122.3838091, 37.7118314], [-122.3832146, 37.7122761]]]}}, {"type": "Feature", "properties": {"kind": "mid_block_break", "block_id": null, "area_acres": 0.207, "source": "FEIR Addendum 7 Fig 5 hatch \"Mid-block Break\", PDF p.23", "confidence": "high"}, "geometry": {"type": "Polygon", "coordinates": [[[-122.3825122, 37.7128002], [-122.3826066, 37.71288], [-122.3831731, 37.7124572], [-122.3830779, 37.7123769], [-122.3825122, 37.7128002]]]}}, {"type": "Feature", "properties": {"kind": "mid_block_break", "block_id": null, "area_acres": 0.206, "source": "FEIR Addendum 7 Fig 5 hatch \"Mid-block Break\", PDF p.23", "confidence": "high"}, "geometry": {"type": "Polygon", "coordinates": [[[-122.3818752, 37.7113325], [-122.3824062, 37.7117815], [-122.3825068, 37.7117064], [-122.3819756, 37.7112564], [-122.3818752, 37.7113325]]]}}, {"type": "Feature", "properties": {"kind": "mid_block_break", "block_id": null, "area_acres": 0.207, "source": "FEIR Addendum 7 Fig 5 hatch \"Mid-block Break\", PDF p.23", "confidence": "high"}, "geometry": {"type": "Polygon", "coordinates": [[[-122.3833722, 37.7102129], [-122.3839048, 37.7106632], [-122.3840059, 37.7105876], [-122.3834734, 37.7101375], [-122.3833722, 37.7102129]]]}}, {"type": "Feature", "properties": {"kind": "mid_block_break", "block_id": "CS-4b", "area_acres": 0.206, "source": "FEIR Addendum 7 Fig 5 hatch \"Mid-block Break\", PDF p.23", "confidence": "high"}, "geometry": {"type": "Polygon", "coordinates": [[[-122.3816387, 37.7134849], [-122.3817521, 37.7135489], [-122.3822, 37.7130498], [-122.3820875, 37.7129849], [-122.3816387, 37.7134849]]]}}, {"type": "Feature", "properties": {"kind": "mid_block_break", "block_id": "CS-2b", "area_acres": 0.206, "source": "FEIR Addendum 7 Fig 5 hatch \"Mid-block Break\", PDF p.23", "confidence": "high"}, "geometry": {"type": "Polygon", "coordinates": [[[-122.3811961, 37.7141692], [-122.3816439, 37.7136701], [-122.3815309, 37.7136058], [-122.3810829, 37.714105], [-122.3811957, 37.7141692], [-122.3811961, 37.7141692]]]}}, {"type": "Feature", "properties": {"kind": "mid_block_break", "block_id": null, "area_acres": 0.261, "source": "FEIR Addendum 7 Fig 5 hatch \"Mid-block Break\", PDF p.23", "confidence": "high"}, "geometry": {"type": "Polygon", "coordinates": [[[-122.3847264, 37.7172993], [-122.3855224, 37.717749], [-122.3856029, 37.7176589], [-122.3848072, 37.7172095], [-122.3847264, 37.7172993]]]}}, {"type": "Feature", "properties": {"kind": "mid_block_break", "block_id": null, "area_acres": 0.236, "source": "FEIR Addendum 7 Fig 5 hatch \"Mid-block Break\", PDF p.23", "confidence": "high"}, "geometry": {"type": "Polygon", "coordinates": [[[-122.3828489, 37.7162365], [-122.3835698, 37.7166449], [-122.3836511, 37.7165552], [-122.3829287, 37.7161469], [-122.3828489, 37.7162365]]]}}, {"type": "Feature", "properties": {"kind": "mid_block_break", "block_id": null, "area_acres": 0.263, "source": "FEIR Addendum 7 Fig 5 hatch \"Mid-block Break\", PDF p.23", "confidence": "high"}, "geometry": {"type": "Polygon", "coordinates": [[[-122.3818815, 37.7156887], [-122.3826848, 37.7161442], [-122.3827655, 37.7160542], [-122.3819616, 37.7155995], [-122.3818815, 37.7156887]]]}}, {"type": "Feature", "properties": {"kind": "mid_block_break", "block_id": null, "area_acres": 0.174, "source": "FEIR Addendum 7 Fig 5 hatch \"Mid-block Break\", PDF p.23", "confidence": "high"}, "geometry": {"type": "Polygon", "coordinates": [[[-122.3836525, 37.7184542], [-122.3840342, 37.7180284], [-122.3839214, 37.717965], [-122.3835405, 37.7183899], [-122.3836521, 37.7184543], [-122.3836525, 37.7184542]]]}}, {"type": "Feature", "properties": {"kind": "mid_block_break", "block_id": null, "area_acres": 0.152, "source": "FEIR Addendum 7 Fig 5 hatch \"Mid-block Break\", PDF p.23", "confidence": "high"}, "geometry": {"type": "Polygon", "coordinates": [[[-122.3832116, 37.7189472], [-122.3835399, 37.7185792], [-122.3834271, 37.7185156], [-122.3830976, 37.7188829], [-122.3832112, 37.7189472], [-122.3832116, 37.7189472]]]}}, {"type": "Feature", "properties": {"kind": "mid_block_break", "block_id": null, "area_acres": 0.151, "source": "FEIR Addendum 7 Fig 5 hatch \"Mid-block Break\", PDF p.23", "confidence": "high"}, "geometry": {"type": "Polygon", "coordinates": [[[-122.3812209, 37.7178188], [-122.3813324, 37.7178845], [-122.3813464, 37.7178689], [-122.3813832, 37.7178279], [-122.3814354, 37.7177698], [-122.3814954, 37.7177029], [-122.3815556, 37.7176358], [-122.3816086, 37.7175768], [-122.3816468, 37.7175342], [-122.3816627, 37.7175165], [-122.3815502, 37.7174529], [-122.3812209, 37.7178188]]]}}, {"type": "Feature", "properties": {"kind": "mid_block_break", "block_id": null, "area_acres": 0.175, "source": "FEIR Addendum 7 Fig 5 hatch \"Mid-block Break\", PDF p.23", "confidence": "high"}, "geometry": {"type": "Polygon", "coordinates": [[[-122.3816623, 37.7173272], [-122.3817748, 37.7173907], [-122.3821561, 37.7169656], [-122.3820429, 37.7169015], [-122.3816623, 37.717327], [-122.3816623, 37.7173272]]]}}, {"type": "Feature", "properties": {"kind": "mid_block_break", "block_id": null, "area_acres": 0.189, "source": "FEIR Addendum 7 Fig 5 hatch \"Mid-block Break\", PDF p.23", "confidence": "high"}, "geometry": {"type": "Polygon", "coordinates": [[[-122.3868506, 37.721145], [-122.3869637, 37.7212088], [-122.3873746, 37.72075], [-122.387262, 37.7206864], [-122.3868505, 37.7211447], [-122.3868506, 37.721145]]]}}, {"type": "Feature", "properties": {"kind": "mid_block_break", "block_id": null, "area_acres": 0.19, "source": "FEIR Addendum 7 Fig 5 hatch \"Mid-block Break\", PDF p.23", "confidence": "high"}, "geometry": {"type": "Polygon", "coordinates": [[[-122.3854589, 37.7196588], [-122.3850431, 37.720123], [-122.3851547, 37.720186], [-122.3855723, 37.7197227], [-122.3854589, 37.7196588]]]}}, {"type": "Feature", "properties": {"kind": "mid_block_break", "block_id": null, "area_acres": 1.017, "source": "FEIR Addendum 7 Fig 5 hatch \"Mid-block Break\", PDF p.23", "confidence": "high"}, "geometry": {"type": "Polygon", "coordinates": [[[-122.3805678, 37.7171523], [-122.3807208, 37.7169835], [-122.3805084, 37.7168645], [-122.3804938, 37.7169038], [-122.3804706, 37.716983], [-122.3804539, 37.7170607], [-122.3804457, 37.7171358], [-122.3807177, 37.7176385], [-122.3838983, 37.719437], [-122.3839581, 37.7193698], [-122.3808017, 37.7175839], [-122.3805678, 37.7171523]]]}}, {"type": "Feature", "properties": {"kind": "mid_block_break", "block_id": null, "area_acres": 0.264, "source": "FEIR Addendum 7 Fig 5 hatch \"Mid-block Break\", PDF p.23", "confidence": "high"}, "geometry": {"type": "Polygon", "coordinates": [[[-122.3801082, 37.7142978], [-122.3800839, 37.7142744], [-122.3800546, 37.7142405], [-122.3800323, 37.7142089], [-122.3800313, 37.7142073], [-122.3800296, 37.7142045], [-122.3800274, 37.7142009], [-122.3800249, 37.7141968], [-122.3800225, 37.7141927], [-122.3800202, 37.7141889], [-122.3800184, 37.7141858], [-122.3800173, 37.7141839], [-122.3800162, 37.7141818], [-122.3800144, 37.7141784], [-122.3800123, 37.7141742], [-122.38001, 37.7141697], [-122.3800078, 37.7141654], [-122.3800059, 37.7141617], [-122.3800046, 37.7141591], [-122.3800041, 37.7141581], [-122.3799878, 37.7141188], [-122.3799754, 37.7140764], [-122.3799752, 37.7140753], [-122.3799747, 37.7140725], [-122.379974, 37.7140685], [-122.3799731, 37.7140638], [-122.3799722, 37.7140589], [-122.3799714, 37.7140545], [-122.3799708, 37.714051], [-122.3799704, 37.714049], [-122.37997, 37.7140464], [-122.3799692, 37.7140415], [-122.3799681, 37.7140351], [-122.3799669, 37.7140281], [-122.3799657, 37.7140211], [-122.3799646, 37.7140152], [-122.3799639, 37.714011], [-122.3799636, 37.7140094], [-122.3801651, 37.713785], [-122.3801097, 37.7137537], [-122.3798934, 37.7139927], [-122.3798986, 37.7140479], [-122.3799122, 37.7141055], [-122.3799322, 37.71416], [-122.3799585, 37.7142117], [-122.379991, 37.7142604], [-122.3800295, 37.7143063], [-122.3800741, 37.7143495], [-122.3801245, 37.7143898], [-122.3801807, 37.7144275], [-122.3810267, 37.7149036], [-122.381077, 37.714866], [-122.3801967, 37.7143682], [-122.3801082, 37.7142978]]]}}, {"type": "Feature", "properties": {"kind": "mid_block_break", "block_id": null, "area_acres": 0.102, "source": "FEIR Addendum 7 Fig 5 hatch \"Mid-block Break\", PDF p.23", "confidence": "high"}, "geometry": {"type": "Polygon", "coordinates": [[[-122.3806754, 37.7131202], [-122.380229, 37.7136218], [-122.3802836, 37.7136529], [-122.3807319, 37.7131535], [-122.3806754, 37.7131202]]]}}, {"type": "Feature", "properties": {"kind": "mid_block_break", "block_id": null, "area_acres": 0.103, "source": "FEIR Addendum 7 Fig 5 hatch \"Mid-block Break\", PDF p.23", "confidence": "high"}, "geometry": {"type": "Polygon", "coordinates": [[[-122.3812313, 37.7125015], [-122.3807845, 37.7130008], [-122.3808405, 37.7130324], [-122.3812883, 37.7125334], [-122.3812313, 37.7125015]]]}}]}