{"type": "FeatureCollection", "metadata": {"title": "Allowable high-rise tower location zones (Addendum 7 Fig 5)", "crs": "EPSG:4326 (lon, lat)", "generated": "2026-10-09", "georeferencing": "see georeferencing.json in this folder"}, "features": [{"type": "Feature", "properties": {"kind": "allowable_high_rise_tower_location_zone", "nearest_tower": "A", "nearest_tower_distance_m": 0.0, "block_id": "CN-4b", "area_acres": 0.626, "source": "FEIR Addendum 7 Fig 5 hatch \"Allowable High-rise Tower Location Zone\", PDF p.23", "confidence": "high"}, "geometry": {"type": "Polygon", "coordinates": [[[-122.3829373, 37.7178066], [-122.3836196, 37.7181683], [-122.3838439, 37.71792], [-122.3831748, 37.7175413], [-122.3829373, 37.7178063], [-122.3829373, 37.7178066]]]}}, {"type": "Feature", "properties": {"kind": "allowable_high_rise_tower_location_zone", "nearest_tower": null, "nearest_tower_distance_m": 45.2, "block_id": "CN-7a", "area_acres": 0.407, "source": "FEIR Addendum 7 Fig 5 hatch \"Allowable High-rise Tower Location Zone\", PDF p.23", "confidence": "high"}, "geometry": {"type": "Polygon", "coordinates": [[[-122.3822479, 37.7174222], [-122.3826609, 37.7176589], [-122.382903, 37.7173887], [-122.3824887, 37.7171541], [-122.3822479, 37.7174222]]]}}, {"type": "Feature", "properties": {"kind": "allowable_high_rise_tower_location_zone", "nearest_tower": "C", "nearest_tower_distance_m": 0.0, "block_id": "CN-8b", "area_acres": 0.687, "source": "FEIR Addendum 7 Fig 5 hatch \"Allowable High-rise Tower Location Zone\", PDF p.23", "confidence": "high"}, "geometry": {"type": "Polygon", "coordinates": [[[-122.3826823, 37.7169252], [-122.3831065, 37.717164], [-122.3835048, 37.7167182], [-122.3830814, 37.716479], [-122.3826823, 37.7169252]]]}}, {"type": "Feature", "properties": {"kind": "allowable_high_rise_tower_location_zone", "nearest_tower": null, "nearest_tower_distance_m": 37.0, "block_id": "CN-8a", "area_acres": 0.625, "source": "FEIR Addendum 7 Fig 5 hatch \"Allowable High-rise Tower Location Zone\", PDF p.23", "confidence": "high"}, "geometry": {"type": "Polygon", "coordinates": [[[-122.3832993, 37.7162382], [-122.3837234, 37.7164745], [-122.3840853, 37.716071], [-122.3836601, 37.7158306], [-122.3832993, 37.7162382]]]}}, {"type": "Feature", "properties": {"kind": "allowable_high_rise_tower_location_zone", "nearest_tower": "E", "nearest_tower_distance_m": 0.0, "block_id": "CN-10b", "area_acres": 0.647, "source": "FEIR Addendum 7 Fig 5 hatch \"Allowable High-rise Tower Location Zone\", PDF p.23", "confidence": "high"}, "geometry": {"type": "Polygon", "coordinates": [[[-122.3838092, 37.7156621], [-122.3842351, 37.7159034], [-122.3846072, 37.7154881], [-122.3841858, 37.7152433], [-122.3838092, 37.7156619], [-122.3838092, 37.7156621]]]}}, {"type": "Feature", "properties": {"kind": "allowable_high_rise_tower_location_zone", "nearest_tower": "D", "nearest_tower_distance_m": 0.0, "block_id": "CN-9a", "area_acres": 1.113, "source": "FEIR Addendum 7 Fig 5 hatch \"Allowable High-rise Tower Location Zone\", PDF p.23", "confidence": "high"}, "geometry": {"type": "Polygon", "coordinates": [[[-122.3820324, 37.7155208], [-122.38278, 37.7159489], [-122.3831453, 37.7155392], [-122.3823958, 37.7151153], [-122.3820324, 37.7155205], [-122.3820324, 37.7155208]]]}}, {"type": "Feature", "properties": {"kind": "allowable_high_rise_tower_location_zone", "nearest_tower": "K", "nearest_tower_distance_m": 0.0, "block_id": "CS-7a", "area_acres": 0.473, "source": "FEIR Addendum 7 Fig 5 hatch \"Allowable High-rise Tower Location Zone\", PDF p.23", "confidence": "high"}, "geometry": {"type": "Polygon", "coordinates": [[[-122.3815971, 37.71198], [-122.3816581, 37.7120628], [-122.3817134, 37.7121228], [-122.3817939, 37.7121926], [-122.3818226, 37.7122171], [-122.3823208, 37.7118454], [-122.3820818, 37.7116356], [-122.3815971, 37.71198]]]}}]}