{"type": "FeatureCollection", "metadata": {"title": "High-rise towers A-K (2024 D4D lettering)", "crs": "EPSG:4326 (lon, lat)", "generated": "2026-10-09", "georeferencing": "see georeferencing.json in this folder"}, "features": [{"type": "Feature", "properties": {"tower": "A", "max_height_ft": 220, "max_podium_height_ft": "65", "location_type": "encouraged high-rise tower location", "letter_in_addendum7_fig4_2019": "A", "stories_2019": 22, "height_with_rooftop_mechanical_ft_2019": 242, "height_ft_2019_table": 220, "match_dist_to_d4d_fig4_3_symbol_m": 7.6, "match_dist_to_fig4_symbol_m": 0.0, "block_id": "CN-4b", "source": "symbol centre: FEIR Addendum 7 Fig 5 (PDF p.23, 2024; identical position in Fig 4, 2019); letter: D4D Fig 4.3 (PDF p.147); heights: D4D Table 4.2 (PDF p.146)", "note": "Symbolic location from the figure; encouraged towers may be placed anywhere in their allowable zone (Table 4.2).", "confidence": "high"}, "geometry": {"type": "Point", "coordinates": [-122.38338, 37.7178381]}}, {"type": "Feature", "properties": {"tower": "B", "max_height_ft": 240, "max_podium_height_ft": "65", "location_type": "fixed high-rise tower location", "letter_in_addendum7_fig4_2019": "B", "stories_2019": 24, "height_with_rooftop_mechanical_ft_2019": 264, "height_ft_2019_table": 240, "match_dist_to_d4d_fig4_3_symbol_m": 4.0, "match_dist_to_fig4_symbol_m": 0.0, "block_id": "CN-7b", "source": "symbol centre: FEIR Addendum 7 Fig 5 (PDF p.23, 2024; identical position in Fig 4, 2019); letter: D4D Fig 4.3 (PDF p.147); heights: D4D Table 4.2 (PDF p.146)", "note": "Symbolic location from the figure; encouraged towers may be placed anywhere in their allowable zone (Table 4.2).", "confidence": "high"}, "geometry": {"type": "Point", "coordinates": [-122.3812518, 37.71663]}}, {"type": "Feature", "properties": {"tower": "C", "max_height_ft": 220, "max_podium_height_ft": "65", "location_type": "encouraged high-rise tower location", "letter_in_addendum7_fig4_2019": "C", "stories_2019": 22, "height_with_rooftop_mechanical_ft_2019": 242, "height_ft_2019_table": 220, "match_dist_to_d4d_fig4_3_symbol_m": 0.4, "match_dist_to_fig4_symbol_m": 0.0, "block_id": "CN-8b", "source": "symbol centre: FEIR Addendum 7 Fig 5 (PDF p.23, 2024; identical position in Fig 4, 2019); letter: D4D Fig 4.3 (PDF p.147); heights: D4D Table 4.2 (PDF p.146)", "note": "Symbolic location from the figure; encouraged towers may be placed anywhere in their allowable zone (Table 4.2).", "confidence": "high"}, "geometry": {"type": "Point", "coordinates": [-122.3830637, 37.7169797]}}, {"type": "Feature", "properties": {"tower": "D", "max_height_ft": 320, "max_podium_height_ft": "65 fronting Gilman; 85 fronting Harney", "location_type": "encouraged high-rise tower location", "letter_in_addendum7_fig4_2019": "D", "stories_2019": 32, "height_with_rooftop_mechanical_ft_2019": 352, "height_ft_2019_table": 320, "match_dist_to_d4d_fig4_3_symbol_m": 2.9, "match_dist_to_fig4_symbol_m": 0.0, "block_id": "CN-9a", "source": "symbol centre: FEIR Addendum 7 Fig 5 (PDF p.23, 2024; identical position in Fig 4, 2019); letter: D4D Fig 4.3 (PDF p.147); heights: D4D Table 4.2 (PDF p.146)", "note": "Symbolic location from the figure; encouraged towers may be placed anywhere in their allowable zone (Table 4.2).", "confidence": "high"}, "geometry": {"type": "Point", "coordinates": [-122.3828875, 37.7155595]}}, {"type": "Feature", "properties": {"tower": "E", "max_height_ft": 170, "max_podium_height_ft": "65", "location_type": "encouraged high-rise tower location", "letter_in_addendum7_fig4_2019": "E", "stories_2019": 17, "height_with_rooftop_mechanical_ft_2019": 187, "height_ft_2019_table": 170, "match_dist_to_d4d_fig4_3_symbol_m": 1.8, "match_dist_to_fig4_symbol_m": 0.0, "block_id": "CN-10b", "source": "symbol centre: FEIR Addendum 7 Fig 5 (PDF p.23, 2024; identical position in Fig 4, 2019); letter: D4D Fig 4.3 (PDF p.147); heights: D4D Table 4.2 (PDF p.146)", "note": "Symbolic location from the figure; encouraged towers may be placed anywhere in their allowable zone (Table 4.2).", "confidence": "high"}, "geometry": {"type": "Point", "coordinates": [-122.3841927, 37.7157222]}}, {"type": "Feature", "properties": {"tower": "F", "max_height_ft": 320, "max_podium_height_ft": "85", "location_type": "fixed high-rise tower location", "letter_in_addendum7_fig4_2019": "F", "stories_2019": 32, "height_with_rooftop_mechanical_ft_2019": 352, "height_ft_2019_table": 320, "match_dist_to_d4d_fig4_3_symbol_m": 3.5, "match_dist_to_fig4_symbol_m": 0.0, "block_id": "CN-11a", "source": "symbol centre: FEIR Addendum 7 Fig 5 (PDF p.23, 2024; identical position in Fig 4, 2019); letter: D4D Fig 4.3 (PDF p.147); heights: D4D Table 4.2 (PDF p.146)", "note": "Symbolic location from the figure; encouraged towers may be placed anywhere in their allowable zone (Table 4.2).", "confidence": "high"}, "geometry": {"type": "Point", "coordinates": [-122.3835621, 37.7140447]}}, {"type": "Feature", "properties": {"tower": "G", "max_height_ft": 240, "max_podium_height_ft": "65", "location_type": "fixed high-rise tower location", "letter_in_addendum7_fig4_2019": "H", "stories_2019": 24, "height_with_rooftop_mechanical_ft_2019": 264, "height_ft_2019_table": 240, "match_dist_to_d4d_fig4_3_symbol_m": 4.2, "match_dist_to_fig4_symbol_m": 0.0, "block_id": "CS-1", "source": "symbol centre: FEIR Addendum 7 Fig 5 (PDF p.23, 2024; identical position in Fig 4, 2019); letter: D4D Fig 4.3 (PDF p.147); heights: D4D Table 4.2 (PDF p.146)", "note": "Symbolic location from the figure; encouraged towers may be placed anywhere in their allowable zone (Table 4.2).", "confidence": "high"}, "geometry": {"type": "Point", "coordinates": [-122.3811954, 37.7145424]}}, {"type": "Feature", "properties": {"tower": "H", "max_height_ft": 320, "max_podium_height_ft": "65", "location_type": "fixed high-rise tower location", "letter_in_addendum7_fig4_2019": "I", "stories_2019": 32, "height_with_rooftop_mechanical_ft_2019": 352, "height_ft_2019_table": 320, "match_dist_to_d4d_fig4_3_symbol_m": 1.1, "match_dist_to_fig4_symbol_m": 0.0, "block_id": "CS-4a", "source": "symbol centre: FEIR Addendum 7 Fig 5 (PDF p.23, 2024; identical position in Fig 4, 2019); letter: D4D Fig 4.3 (PDF p.147); heights: D4D Table 4.2 (PDF p.146)", "note": "Symbolic location from the figure; encouraged towers may be placed anywhere in their allowable zone (Table 4.2).", "confidence": "high"}, "geometry": {"type": "Point", "coordinates": [-122.3826324, 37.7134679]}}, {"type": "Feature", "properties": {"tower": "I", "max_height_ft": 420, "max_podium_height_ft": "65", "location_type": "fixed high-rise tower location", "letter_in_addendum7_fig4_2019": "J", "stories_2019": 42, "height_with_rooftop_mechanical_ft_2019": 462, "height_ft_2019_table": 420, "match_dist_to_d4d_fig4_3_symbol_m": 2.1, "match_dist_to_fig4_symbol_m": 0.0, "block_id": "CS-8b", "source": "symbol centre: FEIR Addendum 7 Fig 5 (PDF p.23, 2024; identical position in Fig 4, 2019); letter: D4D Fig 4.3 (PDF p.147); heights: D4D Table 4.2 (PDF p.146)", "note": "Symbolic location from the figure; encouraged towers may be placed anywhere in their allowable zone (Table 4.2).", "confidence": "high"}, "geometry": {"type": "Point", "coordinates": [-122.3832209, 37.7120802]}}, {"type": "Feature", "properties": {"tower": "J", "max_height_ft": 370, "max_podium_height_ft": "65", "location_type": "fixed high-rise tower location", "letter_in_addendum7_fig4_2019": "K", "stories_2019": 37, "height_with_rooftop_mechanical_ft_2019": 407, "height_ft_2019_table": 370, "match_dist_to_d4d_fig4_3_symbol_m": 1.4, "match_dist_to_fig4_symbol_m": 0.0, "block_id": "CS-9b", "source": "symbol centre: FEIR Addendum 7 Fig 5 (PDF p.23, 2024; identical position in Fig 4, 2019); letter: D4D Fig 4.3 (PDF p.147); heights: D4D Table 4.2 (PDF p.146)", "note": "Symbolic location from the figure; encouraged towers may be placed anywhere in their allowable zone (Table 4.2).", "confidence": "high"}, "geometry": {"type": "Point", "coordinates": [-122.3843318, 37.7112524]}}, {"type": "Feature", "properties": {"tower": "K", "max_height_ft": 320, "max_podium_height_ft": "65", "location_type": "encouraged high-rise tower location", "letter_in_addendum7_fig4_2019": "L", "stories_2019": 32, "height_with_rooftop_mechanical_ft_2019": 352, "height_ft_2019_table": 320, "match_dist_to_d4d_fig4_3_symbol_m": 2.9, "match_dist_to_fig4_symbol_m": 0.0, "block_id": "CS-7a", "source": "symbol centre: FEIR Addendum 7 Fig 5 (PDF p.23, 2024; identical position in Fig 4, 2019); letter: D4D Fig 4.3 (PDF p.147); heights: D4D Table 4.2 (PDF p.146)", "note": "Symbolic location from the figure; encouraged towers may be placed anywhere in their allowable zone (Table 4.2).", "confidence": "high"}, "geometry": {"type": "Point", "coordinates": [-122.3818377, 37.7120056]}}]}