{
  "type": "FeatureCollection",
  "features": [
    {
      "type": "Feature",
      "properties": {
        "id": "56840"
      },
      "geometry": {
        "type": "Polygon",
        "coordinates": [
          [
            [
              -78.794674519598004,
              42.78276102553135
            ],
            [
              -78.794747162227139,
              42.782761405484344
            ],
            [
              -78.794751728546601,
              42.782428178946851
            ],
            [
              -78.794715872741392,
              42.7824280731908
            ],
            [
              -78.794680482631165,
              42.782427624473215
            ],
            [
              -78.794529261098404,
              42.782426189401868
            ],
            [
              -78.79452387899687,
              42.782759589381108
            ],
            [
              -78.794674519598004,
              42.78276102553135
            ]
          ]
        ]
      }
    },
    {
      "type": "Feature",
      "properties": {
        "id": "56842"
      },
      "geometry": {
        "type": "Polygon",
        "coordinates": [
          [
            [
              -78.795340176789381,
              42.78276630746975
            ],
            [
              -78.795417358489317,
              42.782766678594406
            ],
            [
              -78.79542480871099,
              42.782766664796632
            ],
            [
              -78.795424713862161,
              42.782433103875142
            ],
            [
              -78.795416213962824,
              42.782432433634661
            ],
            [
              -78.795308416199006,
              42.782431948138466
            ],
            [
              -78.795200616827969,
              42.782430990818455
            ],
            [
              -78.795085600359855,
              42.782430303310285
            ],
            [
              -78.795080340907347,
              42.782764389069889
            ],
            [
              -78.795194308656235,
              42.782764863366125
            ],
            [
              -78.795305368809309,
              42.782766028913109
            ],
            [
              -78.795340176789381,
              42.78276630746975
            ]
          ]
        ]
      }
    }
  ],
  "exceededTransferLimit": true,
  "properties": {
    "exceededTransferLimit": true
  }
}
