{
  "type": "FeatureCollection",
  "features": [
    {"type":"Feature","properties":{"id":"43:40:000046:63"},"geometry":{"type":"Polygon","coordinates":[[[49.6327,58.6276],[49.6325,58.6276],[49.6327,58.628],[49.6327,58.6276]]]}},
    {"type":"Feature","properties":{"id":"43:40:000059:139"},"geometry":{"type":"Polygon","coordinates":[[[49.6083,58.6276],[49.6101,58.6273],[49.6105,58.6272],[49.6101,58.6266],[49.6078,58.6269],[49.6083,58.6276]]]}},
    {"type":"Feature","properties":{"id":"43:40:000059:25"},"geometry":{"type":"Polygon","coordinates":[[[49.6088,58.6284],[49.6103,58.6281],[49.6123,58.6278],[49.6119,58.6272],[49.6106,58.6274],[49.6105,58.6272],[49.6083,58.6276],[49.6088,58.6284]]]}}
  ]
}
