{
  "type": "FeatureCollection",
  "name": "parcelle_Layer",
  "crs": {
    "type": "name",
    "properties": {
      "name": "urn:ogc:def:crs:OGC:1.3:CRS84"
    }
  },
  "features": [
    {
      "type": "Feature",
      "properties": {
        "id": "340172   BV0156"
      },
      "geometry": {
        "type": "Polygon",
        "coordinates": [
          [
            [
              3.869356839334909,
              43.617571931841105
            ],
            [
              3.869321289238722,
              43.617530824061433
            ],
            [
              3.869255876512776,
              43.617456121547242
            ],
            [
              3.869195638175333,
              43.617387766402459
            ],
            [
              3.869166525454419,
              43.617354615573653
            ],
            [
              3.869144597033678,
              43.617329685711191
            ],
            [
              3.869118381752991,
              43.617299751084275
            ],
            [
              3.869066080565221,
              43.617240240711055
            ],
            [
              3.86903759945748,
              43.617207894647635
            ],
            [
              3.868958966297772,
              43.617118900427748
            ],
            [
              3.868920658238109,
              43.617075565013458
            ],
            [
              3.868900872088757,
              43.617053047518311
            ],
            [
              3.86885878490262,
              43.617005513103514
            ],
            [
              3.868242517009837,
              43.617228376697405
            ],
            [
              3.86795134795878,
              43.617335622468744
            ],
            [
              3.867963650361594,
              43.617354690573997
            ],
            [
              3.867894941248142,
              43.617389432782431
            ],
            [
              3.867847690157847,
              43.617352557187765
            ],
            [
              3.867554245532222,
              43.617538735061757
            ],
            [
              3.867373858594349,
              43.617715371557658
            ],
            [
              3.867371572195713,
              43.61773617585601
            ],
            [
              3.867305147006526,
              43.617799154099629
            ],
            [
              3.867314180518295,
              43.617806820540288
            ],
            [
              3.867406031788609,
              43.617885452432482
            ],
            [
              3.867372759331615,
              43.61790479435642
            ],
            [
              3.867290129418369,
              43.617829868130926
            ],
            [
              3.867281336786228,
              43.61782174985138
            ],
            [
              3.867016644129383,
              43.618074914098116
            ],
            [
              3.867094811836713,
              43.618133229303027
            ],
            [
              3.8672357343048,
              43.618238014813116
            ],
            [
              3.867328592657233,
              43.618407791484316
            ],
            [
              3.867308124352274,
              43.618463024390095
            ],
            [
              3.867354499639663,
              43.618491088911995
            ],
            [
              3.867358991966059,
              43.618493302634462
            ],
            [
              3.867510638431521,
              43.618578205989479
            ],
            [
              3.867622945618551,
              43.618666212665822
            ],
            [
              3.867716701235188,
              43.61873961014124
            ],
            [
              3.867815131794236,
              43.618802712153908
            ],
            [
              3.86792823181323,
              43.618861197786721
            ],
            [
              3.867949690443428,
              43.618814145287864
            ],
            [
              3.868021211444787,
              43.618768672592459
            ],
            [
              3.868054809685819,
              43.618787210692368
            ],
            [
              3.868150431964202,
              43.618705642205811
            ],
            [
              3.868496289365364,
              43.618545138846194
            ],
            [
              3.86847772472512,
              43.618505154791876
            ],
            [
              3.86880494938782,
              43.618349388476922
            ],
            [
              3.869423793714932,
              43.618124251417562
            ],
            [
              3.869430653417977,
              43.617882232395672
            ],
            [
              3.8694360220256,
              43.617656242302274
            ],
            [
              3.869430201532106,
              43.617656288864985
            ],
            [
              3.869356839334909,
              43.617571931841105
            ]
          ]
        ]
      }
    },
    {
      "type": "Feature",
      "properties": {
        "id": "340172   BV0151"
      },
      "geometry": {
        "type": "Polygon",
        "coordinates": [
          [
            [
              3.869010475882166,
              43.616970826658914
            ],
            [
              3.868983986827283,
              43.616980036749837
            ],
            [
              3.868922156344814,
              43.617002756884254
            ],
            [
              3.868914915264856,
              43.617007133955958
            ],
            [
              3.868909173878495,
              43.617012398865839
            ],
            [
              3.868905178500885,
              43.617018459662027
            ],
            [
              3.868902799842573,
              43.617024957446816
            ],
            [
              3.868900872088757,
              43.617053047518311
            ],
            [
              3.868920658238109,
              43.617075565013458
            ],
            [
              3.868958966297772,
              43.617118900427748
            ],
            [
              3.869107416297623,
              43.617099176919602
            ],
            [
              3.869010475882166,
              43.616970826658914
            ]
          ]
        ]
      }
    },
    {
      "type": "Feature",
      "properties": {
        "id": "340172   BV0069"
      },
      "geometry": {
        "type": "Polygon",
        "coordinates": [
          [
            [
              3.869388615708911,
              43.6170616545486
            ],
            [
              3.869384538566522,
              43.617062317043683
            ],
            [
              3.869210377948678,
              43.617085395964267
            ],
            [
              3.869188748373375,
              43.617088358421
            ],
            [
              3.869159948398297,
              43.617092188063879
            ],
            [
              3.869143879308001,
              43.617094296196377
            ],
            [
              3.869107416297623,
              43.617099176919602
            ],
            [
              3.868958966297772,
              43.617118900427748
            ],
            [
              3.86903759945748,
              43.617207894647635
            ],
            [
              3.869066080565221,
              43.617240240711055
            ],
            [
              3.869118381752991,
              43.617299751084275
            ],
            [
              3.869144597033678,
              43.617329685711191
            ],
            [
              3.869166525454419,
              43.617354615573653
            ],
            [
              3.869195638175333,
              43.617387766402459
            ],
            [
              3.869232311089528,
              43.61738855289444
            ],
            [
              3.869241107799102,
              43.617388752486903
            ],
            [
              3.869291412626894,
              43.617390059809594
            ],
            [
              3.869388794275296,
              43.617392160309947
            ],
            [
              3.869442689097675,
              43.617393348861825
            ],
            [
              3.869450295462487,
              43.617053512580789
            ],
            [
              3.869388615708911,
              43.6170616545486
            ]
          ]
        ]
      }
    }
  ]
}
