{
  "type": "FeatureCollection",
  "name": "Valladolid cadastral parcel sample",
  "crs": {
    "type": "name",
    "properties": {
      "name": "urn:ogc:def:crs:OGC:1.3:CRS84"
    }
  },
  "features": [
    {
      "type": "Feature",
      "geometry": {
        "type": "MultiPolygon",
        "coordinates": [
          [
            [
              [
                -4.72113221378932,
                41.643640576596091
              ],
              [
                -4.721139577933358,
                41.643626414875897
              ],
              [
                -4.721161999514294,
                41.643582853430054
              ],
              [
                -4.7211990854,
                41.64351080061364
              ],
              [
                -4.721218319161646,
                41.643473989723759
              ],
              [
                -4.721286425051555,
                41.64335448495823
              ],
              [
                -4.721316280497081,
                41.64330209675304
              ],
              [
                -4.721336000958584,
                41.643267493311328
              ],
              [
                -4.721351367440877,
                41.643240529759382
              ],
              [
                -4.721373265570568,
                41.643201919464353
              ],
              [
                -4.721408751349427,
                41.643139642150707
              ],
              [
                -4.721440646758092,
                41.643082139946308
              ],
              [
                -4.721480604176206,
                41.643011980920676
              ],
              [
                -4.721522545295828,
                41.642930013590536
              ],
              [
                -4.721586188634022,
                41.642804909799843
              ],
              [
                -4.72160090520577,
                41.642776047870598
              ],
              [
                -4.721600100067545,
                41.642775932937603
              ],
              [
                -4.721610036582504,
                41.642758390244524
              ],
              [
                -4.721624570076196,
                41.642732732052721
              ],
              [
                -4.721638175213113,
                41.642708712584572
              ],
              [
                -4.721638787013629,
                41.642707924785455
              ],
              [
                -4.721647368555144,
                41.642696877789561
              ],
              [
                -4.721632475092816,
                41.642672308048198
              ],
              [
                -4.721629096763317,
                41.642666576329852
              ],
              [
                -4.72161524987787,
                41.642642147173653
              ],
              [
                -4.721609802446141,
                41.642632481683073
              ],
              [
                -4.721599102348631,
                41.642613498145671
              ],
              [
                -4.721592682029198,
                41.642602107125938
              ],
              [
                -4.721557805440586,
                41.642540229525174
              ],
              [
                -4.721517878568381,
                41.642474219167241
              ],
              [
                -4.721496455693434,
                41.642438800871737
              ],
              [
                -4.721468877745291,
                41.642392300555727
              ],
              [
                -4.721437581062849,
                41.642338847789119
              ],
              [
                -4.721354831075689,
                41.642197260152422
              ],
              [
                -4.721333380093828,
                41.642160463312145
              ],
              [
                -4.721313336394933,
                41.642126080812609
              ],
              [
                -4.721305777998189,
                41.642113114429691
              ],
              [
                -4.721302810645949,
                41.642108024580551
              ],
              [
                -4.721301143571046,
                41.642105164239666
              ],
              [
                -4.721297755978259,
                41.642099668626358
              ],
              [
                -4.721293220244522,
                41.642092358688458
              ],
              [
                -4.721279896594954,
                41.642070886672599
              ],
              [
                -4.721270014741694,
                41.642054961696623
              ],
              [
                -4.721261048072273,
                41.64204051182714
              ],
              [
                -4.721252696718593,
                41.642027052489503
              ],
              [
                -4.721248600090249,
                41.642020450658094
              ],
              [
                -4.721243119738331,
                41.642011619216348
              ],
              [
                -4.721240991459776,
                41.642008189801054
              ],
              [
                -4.721238312425784,
                41.642003872013277
              ],
              [
                -4.721231775750934,
                41.641993337454963
              ],
              [
                -4.721220413461331,
                41.641975179809286
              ],
              [
                -4.721210676652091,
                41.641959176998668
              ],
              [
                -4.72120420535099,
                41.641947805182937
              ],
              [
                -4.72120012504447,
                41.641940913988591
              ],
              [
                -4.721157483878735,
                41.641866886713522
              ],
              [
                -4.721123605532932,
                41.641808107652075
              ],
              [
                -4.721108785316376,
                41.641782394684988
              ],
              [
                -4.721091513548862,
                41.64175242851833
              ],
              [
                -4.721074487141077,
                41.641724146538834
              ],
              [
                -4.721040884462881,
                41.641668388238955
              ],
              [
                -4.720874433912957,
                41.641393313230132
              ],
              [
                -4.720727818345464,
                41.641153229855107
              ],
              [
                -4.72067285093488,
                41.641063119865358
              ],
              [
                -4.720614173708968,
                41.640966923240534
              ],
              [
                -4.720562819117561,
                41.640883298000816
              ],
              [
                -4.720520606850381,
                41.640815204451528
              ],
              [
                -4.720519722816178,
                41.640809776709467
              ],
              [
                -4.720517739337113,
                41.640797594153398
              ],
              [
                -4.720519113492316,
                41.640777038189249
              ],
              [
                -4.720521246606266,
                41.640772010658431
              ],
              [
                -4.720526020090887,
                41.640760758660683
              ],
              [
                -4.720526343226168,
                41.640759997255692
              ],
              [
                -4.720537491451703,
                41.640745779813841
              ],
              [
                -4.720562966611555,
                41.640728465704669
              ],
              [
                -4.720570812466847,
                41.640725781760487
              ],
              [
                -4.720700830619501,
                41.640681305584167
              ],
              [
                -4.720824177619754,
                41.640639693780784
              ],
              [
                -4.72085630092417,
                41.640628587931019
              ],
              [
                -4.720899647796238,
                41.640613521705291
              ],
              [
                -4.720932356014458,
                41.640602153084735
              ],
              [
                -4.720978188665223,
                41.640586222783966
              ],
              [
                -4.721057459929127,
                41.640558670138347
              ],
              [
                -4.721157512028786,
                41.640524968921149
              ],
              [
                -4.721283566793563,
                41.640482509065407
              ],
              [
                -4.721393242333805,
                41.640441737306894
              ],
              [
                -4.721432124108909,
                41.640427364635393
              ],
              [
                -4.721514678164382,
                41.64039672046939
              ],
              [
                -4.721558053013799,
                41.640380619601792
              ],
              [
                -4.721590773913415,
                41.640368473321708
              ],
              [
                -4.721765082685368,
                41.640308414077047
              ],
              [
                -4.721962155263968,
                41.640240511295204
              ],
              [
                -4.722032602844974,
                41.640216237604804
              ],
              [
                -4.722818928796364,
                41.639945296955332
              ],
              [
                -4.723167359108471,
                41.639825342115067
              ],
              [
                -4.723258022378849,
                41.639794080181083
              ],
              [
                -4.723311915500988,
                41.639775438638104
              ],
              [
                -4.723703737464329,
                41.639640413452561
              ],
              [
                -4.723738744663195,
                41.639628350707369
              ],
              [
                -4.723903318585017,
                41.639571641550873
              ],
              [
                -4.7244166109998,
                41.639394848074637
              ],
              [
                -4.724780214757189,
                41.639269609678635
              ],
              [
                -4.725046199046498,
                41.639177994165415
              ],
              [
                -4.725285412335602,
                41.63909562594182
              ],
              [
                -4.725559756204617,
                41.639001232600272
              ],
              [
                -4.72590814912065,
                41.638881360095965
              ],
              [
                -4.726124017840092,
                41.638807084737124
              ],
              [
                -4.726590122332048,
                41.638646087017555
              ],
              [
                -4.726770460395834,
                41.638583711245602
              ],
              [
                -4.726922079989612,
                41.638531267982877
              ],
              [
                -4.727087009700257,
                41.63847422108406
              ],
              [
                -4.727216716716482,
                41.638429356737895
              ],
              [
                -4.727377535072787,
                41.638373730785808
              ],
              [
                -4.727466601173091,
                41.638342923671502
              ],
              [
                -4.727553189759546,
                41.638312973347055
              ],
              [
                -4.727692267491589,
                41.638264867021185
              ],
              [
                -4.727856394573838,
                41.638208095435395
              ],
              [
                -4.727988958939922,
                41.638163018380716
              ],
              [
                -4.728206273284735,
                41.638091373471397
              ],
              [
                -4.728210570429639,
                41.638089759686963
              ],
              [
                -4.728333041404926,
                41.638049540954832
              ],
              [
                -4.72859367557079,
                41.637960722254043
              ],
              [
                -4.728609467591204,
                41.637955384186228
              ],
              [
                -4.728667547221005,
                41.638045058082483
              ],
              [
                -4.728679319525667,
                41.638063254763644
              ],
              [
                -4.728724778828468,
                41.638133454037238
              ],
              [
                -4.728745939743183,
                41.638166010342424
              ],
              [
                -4.72906528041293,
                41.63865919357599
              ],
              [
                -4.729089192169536,
                41.63869605418013
              ],
              [
                -4.729077705021761,
                41.63869975766525
              ],
              [
                -4.728912290881108,
                41.638755368220764
              ],
              [
                -4.728744254198849,
                41.638812369002935
              ],
              [
                -4.728709650051652,
                41.638786256607126
              ],
              [
                -4.728706647923165,
                41.638785563215066
              ],
              [
                -4.72867227659052,
                41.638777591400341
              ],
              [
                -4.728619608801497,
                41.638795046143215
              ],
              [
                -4.728473853505858,
                41.638843363459813
              ],
              [
                -4.72845741091254,
                41.63884882883243
              ],
              [
                -4.728478701885349,
                41.638886246870719
              ],
              [
                -4.728729288821597,
                41.639270331479977
              ],
              [
                -4.728737077205878,
                41.639267448344391
              ],
              [
                -4.728843115233317,
                41.639228249953575
              ],
              [
                -4.728860633499254,
                41.639221767693236
              ],
              [
                -4.728882009841008,
                41.639254955250394
              ],
              [
                -4.729265310187067,
                41.63912201271966
              ],
              [
                -4.729287037178957,
                41.639114607367517
              ],
              [
                -4.729288692824087,
                41.639116917902768
              ],
              [
                -4.729303389740708,
                41.639137428922105
              ],
              [
                -4.729309655007396,
                41.639146149994524
              ],
              [
                -4.72927761974067,
                41.639160286297539
              ],
              [
                -4.729145694924689,
                41.639212731740365
              ],
              [
                -4.728978623966276,
                41.639299152835562
              ],
              [
                -4.728921272065874,
                41.639329225491366
              ],
              [
                -4.72886142008436,
                41.639362229599001
              ],
              [
                -4.728808451945852,
                41.639391437348635
              ],
              [
                -4.728725854397566,
                41.639436984108208
              ],
              [
                -4.728655430211539,
                41.639475660629479
              ],
              [
                -4.728536343064664,
                41.639541948826171
              ],
              [
                -4.728509628715823,
                41.639558959093193
              ],
              [
                -4.728500159947182,
                41.639565030658339
              ],
              [
                -4.728491292924899,
                41.639570818465877
              ],
              [
                -4.728482702774133,
                41.639576678215285
              ],
              [
                -4.728471697842822,
                41.639584257646092
              ],
              [
                -4.728458740567314,
                41.639593181876485
              ],
              [
                -4.728436753524206,
                41.639608251672783
              ],
              [
                -4.728420101655312,
                41.639620044725902
              ],
              [
                -4.728408827464091,
                41.639628017292026
              ],
              [
                -4.728399069258854,
                41.639635613991423
              ],
              [
                -4.728385244957763,
                41.639646375120336
              ],
              [
                -4.728369607579489,
                41.639658548304048
              ],
              [
                -4.728340338377547,
                41.639681879163533
              ],
              [
                -4.728234455595009,
                41.639765921153149
              ],
              [
                -4.728174953750965,
                41.639813200736519
              ],
              [
                -4.728014576192095,
                41.63999068066429
              ],
              [
                -4.727920494086191,
                41.640094795234752
              ],
              [
                -4.727965797945587,
                41.640123205815307
              ],
              [
                -4.7278395029799,
                41.640237390570263
              ],
              [
                -4.727702576846708,
                41.6403611925546
              ],
              [
                -4.727620881913857,
                41.640435071433821
              ],
              [
                -4.727583597655029,
                41.640473100015484
              ],
              [
                -4.727582144698803,
                41.64047235313253
              ],
              [
                -4.727528779639124,
                41.640444916074806
              ],
              [
                -4.727484469291549,
                41.640485248343488
              ],
              [
                -4.727418944314074,
                41.640543698627603
              ],
              [
                -4.727374779330551,
                41.640583095119467
              ],
              [
                -4.727355222370616,
                41.640598700559387
              ],
              [
                -4.727347580584822,
                41.640604697732286
              ],
              [
                -4.727271947001486,
                41.640659848943137
              ],
              [
                -4.727241683251764,
                41.640680994122867
              ],
              [
                -4.727195157828104,
                41.640713591254446
              ],
              [
                -4.727137507645887,
                41.640753904122008
              ],
              [
                -4.727097136448697,
                41.640782060261344
              ],
              [
                -4.727050784822541,
                41.640814629053224
              ],
              [
                -4.727044073908229,
                41.640819404861702
              ],
              [
                -4.727018301887277,
                41.640837745327325
              ],
              [
                -4.72698047000176,
                41.640863495389951
              ],
              [
                -4.726946823509454,
                41.640886654799203
              ],
              [
                -4.726929263607697,
                41.640898772915413
              ],
              [
                -4.72690064443298,
                41.640916855765902
              ],
              [
                -4.726882703126107,
                41.640928135674422
              ],
              [
                -4.726870497246208,
                41.64093583297376
              ],
              [
                -4.726857459503251,
                41.640944055256192
              ],
              [
                -4.726844541860992,
                41.64095088509076
              ],
              [
                -4.726829507290086,
                41.640958834299319
              ],
              [
                -4.726805845280929,
                41.640971416971389
              ],
              [
                -4.726786104436181,
                41.64098135983415
              ],
              [
                -4.726701324673801,
                41.641024068381611
              ],
              [
                -4.72661425526516,
                41.641067929906477
              ],
              [
                -4.726554466961283,
                41.641098048797602
              ],
              [
                -4.726470059104169,
                41.641126838865972
              ],
              [
                -4.726409509344981,
                41.64114757733698
              ],
              [
                -4.726288311825432,
                41.641189592908098
              ],
              [
                -4.726273947318603,
                41.641203666473245
              ],
              [
                -4.726263658207114,
                41.641213747371474
              ],
              [
                -4.726258883531141,
                41.641215675837117
              ],
              [
                -4.726229721367609,
                41.641227441239593
              ],
              [
                -4.72617318698538,
                41.641250288093147
              ],
              [
                -4.726152086795975,
                41.641258814690097
              ],
              [
                -4.7260868909712,
                41.641285161478542
              ],
              [
                -4.72600910190121,
                41.64131657723334
              ],
              [
                -4.725948063534663,
                41.641341559123624
              ],
              [
                -4.725865439842517,
                41.641374395253095
              ],
              [
                -4.725471991732616,
                41.641533268757613
              ],
              [
                -4.72547077517226,
                41.641532111643969
              ],
              [
                -4.725462717453335,
                41.641524444497357
              ],
              [
                -4.725413955169414,
                41.641477610223689
              ],
              [
                -4.725273264411236,
                41.64154892408478
              ],
              [
                -4.725147847149834,
                41.641610531136259
              ],
              [
                -4.725051065984452,
                41.641657591912384
              ],
              [
                -4.724921153881014,
                41.641720653680096
              ],
              [
                -4.724787651033453,
                41.641768080343773
              ],
              [
                -4.724741621016564,
                41.641784326757197
              ],
              [
                -4.724734488780139,
                41.641786844008202
              ],
              [
                -4.724665095497569,
                41.641809952918067
              ],
              [
                -4.724650743780203,
                41.641814958096546
              ],
              [
                -4.724645430136346,
                41.641805573554223
              ],
              [
                -4.7243578044908,
                41.641903691514187
              ],
              [
                -4.72442343235872,
                41.642009700564273
              ],
              [
                -4.724424005157974,
                41.642010625968439
              ],
              [
                -4.72400504936388,
                41.642272277175074
              ],
              [
                -4.723896777391145,
                41.64233989613917
              ],
              [
                -4.723929460736269,
                41.642376873901483
              ],
              [
                -4.723656146330176,
                41.642538051408863
              ],
              [
                -4.723691865002766,
                41.6425807480272
              ],
              [
                -4.723681632961562,
                41.642584052063441
              ],
              [
                -4.72352256159237,
                41.642678902557577
              ],
              [
                -4.723453904703625,
                41.642717415639353
              ],
              [
                -4.723393948742898,
                41.642750658943029
              ],
              [
                -4.723253727870578,
                41.642824134364695
              ],
              [
                -4.723075038109873,
                41.642918179610042
              ],
              [
                -4.72292032440324,
                41.642999562344393
              ],
              [
                -4.72279352652798,
                41.643066638863012
              ],
              [
                -4.722617109396537,
                41.643159504569212
              ],
              [
                -4.722500911151772,
                41.643220506242621
              ],
              [
                -4.722364004821094,
                41.643288533605528
              ],
              [
                -4.722196652841387,
                41.643371582347271
              ],
              [
                -4.722051259788989,
                41.643441843653846
              ],
              [
                -4.721976452991607,
                41.643474228855418
              ],
              [
                -4.721916955812576,
                41.643500023592253
              ],
              [
                -4.721765035374942,
                41.643565722255055
              ],
              [
                -4.721519490561149,
                41.643672413824078
              ],
              [
                -4.72149812570323,
                41.643681740630186
              ],
              [
                -4.721463993460358,
                41.643698734741584
              ],
              [
                -4.721455390556399,
                41.643702536115953
              ],
              [
                -4.721310596758229,
                41.643773084282579
              ],
              [
                -4.721307888485955,
                41.643769994104986
              ],
              [
                -4.721255120003848,
                41.643709786325651
              ],
              [
                -4.721200405997577,
                41.64367685126556
              ],
              [
                -4.721133940888363,
                41.643641495536215
              ],
              [
                -4.72113221378932,
                41.643640576596091
              ]
            ]
          ]
        ]
      },
      "properties": {
        "id": "6415809UM5161E"
      }
    }
  ]
}
