{"type":"FeatureCollection","name":"Registers of Scotland nearby INSPIRE parcel response","crs":{"type":"name","properties":{"name":"urn:ogc:def:crs:EPSG::4326"}},"features":[{"type":"Feature","id":"gb.ros.lr.SCT0009110317","geometry":{"type":"MultiPolygon","coordinates":[[[[-3.20058349,55.94399327],[-3.20052132,55.94387257],[-3.20066471,55.94384961],[-3.20068765,55.94384597],[-3.20075001,55.94396739],[-3.20072689,55.94397031],[-3.20058349,55.94399327]]],[[[-3.20094518,55.94393583],[-3.20088467,55.94381737],[-3.20092366,55.9438098],[-3.20098423,55.94393006],[-3.20094518,55.94393583]]]]},"properties":{"inspireid":"gb.ros.lr.SCT0009110317"}}],"selectionAudit":{"source":"Registers of Scotland INSPIRE WMS CP.CadastralParcel","wupPointLatLon":[55.9440001355415,-3.20068690290672],"wupPointContained":false,"distanceToWupMeters":2.507,"geometryUnmodified":true,"retainedAttributes":["inspireid"]}}
