{"type":"FeatureCollection","name":"CSG Erven bounded nearby geometry at Masetjhaba View","crs":{"type":"name","properties":{"name":"urn:ogc:def:crs:EPSG::4148"}},"features":[{"type":"Feature","id":"4456170","geometry":{"type":"Polygon","coordinates":[[[28.388643580000064,-26.344551146999947],[28.388842209000074,-26.344479493999984],[28.388887992000036,-26.34458149699998],[28.388689594000027,-26.34465431899997],[28.388643580000064,-26.344551146999947]]]},"properties":{"OBJECTID":4456170,"PRCL_KEY":"GEKUT0IR077600002397000000"}}],"selectionAudit":{"source":"CSG public Erven Layer 2","sourceSpatialReferenceWKID":4148,"requestEnvelope4326":[28.3881524973703,-26.3459086556998,28.390152497370302,-26.3439086556998],"wupPointLatLon":[-26.3449086556998,28.3891524973703],"geometryUnmodified":true,"retainedAttributes":["OBJECTID","PRCL_KEY"],"sampleAudit":[{"OBJECTID":4456170,"PRCL_KEY":"GEKUT0IR077600002397000000","distanceToWupMeters":44.974,"wupPointContained":false,"closedRings":true,"vertexCounts":[5]}],"responseFeatureCount":3,"retainedFeatureCount":1}}
