{
  "type": "FeatureCollection",
  "features": [
    {
      "type": "Feature",
      "geometry": {
        "type": "Polygon",
        "coordinates": [
          [
            [
              -89.936288270418046,
              35.10076002382462
            ],
            [
              -89.936289676281461,
              35.100760048812937
            ],
            [
              -89.936291154010107,
              35.10076002823434
            ],
            [
              -89.936292598501083,
              35.100760006920822
            ],
            [
              -89.93629406275501,
              35.100759989282011
            ],
            [
              -89.936295481194847,
              35.100759914317152
            ],
            [
              -89.936296922990877,
              35.10075983714745
            ],
            [
              -89.936298444736963,
              35.100759758507827
            ],
            [
              -89.936299794904826,
              35.100759601228653
            ],
            [
              -89.936301222327813,
              35.100759435864994
            ],
            [
              -89.936302603038413,
              35.100759277850848
            ],
            [
              -89.936304075377151,
              35.100759086029001
            ],
            [
              -89.936305501901828,
              35.100758895677075
            ],
            [
              -89.936306964359105,
              35.100758702385349
            ],
            [
              -89.936308332493283,
              35.100758431188979
            ],
            [
              -89.936309733865144,
              35.100758151173167
            ],
            [
              -89.93631110559258,
              35.100757877771954
            ],
            [
              -89.936312524032417,
              35.100757536020424
            ],
            [
              -89.93631390923457,
              35.100757204558143
            ],
            [
              -89.936315236046255,
              35.100756883385159
            ],
            [
              -89.936316657181024,
              35.100756480632825
            ],
            [
              -89.936318019925324,
              35.100756091844495
            ],
            [
              -89.936319363804969,
              35.100755715550292
            ],
            [
              -89.936320731040837,
              35.100755271640772
            ],
            [
              -89.936322070428929,
              35.100754834345757
            ],
            [
              -89.936323479885601,
              35.100754375737175
            ],
            [
              -89.93632472405227,
              35.100753894345203
            ],
            [
              -89.936326031101018,
              35.100753388699914
            ],
            [
              -89.936327381268882,
              35.100752871295391
            ],
            [
              -89.936328602079357,
              35.10075232008316
            ],
            [
              -89.936329867805611,
              35.100751746822446
            ],
            [
              -89.936331063463243,
              35.100751204429642
            ],
            [
              -89.936332380393452,
              35.100750574577837
            ],
            [
              -89.936333629950013,
              35.100749983678298
            ],
            [
              -89.936334944185276,
              35.100749357501222
            ],
            [
              -89.936336062587785,
              35.100748707070785
            ],
            [
              -89.936337237584183,
              35.100748025037518
            ],
            [
              -89.936338401800796,
              35.100747351823635
            ],
            [
              -89.93633958488202,
              35.100746635982638
            ],
            [
              -89.936340741013794,
              35.100745931900889
            ],
            [
              -89.936341849534855,
              35.100745260156849
            ],
            [
              -89.936343011954833,
              35.100744471555842
            ],
            [
              -89.936344121374219,
              35.100743711617881
            ],
            [
              -89.936345290980711,
              35.10074291419749
            ],
            [
              -89.936346290805631,
              35.10074214397018
            ],
            [
              -89.93634734093618,
              35.100741334055584
            ],
            [
              -89.936348314709946,
              35.100740581467093
            ],
            [
              -89.936349383705149,
              35.100739661310023
            ],
            [
              -89.936350379038473,
              35.10073880288877
            ],
            [
              -89.936351325862788,
              35.100737988564418
            ],
            [
              -89.936352351738847,
              35.100737071347154
            ],
            [
              -89.93635332910587,
              35.10073620043169
            ],
            [
              -89.936354329829086,
              35.1007353126124
            ],
            [
              -89.93635517783872,
              35.100734379961125
            ],
            [
              -89.936356044712966,
              35.100733430405981
            ],
            [
              -89.936356914282172,
              35.100732477911087
            ],
            [
              -89.936357771274942,
              35.1007315305608
            ],
            [
              -89.936358638149187,
              35.100730580270721
            ],
            [
              -89.936359488853782,
              35.100729643209668
            ],
            [
              -89.936360264998186,
              35.100728621629436
            ],
            [
              -89.936361034854372,
              35.100727617687937
            ],
            [
              -89.936361846931391,
              35.100726556420362
            ],
            [
              -89.936362525159424,
              35.100725585551658
            ],
            [
              -89.936363240218412,
              35.100724555886885
            ],
            [
              -89.936363997498191,
              35.100723476980448
            ],
            [
              -89.936364563436811,
              35.100722444375911
            ],
            [
              -89.936365155426586,
              35.100721363264626
            ],
            [
              -89.936365724060167,
              35.100720326985247
            ],
            [
              -89.936366313354995,
              35.100719188547842
            ],
            [
              -89.936366879293615,
              35.100718100087043
            ],
            [
              -89.93636744523225,
              35.100717006481545
            ],
            [
              -89.93636794918713,
              35.100715904056607
            ],
            [
              -89.936368450447048,
              35.100714792812305
            ],
            [
              -89.936368955300239,
              35.100713689652423
            ],
            [
              -89.936369388288199,
              35.100712554154725
            ],
            [
              -89.936369821276173,
              35.100711420861835
            ],
            [
              -89.936370251569187,
              35.100710298593206
            ],
            [
              -89.93637061987846,
              35.100709145456698
            ],
            [
              -89.93637099178099,
              35.100707997464788
            ],
            [
              -89.936371339429002,
              35.100706910473718
            ],
            [
              -89.936371641262937,
              35.100705693396449
            ],
            [
              -89.936371926028883,
              35.1007045292356
            ],
            [
              -89.936372213489776,
              35.10070335993003
            ],
            [
              -89.936372437170277,
              35.10070219797403
            ],
            [
              -89.936372660850793,
              35.100701030138374
            ],
            [
              -89.936372880039698,
              35.100699901255055
            ],
            [
              -89.936373034549945,
              35.100698680502937
            ],
            [
              -89.936373187263555,
              35.100697495763349
            ],
            [
              -89.936373332790623,
              35.100696361000381
            ],
            [
              -89.93637341633395,
              35.100695137308414
            ],
            [
              -89.936373495385695,
              35.100693951833868
            ],
            [
              -89.936373577132372,
              35.100692745045734
            ],
            [
              -89.93637749288871,
              35.100533655376054
            ],
            [
              -89.935964562505433,
              35.100524069401999
            ],
            [
              -89.935960696156428,
              35.100754431593359
            ],
            [
              -89.936288270418046,
              35.10076002382462
            ]
          ]
        ]
      },
      "properties": {
        "id": "058068  00001"
      }
    }
  ]
}
