{"type":"FeatureCollection","features":[{"type":"Feature","id":"parcelle.3218540","properties":{"id":"38185000DN0001"},"geometry":{"type":"MultiPolygon","coordinates":[[[[5.72419748,45.18047226],[5.72420024,45.18046345],[5.72416802,45.18045595],[5.72416369,45.18046903],[5.72394062,45.18043744],[5.72392462,45.18048811],[5.7239219,45.18049763],[5.72371693,45.18051849],[5.72370102,45.18055798],[5.72367419,45.18055368],[5.72353359,45.18053098],[5.72352241,45.18052909],[5.72351625,45.18052816],[5.72349455,45.18052455],[5.72343985,45.1806986],[5.72349131,45.1807532],[5.72356558,45.18076634],[5.72358807,45.18077039],[5.72369885,45.1807903],[5.72373227,45.18079633],[5.72384292,45.18081606],[5.72386541,45.18082011],[5.72388943,45.1808243],[5.7239348,45.18083247],[5.72396719,45.18083835],[5.723974,45.18083953],[5.72408089,45.18086053],[5.72410326,45.18086485],[5.72411433,45.18086701],[5.724114,45.18086828],[5.7241315,45.18087173],[5.72413304,45.18087205],[5.72413935,45.18087343],[5.72416341,45.18087816],[5.72418888,45.1808833],[5.72423364,45.18089212],[5.72425912,45.18089726],[5.72430942,45.1809073],[5.72430986,45.18090593],[5.72432067,45.1809081],[5.72434305,45.1809126],[5.72437714,45.18091925],[5.72438279,45.18092028],[5.7243927,45.18092229],[5.72440285,45.18092412],[5.72442575,45.18092878],[5.72443192,45.18092989],[5.72445045,45.18093358],[5.72449563,45.1809432],[5.72450039,45.18094417],[5.72454302,45.18095367],[5.72455873,45.18095716],[5.72458151,45.18096183],[5.72459761,45.18096531],[5.72464035,45.18097454],[5.72464794,45.18097615],[5.72468463,45.18098391],[5.72469416,45.18098593],[5.72473059,45.18099378],[5.72473844,45.18099548],[5.72478056,45.1810049],[5.72479705,45.18100855],[5.7248193,45.18101305],[5.72483384,45.18101594],[5.72487801,45.18102568],[5.72488831,45.18102795],[5.7249214,45.18103507],[5.72493118,45.18103717],[5.72496487,45.18096004],[5.72498714,45.18090994],[5.7249908,45.18090129],[5.7249916,45.18089947],[5.72499416,45.18089454],[5.7250032,45.1808736],[5.72500736,45.18086485],[5.72500741,45.1808607],[5.72500805,45.18083979],[5.7250081,45.18083564],[5.72500885,45.18081436],[5.7250089,45.18081022],[5.72500964,45.18078884],[5.72500956,45.1807847],[5.72501055,45.18076323],[5.72501048,45.18075909],[5.72501119,45.18073718],[5.72501124,45.18073304],[5.72501185,45.18071149],[5.72501203,45.18070743],[5.72501264,45.18068588],[5.72501282,45.18068182],[5.72501343,45.18066037],[5.72501526,45.18060906],[5.72501631,45.1805575],[5.72492158,45.18055594],[5.72441684,45.18054781],[5.72419614,45.180544],[5.72420106,45.18047514],[5.7241966,45.18047507],[5.72419748,45.18047226]]]]}}]}
