{
  "type": "FeatureCollection",
  "features": [
    {"type":"Feature","geometry":{"type":"Polygon","coordinates":[[[23.8086168717206,53.6497715228578],[23.8086022056648,53.6497754804858],[23.8085938792903,53.6497651504563],[23.8083447056404,53.6498299140782],[23.8085365394253,53.6500917639394],[23.8088038574224,53.6500222325786],[23.8086168717206,53.6497715228578]]]},"properties":{"id":"294b19b9-3259-44e5-b8e8-5314b0adf928.2617324"}},
    {"type":"Feature","geometry":{"type":"Polygon","coordinates":[[[23.8072938085824,53.6500209641537],[23.8071160675806,53.6497837265684],[23.8068231988628,53.6498640430566],[23.806997912452,53.650099125601],[23.8072938085824,53.6500209641537]]]},"properties":{"id":"294b19b9-3259-44e5-b8e8-5314b0adf928.2617822"}},
    {"type":"Feature","geometry":{"type":"Polygon","coordinates":[[[23.8067083676675,53.6501780931791],[23.806997912452,53.650099125601],[23.8068231988628,53.6498640430566],[23.8067028498911,53.6499020823363],[23.8065378884942,53.6499413917704],[23.8067083676675,53.6501780931791]]]},"properties":{"id":"294b19b9-3259-44e5-b8e8-5314b0adf928.2625615"}}
  ]
}
