{"type":"FeatureCollection","features":[{"type":"Feature","properties":{"id":"78376"},"geometry":{"type":"Polygon","coordinates":[[[-110.31076557,24.12168131],[-110.31082734,24.1214646],[-110.31137076,24.12155509],[-110.31135466,24.12163737],[-110.31138773,24.12164393],[-110.31137198,24.1217059],[-110.31132777,24.12177983],[-110.31122828,24.12176611],[-110.31076557,24.12168131]]]}},{"type":"Feature","properties":{"id":"78377"},"geometry":{"type":"Polygon","coordinates":[[[-110.31092065,24.12228394],[-110.31036896,24.12140375],[-110.31036076,24.12139071],[-110.31082734,24.1214646],[-110.31076557,24.12168131],[-110.31122828,24.12176611],[-110.31113399,24.12200922],[-110.31092065,24.12228394]]]}},{"type":"Feature","properties":{"id":"77368"},"geometry":{"type":"Polygon","coordinates":[[[-110.31035356,24.12370133],[-110.31033489,24.12343143],[-110.31018178,24.12342947],[-110.31017758,24.12321391],[-110.31020004,24.1232011],[-110.31025497,24.12317119],[-110.31031563,24.12313318],[-110.31033379,24.1231217],[-110.31038891,24.12308664],[-110.31046211,24.12303948],[-110.31051197,24.12300331],[-110.31052549,24.12299353],[-110.31057151,24.12296042],[-110.31062236,24.12292137],[-110.31062488,24.12291921],[-110.31067558,24.12287763],[-110.31072392,24.12283577],[-110.31072816,24.12283209],[-110.31077012,24.12280076],[-110.31080367,24.12277843],[-110.31082109,24.12276848],[-110.31082733,24.12295128],[-110.31084585,24.12349243],[-110.31085434,24.12374133],[-110.31075465,24.12373483],[-110.31065252,24.12372814],[-110.31055039,24.12372145],[-110.31048339,24.12371699],[-110.31035356,24.12370133]]]}}]}
