{
  "type": "FeatureCollection",
  "features": [
    {
      "type": "Feature",
      "properties": {
        "id": "3070826"
      },
      "geometry": {
        "type": "Polygon",
        "coordinates": [
          [
            [
              74.256637411779124,
              31.791291288094921
            ],
            [
              74.257257142425644,
              31.791294904237034
            ],
            [
              74.257252790088117,
              31.791839348095554
            ],
            [
              74.256562227281421,
              31.79183531737306
            ],
            [
              74.256637411779124,
              31.791291288094921
            ]
          ]
        ]
      }
    }
  ]
}
