{
  "type": "FeatureCollection",
  "features": [
    {
      "type": "Feature",
      "id": "13944240",
      "properties": {"id": "13944240"},
      "geometry": {
        "type": "Polygon",
        "coordinates": [[[73.386487931129025,30.349804105355741],[73.38659107479161,30.349819328872858],[73.386590601379481,30.350212541777154],[73.385893086510833,30.350211908435565],[73.385893745874228,30.349667458718578],[73.386486630368495,30.349667997488297],[73.386487931129025,30.349804105355741]]]
      }
    }
  ]
}
