{
  "type": "FeatureCollection",
  "features": [
    {
      "type": "Feature",
      "geometry": {
        "type": "Polygon",
        "coordinates": [
          [
            [
              -77.287055715507435,
              1.2313814153380642
            ],
            [
              -77.287063762924248,
              1.2313854273432177
            ],
            [
              -77.287083887756125,
              1.2313954596163508
            ],
            [
              -77.287099987082456,
              1.2314034836260717
            ],
            [
              -77.287124136521399,
              1.2314155196403909
            ],
            [
              -77.287144261353461,
              1.2314255491999102
            ],
            [
              -77.287155668781054,
              1.2314009678141784
            ],
            [
              -77.2871670798026,
              1.2313763873325192
            ],
            [
              -77.287106708003122,
              1.231346295036106
            ],
            [
              -77.287078535754986,
              1.2313322516623313
            ],
            [
              -77.287067123834305,
              1.2313568339525254
            ],
            [
              -77.287055715507435,
              1.2313814153380642
            ]
          ]
        ]
      },
      "properties": {
        "id": "520010103000002020801800000033"
      }
    },
    {
      "type": "Feature",
      "geometry": {
        "type": "Polygon",
        "coordinates": [
          [
            [
              -77.283850942370606,
              1.2188330133585545
            ],
            [
              -77.283869633378316,
              1.2188471099770797
            ],
            [
              -77.283898417943647,
              1.2188688160019407
            ],
            [
              -77.283910691149771,
              1.218850983799763
            ],
            [
              -77.283961088467024,
              1.2187777611614448
            ],
            [
              -77.283982581175721,
              1.2187465364929406
            ],
            [
              -77.283982327782596,
              1.2187463664929179
            ],
            [
              -77.283962778733269,
              1.2187327474431175
            ],
            [
              -77.283956547226865,
              1.2187284079027429
            ],
            [
              -77.283952590871536,
              1.2187256499115406
            ],
            [
              -77.283933828960272,
              1.2187125806513277
            ],
            [
              -77.283913614691613,
              1.2187419512839959
            ],
            [
              -77.283902131190189,
              1.2187586385061226
            ],
            [
              -77.283863221865857,
              1.2188151721124958
            ],
            [
              -77.283862222831374,
              1.2188166191646623
            ],
            [
              -77.283850942370606,
              1.2188330133585545
            ]
          ]
        ]
      },
      "properties": {
        "id": "520010103000000360005000000000"
      }
    },
    {
      "type": "Feature",
      "geometry": {
        "type": "Polygon",
        "coordinates": [
          [
            [
              -77.282525167054274,
              1.2246151053205263
            ],
            [
              -77.282534890644243,
              1.2246253310693485
            ],
            [
              -77.282550016528077,
              1.2246412348755811
            ],
            [
              -77.282555609322316,
              1.2246471182079506
            ],
            [
              -77.282573001438195,
              1.2246654048268255
            ],
            [
              -77.282580139603695,
              1.2246585211970584
            ],
            [
              -77.282592461811348,
              1.2246466387731583
            ],
            [
              -77.282599594586017,
              1.2246397596655538
            ],
            [
              -77.282604774135834,
              1.2246347644892088
            ],
            [
              -77.282605748052944,
              1.2246338256890454
            ],
            [
              -77.282606072392468,
              1.224633512755694
            ],
            [
              -77.282613552866323,
              1.224626299008277
            ],
            [
              -77.282615240150719,
              1.2246246719356075
            ],
            [
              -77.282615949924207,
              1.2246239872808056
            ],
            [
              -77.282632071666015,
              1.2246084419081926
            ],
            [
              -77.282636359057406,
              1.2246043077507558
            ],
            [
              -77.28263851892514,
              1.2246022248444937
            ],
            [
              -77.282645004817638,
              1.2245959725077613
            ],
            [
              -77.282648728882378,
              1.2245923810093757
            ],
            [
              -77.282656335138711,
              1.224585046972378
            ],
            [
              -77.282664467885169,
              1.2245772046447998
            ],
            [
              -77.282644070900417,
              1.2245557548083854
            ],
            [
              -77.282616638892748,
              1.2245269051397003
            ],
            [
              -77.282612596777341,
              1.2245307996229364
            ],
            [
              -77.282603660818964,
              1.2245394188570484
            ],
            [
              -77.282597175824776,
              1.2245456684805258
            ],
            [
              -77.282525167054274,
              1.2246151053205263
            ]
          ]
        ]
      },
      "properties": {
        "id": "520010103000000980021000000000"
      }
    }
  ]
}
