{
  "type": "FeatureCollection",
  "features": [
    {
      "type": "Feature",
      "geometry": {
        "type": "MultiPolygon",
        "coordinates": [
          [
            [
              [
                -55.91029605,
                -27.401147
              ],
              [
                -55.91033412,
                -27.40144027
              ],
              [
                -55.91042651,
                -27.40143072
              ],
              [
                -55.91038844,
                -27.40113744
              ],
              [
                -55.91029605,
                -27.401147
              ]
            ]
          ]
        ]
      },
      "properties": {
        "id": "0459009022700080003"
      }
    },
    {
      "type": "Feature",
      "geometry": {
        "type": "MultiPolygon",
        "coordinates": [
          [
            [
              [
                -55.90985302,
                -27.40134142
              ],
              [
                -55.90986254,
                -27.40141474
              ],
              [
                -55.91023221,
                -27.40137651
              ],
              [
                -55.91022269,
                -27.40130319
              ],
              [
                -55.90985302,
                -27.40134142
              ]
            ]
          ]
        ]
      },
      "properties": {
        "id": "0459009022700080007"
      }
    },
    {
      "type": "Feature",
      "geometry": {
        "type": "MultiPolygon",
        "coordinates": [
          [
            [
              [
                -55.90988158,
                -27.40156138
              ],
              [
                -55.9098911,
                -27.40163469
              ],
              [
                -55.91026077,
                -27.40159647
              ],
              [
                -55.91025125,
                -27.40152315
              ],
              [
                -55.90988158,
                -27.40156138
              ]
            ]
          ]
        ]
      },
      "properties": {
        "id": "0459009022700080010"
      }
    }
  ]
}
