{
  "type": "FeatureCollection",
  "features": [
    {
      "type": "Feature",
      "geometry": {
        "type": "Polygon",
        "coordinates": [[[ -117.44374345889459, 33.935212510642287 ], [ -117.44376350839342, 33.935362574622161 ], [ -117.44401254115311, 33.935339468724635 ], [ -117.44399526565188, 33.935210107780016 ], [ -117.44396704507722, 33.934998778611337 ], [ -117.44371322609369, 33.935088921897936 ], [ -117.44373577829892, 33.935155041671166 ], [ -117.44374345889459, 33.935212510642287 ]]]
      },
      "properties": { "id": "44648" }
    }
  ]
}
