{
  "type": "FeatureCollection",
  "name": "santa-cruz-de-tenerife-cadastral-sample",
  "features": [
    {
      "type": "Feature",
      "geometry": {
        "type": "MultiPolygon",
        "coordinates": [
          [
            [
              [
                -16.273656317177085,
                28.514260982780538
              ],
              [
                -16.273683608177183,
                28.514312713210174
              ],
              [
                -16.273642630997692,
                28.51432952358153
              ],
              [
                -16.27361324781571,
                28.514273751328385
              ],
              [
                -16.273647308865201,
                28.514259623167263
              ],
              [
                -16.273654121724611,
                28.514256851680319
              ],
              [
                -16.273656317177085,
                28.514260982780538
              ]
            ]
          ]
        ]
      },
      "properties": {
        "id": "000100100CS75D"
      }
    },
    {
      "type": "Feature",
      "geometry": {
        "type": "MultiPolygon",
        "coordinates": [
          [
            [
              [
                -16.227859102800583,
                28.516253756418447
              ],
              [
                -16.227883992032645,
                28.516281598904595
              ],
              [
                -16.227912849812757,
                28.516311663691681
              ],
              [
                -16.227967790946195,
                28.51627344060222
              ],
              [
                -16.228004543610862,
                28.516314625603332
              ],
              [
                -16.228002635768839,
                28.516317531001569
              ],
              [
                -16.227895693484104,
                28.516391965009547
              ],
              [
                -16.227858112986997,
                28.516349884913055
              ],
              [
                -16.227830470841912,
                28.516318906579883
              ],
              [
                -16.227803954699613,
                28.516289243907263
              ],
              [
                -16.227858536321371,
                28.516254120752318
              ],
              [
                -16.227859102800583,
                28.516253756418447
              ]
            ]
          ]
        ]
      },
      "properties": {
        "id": "000100100CS85C"
      }
    },
    {
      "type": "Feature",
      "geometry": {
        "type": "MultiPolygon",
        "coordinates": [
          [
            [
              [
                -16.173125032447516,
                28.515534772421265
              ],
              [
                -16.173149447602711,
                28.515513411508536
              ],
              [
                -16.173165742076527,
                28.515499155250897
              ],
              [
                -16.173239307254494,
                28.515434791278661
              ],
              [
                -16.173365726427281,
                28.515372095424773
              ],
              [
                -16.173383017927126,
                28.515359709205271
              ],
              [
                -16.173354303045606,
                28.515412142197796
              ],
              [
                -16.173359763264855,
                28.515410247956069
              ],
              [
                -16.173367142840668,
                28.515412260105425
              ],
              [
                -16.173435607530198,
                28.515430803017235
              ],
              [
                -16.17354916913105,
                28.515461592169423
              ],
              [
                -16.173238956541528,
                28.515768072383938
              ],
              [
                -16.173227713979461,
                28.51577710479344
              ],
              [
                -16.172947657210802,
                28.515937019314467
              ],
              [
                -16.172908257803865,
                28.515959472134412
              ],
              [
                -16.172330625493338,
                28.516016806125247
              ],
              [
                -16.172315940957514,
                28.515973339285956
              ],
              [
                -16.172278755410527,
                28.515863367561153
              ],
              [
                -16.17198378975516,
                28.515941185729535
              ],
              [
                -16.171946498809181,
                28.515830891247994
              ],
              [
                -16.172114386502297,
                28.515834266188111
              ],
              [
                -16.172155968764713,
                28.515815190637287
              ],
              [
                -16.172299616593083,
                28.515808357607394
              ],
              [
                -16.172605286349285,
                28.515792821708498
              ],
              [
                -16.172617314867303,
                28.515788046700944
              ],
              [
                -16.172844409271008,
                28.515697895696306
              ],
              [
                -16.172904696203641,
                28.515673962888066
              ],
              [
                -16.172957879966244,
                28.515623367090161
              ],
              [
                -16.173082612437327,
                28.515571886799464
              ],
              [
                -16.173091411190871,
                28.515564188724888
              ],
              [
                -16.173125032447516,
                28.515534772421265
              ]
            ]
          ]
        ]
      },
      "properties": {
        "id": "000100100CS85D"
      }
    }
  ]
}
