{
  "type": "FeatureCollection",
  "name": "Selska–Baštijanova–Vitezićeva – rekonstrukcija izvedenog stanja – interna prometnica 1",
  "bbox": [
    15.939063647,
    45.80323522,
    15.939409398,
    45.803351421
  ],
  "reconstruction": {
    "schema": "consensus-builder.corridor-reconstruction.v1",
    "proposal": {
      "proposalId": "pionir-selska-bastijanova-viteziceva-observed-access-702671621",
      "city": "zagreb",
      "name": "Selska–Baštijanova–Vitezićeva – rekonstrukcija izvedenog stanja – interna prometnica 1",
      "title": "Selska–Baštijanova–Vitezićeva – rekonstrukcija izvedenog stanja – interna prometnica 1",
      "description": "Rekonstrukcija 37 m površinskih internih pristupnih i servisnih prometnica uz izvedeni sklop. Središnjice i oznake namjene preuzete su iz aktualnog lokalnog OSM sloja; širine slijede OSM oznake, a kada ih nema, standarde profila aplikacije. Ovo nije geodetska snimka ni geometrija iz dozvole. Podzemni, prekratki i zgradama preklopljeni potezi nisu uključeni.",
      "author": "zagreb.lol – lokalna analiza",
      "type": "road",
      "goal": "road-track",
      "primaryType": "Road",
      "isCorridor": true,
      "lifecycleStatus": "Active",
      "createdAt": "2026-08-13T00:00:00.000Z",
      "updatedAt": "2026-08-13T00:00:00.000Z",
      "tags": [
        "roads",
        "research",
        "reconstruction",
        "observed-built-state"
      ],
      "parentParcelIds": [
        "HR-339270-2682/89",
        "HR-339270-2682/91",
        "HR-339270-2682/93",
        "HR-339270-2682/95",
        "HR-339270-2682/97",
        "HR-339270-2682/99",
        "HR-339270-2682/102",
        "HR-339270-2682/104"
      ],
      "cadastreParcelIds": [
        "HR-339270-2682/89",
        "HR-339270-2682/91",
        "HR-339270-2682/93",
        "HR-339270-2682/95",
        "HR-339270-2682/97",
        "HR-339270-2682/99",
        "HR-339270-2682/102",
        "HR-339270-2682/104"
      ],
      "parcelIds": [
        "HR-339270-2682/89",
        "HR-339270-2682/91",
        "HR-339270-2682/93",
        "HR-339270-2682/95",
        "HR-339270-2682/97",
        "HR-339270-2682/99",
        "HR-339270-2682/102",
        "HR-339270-2682/104"
      ],
      "acceptedParcelIds": [],
      "bounds": [
        15.939063647,
        45.80323522,
        15.939409398,
        45.803351421
      ],
      "source": {
        "geometryBasis": "current OSM centrelines clipped to the reconstructed current parcel union",
        "widthBasis": "OSM tags, then consensus-builder OSM profile defaults",
        "footprintBasis": "projected per-segment profile buffers in HTRS96/TM (EPSG:3765)",
        "exclusions": "tunnel/covered/negative-layer; fragment < 8 m; component < 30 m; building overlap >= 1 m²",
        "osmWayIds": [
          702671621,
          1075039422
        ],
        "lengthM": 36.93415829162083,
        "footprintAreaM2": 97.79108902845208,
        "snapshotDate": "2026-08-13"
      }
    },
    "roadProposal": {
      "parentParcelIds": [
        "HR-339270-2682/89",
        "HR-339270-2682/91",
        "HR-339270-2682/93",
        "HR-339270-2682/95",
        "HR-339270-2682/97",
        "HR-339270-2682/99",
        "HR-339270-2682/102",
        "HR-339270-2682/104"
      ],
      "childParcelIds": [],
      "mode": "import",
      "isCorridor": true
    },
    "definition": {
      "profile": {
        "strips": [
          {
            "type": "driving",
            "width": 2.75,
            "direction": "forward"
          }
        ]
      },
      "width": 2.75,
      "segmentProfiles": {},
      "tunnels": [],
      "gradeSeparations": [],
      "metadata": {
        "mode": "import",
        "type": "road",
        "isTrack": false,
        "isRoad": true,
        "isCorridor": true,
        "source": "osm-observed-state",
        "observedReconstruction": true,
        "sourceRows": [
          {
            "segmentId": "osm-702671621-1",
            "osmWayId": 702671621,
            "osmPartIndex": 1,
            "highway": "service",
            "service": null,
            "surface": null,
            "tags": {
              "highway": "service"
            },
            "insideLengthM": 26.5262455418506,
            "modelledWidthM": 2.75
          },
          {
            "segmentId": "osm-1075039422-1",
            "osmWayId": 1075039422,
            "osmPartIndex": 1,
            "highway": "service",
            "service": "driveway",
            "surface": null,
            "tags": {
              "highway": "service",
              "service": "driveway"
            },
            "insideLengthM": 10.407912749770233,
            "modelledWidthM": 2.75
          }
        ]
      }
    }
  },
  "features": [
    {
      "type": "Feature",
      "properties": {
        "id": "site:pionir-selska-bastijanova-viteziceva-observed",
        "parcelIds": [
          "HR-339270-2682/89",
          "HR-339270-2682/91",
          "HR-339270-2682/93",
          "HR-339270-2682/95",
          "HR-339270-2682/97",
          "HR-339270-2682/99",
          "HR-339270-2682/102",
          "HR-339270-2682/104"
        ],
        "cestica_ids": [
          40533555,
          40533060,
          40533256,
          40533159,
          40533375,
          40533289,
          40533290,
          40533087
        ],
        "maticni_broj_ko": 339270,
        "broj_cestice": null,
        "brojevi_cestica": [
          "2682/89",
          "2682/91",
          "2682/93",
          "2682/95",
          "2682/97",
          "2682/99",
          "2682/102",
          "2682/104"
        ],
        "areaM2": 25205.70645001662,
        "source": "DGU katastar, unija aktualnih čestica",
        "consensus:role": "site"
      },
      "geometry": {
        "type": "MultiPolygon",
        "coordinates": [
          [
            [
              [
                15.939168352,
                45.803155731
              ],
              [
                15.939099324,
                45.803149903
              ],
              [
                15.939076059,
                45.803147899
              ],
              [
                15.939071946,
                45.803147519
              ],
              [
                15.938870914,
                45.803129706
              ],
              [
                15.938823364,
                45.803124703
              ],
              [
                15.938727234,
                45.803114603
              ],
              [
                15.938697198,
                45.803287127
              ],
              [
                15.938670819,
                45.803441402
              ],
              [
                15.938667138,
                45.80346208
              ],
              [
                15.93866063,
                45.80349525
              ],
              [
                15.938659386,
                45.803516569
              ],
              [
                15.938659943,
                45.80352521
              ],
              [
                15.938661941,
                45.803531248
              ],
              [
                15.938665243,
                45.803535494
              ],
              [
                15.93867061,
                45.803539119
              ],
              [
                15.939345458,
                45.803660486
              ],
              [
                15.939447257,
                45.803028428
              ],
              [
                15.939292483,
                45.803016332
              ],
              [
                15.939265143,
                45.803163944
              ],
              [
                15.939168352,
                45.803155731
              ]
            ]
          ],
          [
            [
              [
                15.939986338,
                45.803782582
              ],
              [
                15.940099384,
                45.803080215
              ],
              [
                15.939991531,
                45.803071678
              ],
              [
                15.939774668,
                45.803054599
              ],
              [
                15.939728648,
                45.803050954
              ],
              [
                15.939622189,
                45.803711782
              ],
              [
                15.939712585,
                45.803729322
              ],
              [
                15.939986338,
                45.803782582
              ]
            ]
          ],
          [
            [
              [
                15.94029656,
                45.803842769
              ],
              [
                15.940443068,
                45.80387111
              ],
              [
                15.940545678,
                45.803889519
              ],
              [
                15.940649606,
                45.803904694
              ],
              [
                15.94075421,
                45.803916634
              ],
              [
                15.940834596,
                45.80341728
              ],
              [
                15.940844054,
                45.803359199
              ],
              [
                15.94087904,
                45.80314126
              ],
              [
                15.940844203,
                45.80313857
              ],
              [
                15.940415362,
                45.803104708
              ],
              [
                15.940380526,
                45.803101928
              ],
              [
                15.940262278,
                45.803835942
              ],
              [
                15.94029656,
                45.803842769
              ]
            ]
          ],
          [
            [
              [
                15.941084933,
                45.801862486
              ],
              [
                15.940586564,
                45.801822526
              ],
              [
                15.940427991,
                45.802807027
              ],
              [
                15.940926633,
                45.802846269
              ],
              [
                15.941084933,
                45.801862486
              ]
            ]
          ],
          [
            [
              [
                15.94124693,
                45.803957195
              ],
              [
                15.941479988,
                45.803976151
              ],
              [
                15.941533721,
                45.803980553
              ],
              [
                15.941658823,
                45.80320275
              ],
              [
                15.941607661,
                45.803198631
              ],
              [
                15.941400696,
                45.803182323
              ],
              [
                15.941376527,
                45.803180495
              ],
              [
                15.941214041,
                45.803167643
              ],
              [
                15.941160307,
                45.803163421
              ],
              [
                15.941035211,
                45.803939964
              ],
              [
                15.94124693,
                45.803957195
              ]
            ]
          ],
          [
            [
              [
                15.941706412,
                45.802907669
              ],
              [
                15.941753856,
                45.802614297
              ],
              [
                15.94180826,
                45.802280829
              ],
              [
                15.941866103,
                45.801924972
              ],
              [
                15.941366191,
                45.801884917
              ],
              [
                15.94120777,
                45.80286843
              ],
              [
                15.941706412,
                45.802907669
              ]
            ]
          ],
          [
            [
              [
                15.942279946,
                45.804041245
              ],
              [
                15.942405442,
                45.803261554
              ],
              [
                15.942370348,
                45.803258773
              ],
              [
                15.942207346,
                45.80324592
              ],
              [
                15.942184336,
                45.803244098
              ],
              [
                15.941975957,
                45.803227604
              ],
              [
                15.94194009,
                45.803224909
              ],
              [
                15.941814858,
                45.804003342
              ],
              [
                15.942279946,
                45.804041245
              ]
            ]
          ],
          [
            [
              [
                15.942646455,
                45.803372685
              ],
              [
                15.942634387,
                45.803447579
              ],
              [
                15.94262328,
                45.803516449
              ],
              [
                15.942583501,
                45.803764059
              ],
              [
                15.942535635,
                45.804061478
              ],
              [
                15.942765744,
                45.804079517
              ],
              [
                15.942864621,
                45.803465798
              ],
              [
                15.942890817,
                45.803302882
              ],
              [
                15.942891234,
                45.803299825
              ],
              [
                15.942661129,
                45.803281607
              ],
              [
                15.942659205,
                45.803294015
              ],
              [
                15.942646455,
                45.803372685
              ]
            ]
          ]
        ]
      }
    },
    {
      "type": "Feature",
      "properties": {
        "consensus:index": 0,
        "consensus:segment-id": "osm-702671621-1",
        "consensus:role": "corridor-centerline"
      },
      "geometry": {
        "type": "LineString",
        "coordinates": [
          [
            15.939407418,
            45.803275786
          ],
          [
            15.9391987,
            45.8032589
          ],
          [
            15.9391847,
            45.8033501
          ]
        ]
      }
    },
    {
      "type": "Feature",
      "properties": {
        "consensus:index": 1,
        "consensus:segment-id": "osm-1075039422-1",
        "consensus:role": "corridor-centerline"
      },
      "geometry": {
        "type": "LineString",
        "coordinates": [
          [
            15.9391987,
            45.8032589
          ],
          [
            15.9390658,
            45.8032475
          ]
        ]
      }
    },
    {
      "type": "Feature",
      "properties": {
        "consensus:role": "corridor-footprint"
      },
      "geometry": {
        "type": "Polygon",
        "coordinates": [
          [
            [
              15.939200793,
              45.803246615
            ],
            [
              15.939067953,
              45.80323522
            ],
            [
              15.939063647,
              45.80325978
            ],
            [
              15.939179252,
              45.803269696
            ],
            [
              15.939167112,
              45.803348779
            ],
            [
              15.939202288,
              45.803351421
            ],
            [
              15.939214384,
              45.803272623
            ],
            [
              15.939405385,
              45.803288076
            ],
            [
              15.939407414,
              45.803275807
            ],
            [
              15.939409398,
              45.803263492
            ],
            [
              15.939200793,
              45.803246615
            ]
          ]
        ]
      }
    }
  ]
}
