{
  "type": "FeatureCollection",
  "name": "Folnegovićeva–Rapska – rekonstrukcija izvedenog stanja – interna prometna mreža",
  "bbox": [
    16.006462357,
    45.799453324,
    16.008038859,
    45.800374917
  ],
  "reconstruction": {
    "schema": "consensus-builder.corridor-reconstruction.v1",
    "proposal": {
      "proposalId": "paron-folnegoviceva-rapska-observed-access-241116394",
      "city": "zagreb",
      "name": "Folnegovićeva–Rapska – rekonstrukcija izvedenog stanja – interna prometna mreža",
      "title": "Folnegovićeva–Rapska – rekonstrukcija izvedenog stanja – interna prometna mreža",
      "description": "Rekonstrukcija 402 m površinskih internih pristupnih i servisnih prometnica uz izvedeni sklop. Središnjice i oznake namjene preuzete su iz aktualnog lokalnog OSM sloja; širine slijede OSM oznake, a kada ih nema, standarde profila aplikacije. Ovo nije geodetska snimka ni geometrija iz dozvole. Podzemni, prekratki i zgradama preklopljeni potezi nisu uključeni.",
      "author": "zagreb.lol – lokalna analiza",
      "type": "road",
      "goal": "road-track",
      "primaryType": "Road",
      "isCorridor": true,
      "lifecycleStatus": "Active",
      "createdAt": "2026-08-13T00:00:00.000Z",
      "updatedAt": "2026-08-13T00:00:00.000Z",
      "tags": [
        "roads",
        "research",
        "reconstruction",
        "observed-built-state"
      ],
      "parentParcelIds": [
        "HR-335649-2708/1"
      ],
      "cadastreParcelIds": [
        "HR-335649-2708/1"
      ],
      "parcelIds": [
        "HR-335649-2708/1"
      ],
      "acceptedParcelIds": [],
      "bounds": [
        16.006462357,
        45.799453324,
        16.008038859,
        45.800374917
      ],
      "source": {
        "geometryBasis": "current OSM centrelines clipped to the reconstructed current parcel union",
        "widthBasis": "OSM tags, then consensus-builder OSM profile defaults",
        "footprintBasis": "projected per-segment profile buffers in HTRS96/TM (EPSG:3765)",
        "exclusions": "tunnel/covered/negative-layer; fragment < 8 m; component < 30 m; building overlap >= 1 m²",
        "osmWayIds": [
          241116394,
          241251587,
          241251588,
          692627239,
          692627241
        ],
        "lengthM": 402.29891012820394,
        "footprintAreaM2": 1089.8159948905227,
        "snapshotDate": "2026-08-13"
      }
    },
    "roadProposal": {
      "parentParcelIds": [
        "HR-335649-2708/1"
      ],
      "childParcelIds": [],
      "mode": "import",
      "isCorridor": true
    },
    "definition": {
      "profile": {
        "strips": [
          {
            "type": "driving",
            "width": 2.75,
            "direction": "forward"
          }
        ]
      },
      "width": 2.75,
      "segmentProfiles": {},
      "tunnels": [],
      "gradeSeparations": [],
      "metadata": {
        "mode": "import",
        "type": "road",
        "isTrack": false,
        "isRoad": true,
        "isCorridor": true,
        "source": "osm-observed-state",
        "observedReconstruction": true,
        "sourceRows": [
          {
            "segmentId": "osm-241116394-1",
            "osmWayId": 241116394,
            "osmPartIndex": 1,
            "highway": "service",
            "service": null,
            "surface": "asphalt",
            "tags": {
              "lit": "yes",
              "highway": "service",
              "surface": "asphalt"
            },
            "insideLengthM": 218.33905189694488,
            "modelledWidthM": 2.75
          },
          {
            "segmentId": "osm-241251587-1",
            "osmWayId": 241251587,
            "osmPartIndex": 1,
            "highway": "service",
            "service": null,
            "surface": "asphalt",
            "tags": {
              "lit": "yes",
              "highway": "service",
              "surface": "asphalt"
            },
            "insideLengthM": 97.2405335197763,
            "modelledWidthM": 2.75
          },
          {
            "segmentId": "osm-241251588-1",
            "osmWayId": 241251588,
            "osmPartIndex": 1,
            "highway": "service",
            "service": null,
            "surface": "asphalt",
            "tags": {
              "highway": "service",
              "surface": "asphalt"
            },
            "insideLengthM": 24.151723005981793,
            "modelledWidthM": 2.75
          },
          {
            "segmentId": "osm-692627239-1",
            "osmWayId": 692627239,
            "osmPartIndex": 1,
            "highway": "service",
            "service": "parking_aisle",
            "surface": "asphalt",
            "tags": {
              "lit": "yes",
              "highway": "service",
              "service": "parking_aisle",
              "surface": "asphalt"
            },
            "insideLengthM": 29.26684330314695,
            "modelledWidthM": 2.75
          },
          {
            "segmentId": "osm-692627241-1",
            "osmWayId": 692627241,
            "osmPartIndex": 1,
            "highway": "service",
            "service": "parking_aisle",
            "surface": "asphalt",
            "tags": {
              "highway": "service",
              "service": "parking_aisle",
              "surface": "asphalt"
            },
            "insideLengthM": 33.30075840235395,
            "modelledWidthM": 2.75
          }
        ]
      }
    }
  },
  "features": [
    {
      "type": "Feature",
      "properties": {
        "id": "HR-335649-2708/1",
        "cestica_id": 21309361,
        "maticni_broj_ko": 335649,
        "broj_cestice": "2708/1",
        "areaM2": 14198.092900020261,
        "source": "DGU katastar, aktualna čestica",
        "consensus:role": "site"
      },
      "geometry": {
        "type": "MultiPolygon",
        "coordinates": [
          [
            [
              [
                16.006298176,
                45.800025409
              ],
              [
                16.006268797,
                45.800016374
              ],
              [
                16.006225815,
                45.800003501
              ],
              [
                16.006196185,
                45.799993656
              ],
              [
                16.006083479,
                45.799951598
              ],
              [
                16.006078113,
                45.799947436
              ],
              [
                16.006076616,
                45.79994212
              ],
              [
                16.00608156,
                45.799935753
              ],
              [
                16.006352047,
                45.799839564
              ],
              [
                16.006704863,
                45.799714306
              ],
              [
                16.006911352,
                45.799639525
              ],
              [
                16.006979629,
                45.799613995
              ],
              [
                16.007050867,
                45.799588208
              ],
              [
                16.007470981,
                45.799445963
              ],
              [
                16.007768087,
                45.799350335
              ],
              [
                16.007926772,
                45.79929865
              ],
              [
                16.008149791,
                45.799669427
              ],
              [
                16.008367436,
                45.800037301
              ],
              [
                16.008515204,
                45.800290959
              ],
              [
                16.008426084,
                45.80031676
              ],
              [
                16.008421957,
                45.800317912
              ],
              [
                16.008461509,
                45.800384397
              ],
              [
                16.008424066,
                45.800399893
              ],
              [
                16.008363561,
                45.800390095
              ],
              [
                16.00832438,
                45.800383717
              ],
              [
                16.008308438,
                45.800382569
              ],
              [
                16.00830798,
                45.800390755
              ],
              [
                16.008306873,
                45.800399658
              ],
              [
                16.00829924,
                45.800463061
              ],
              [
                16.007662217,
                45.800430895
              ],
              [
                16.00708048,
                45.800402293
              ],
              [
                16.007000546,
                45.800422103
              ],
              [
                16.006797271,
                45.800423925
              ],
              [
                16.006770932,
                45.800420212
              ],
              [
                16.006751788,
                45.80041752
              ],
              [
                16.006690187,
                45.800415275
              ],
              [
                16.006701893,
                45.800284135
              ],
              [
                16.006677301,
                45.800242728
              ],
              [
                16.006649435,
                45.800193389
              ],
              [
                16.006637607,
                45.800178041
              ],
              [
                16.0065911,
                45.800098028
              ],
              [
                16.006551052,
                45.800088048
              ],
              [
                16.006463892,
                45.800066616
              ],
              [
                16.006298176,
                45.800025409
              ]
            ]
          ]
        ]
      }
    },
    {
      "type": "Feature",
      "properties": {
        "consensus:index": 0,
        "consensus:segment-id": "osm-241116394-1",
        "consensus:role": "corridor-centerline"
      },
      "geometry": {
        "type": "LineString",
        "coordinates": [
          [
            16.007434934,
            45.799458168
          ],
          [
            16.0074633,
            45.7995048
          ],
          [
            16.0078829,
            45.800202
          ],
          [
            16.0078885,
            45.8002246
          ],
          [
            16.0078755,
            45.8002399
          ],
          [
            16.0077861,
            45.8002688
          ],
          [
            16.0075355,
            45.8003385
          ],
          [
            16.007497,
            45.8003485
          ],
          [
            16.007474,
            45.8003459
          ],
          [
            16.0074515,
            45.800334
          ],
          [
            16.0074272,
            45.8002993
          ],
          [
            16.0073637,
            45.8001907
          ],
          [
            16.0070435,
            45.7996315
          ],
          [
            16.007020403,
            45.799599235
          ]
        ]
      }
    },
    {
      "type": "Feature",
      "properties": {
        "consensus:index": 1,
        "consensus:segment-id": "osm-241251587-1",
        "consensus:role": "corridor-centerline"
      },
      "geometry": {
        "type": "LineString",
        "coordinates": [
          [
            16.006506423,
            45.800077074
          ],
          [
            16.0065969,
            45.7999956
          ],
          [
            16.0067182,
            45.800194
          ],
          [
            16.0067558,
            45.8002604
          ],
          [
            16.0067665,
            45.8002792
          ],
          [
            16.00679,
            45.800303
          ],
          [
            16.0068173,
            45.8003182
          ],
          [
            16.0068469,
            45.8003268
          ],
          [
            16.006891,
            45.8003273
          ],
          [
            16.0071711,
            45.8002444
          ],
          [
            16.0073042,
            45.8002075
          ],
          [
            16.0073637,
            45.8001907
          ]
        ]
      }
    },
    {
      "type": "Feature",
      "properties": {
        "consensus:index": 2,
        "consensus:segment-id": "osm-241251588-1",
        "consensus:role": "corridor-centerline"
      },
      "geometry": {
        "type": "LineString",
        "coordinates": [
          [
            16.0065969,
            45.7999956
          ],
          [
            16.0064829,
            45.7998033
          ],
          [
            16.006478213,
            45.799794772
          ]
        ]
      }
    },
    {
      "type": "Feature",
      "properties": {
        "consensus:index": 3,
        "consensus:segment-id": "osm-692627239-1",
        "consensus:role": "corridor-centerline"
      },
      "geometry": {
        "type": "LineString",
        "coordinates": [
          [
            16.0077861,
            45.8002688
          ],
          [
            16.0078281,
            45.8003234
          ],
          [
            16.007867,
            45.8003415
          ],
          [
            16.0079059,
            45.8003445
          ],
          [
            16.0079477,
            45.8003374
          ],
          [
            16.0079938,
            45.8003133
          ],
          [
            16.0080212,
            45.8002832
          ],
          [
            16.0080183,
            45.800248
          ]
        ]
      }
    },
    {
      "type": "Feature",
      "properties": {
        "consensus:index": 4,
        "consensus:segment-id": "osm-692627241-1",
        "consensus:role": "corridor-centerline"
      },
      "geometry": {
        "type": "LineString",
        "coordinates": [
          [
            16.0073042,
            45.8002075
          ],
          [
            16.0073116,
            45.8002627
          ],
          [
            16.0073091,
            45.8002941
          ],
          [
            16.0072935,
            45.8003214
          ],
          [
            16.0072416,
            45.8003485
          ],
          [
            16.0071754,
            45.8003626
          ],
          [
            16.0071365,
            45.8003545
          ],
          [
            16.0071033,
            45.8003324
          ],
          [
            16.0070846,
            45.8003063
          ]
        ]
      }
    },
    {
      "type": "Feature",
      "properties": {
        "consensus:role": "corridor-footprint"
      },
      "geometry": {
        "type": "Polygon",
        "coordinates": [
          [
            [
              16.00646639,
              45.799807739
            ],
            [
              16.006466561,
              45.799808039
            ],
            [
              16.006576621,
              45.799993693
            ],
            [
              16.006492454,
              45.800069485
            ],
            [
              16.006506423,
              45.800077074
            ],
            [
              16.006524016,
              45.8000814
            ],
            [
              16.006592446,
              45.80001978
            ],
            [
              16.006701843,
              45.800198711
            ],
            [
              16.006739355,
              45.800264956
            ],
            [
              16.006739366,
              45.800264976
            ],
            [
              16.006750066,
              45.800283776
            ],
            [
              16.006751945,
              45.800286231
            ],
            [
              16.006775445,
              45.800310031
            ],
            [
              16.006778984,
              45.80031268
            ],
            [
              16.006806284,
              45.80032788
            ],
            [
              16.006810515,
              45.800329625
            ],
            [
              16.006840115,
              45.800338225
            ],
            [
              16.0068433,
              45.800338913
            ],
            [
              16.006846613,
              45.80033917
            ],
            [
              16.006890713,
              45.80033967
            ],
            [
              16.006894376,
              45.800339445
            ],
            [
              16.006897893,
              45.800338694
            ],
            [
              16.007177806,
              45.800255849
            ],
            [
              16.007288791,
              45.80022508
            ],
            [
              16.007293866,
              45.800262935
            ],
            [
              16.0072916,
              45.800291389
            ],
            [
              16.007278925,
              45.800313571
            ],
            [
              16.007233493,
              45.800337294
            ],
            [
              16.007175342,
              45.800349679
            ],
            [
              16.007145618,
              45.80034349
            ],
            [
              16.007117731,
              45.800324927
            ],
            [
              16.007100414,
              45.800300757
            ],
            [
              16.007068786,
              45.800311843
            ],
            [
              16.007087486,
              45.800337943
            ],
            [
              16.007089084,
              45.800339762
            ],
            [
              16.007091106,
              45.800341362
            ],
            [
              16.007124306,
              45.800363462
            ],
            [
              16.007127634,
              45.800365206
            ],
            [
              16.007131453,
              45.800366358
            ],
            [
              16.007170353,
              45.800374458
            ],
            [
              16.007173733,
              45.800374917
            ],
            [
              16.007177177,
              45.800374909
            ],
            [
              16.007180553,
              45.800374435
            ],
            [
              16.007246753,
              45.800360335
            ],
            [
              16.007249586,
              45.800359539
            ],
            [
              16.007252181,
              45.800358414
            ],
            [
              16.007304081,
              45.800331314
            ],
            [
              16.007306485,
              45.800329801
            ],
            [
              16.007308455,
              45.800328007
            ],
            [
              16.007309925,
              45.800325992
            ],
            [
              16.007325525,
              45.800298692
            ],
            [
              16.00732637,
              45.800296775
            ],
            [
              16.007326761,
              45.800294788
            ],
            [
              16.007329261,
              45.800263388
            ],
            [
              16.007329211,
              45.800261545
            ],
            [
              16.007323041,
              45.800215522
            ],
            [
              16.007353993,
              45.800206783
            ],
            [
              16.007410828,
              45.800303983
            ],
            [
              16.007411315,
              45.800304742
            ],
            [
              16.007435615,
              45.800339442
            ],
            [
              16.007437851,
              45.80034187
            ],
            [
              16.007440832,
              45.800343868
            ],
            [
              16.007463332,
              45.800355768
            ],
            [
              16.007467049,
              45.800357277
            ],
            [
              16.007471178,
              45.800358113
            ],
            [
              16.007494178,
              45.800360713
            ],
            [
              16.007497207,
              45.800360871
            ],
            [
              16.00750023,
              45.800360664
            ],
            [
              16.007503158,
              45.800360098
            ],
            [
              16.007541658,
              45.800350098
            ],
            [
              16.007542036,
              45.800349996
            ],
            [
              16.007777991,
              45.80028437
            ],
            [
              16.007812523,
              45.800329262
            ],
            [
              16.007815022,
              45.80033173
            ],
            [
              16.007818303,
              45.800333701
            ],
            [
              16.007857203,
              45.800351801
            ],
            [
              16.007860961,
              45.800353129
            ],
            [
              16.007865061,
              45.800353797
            ],
            [
              16.007903961,
              45.800356797
            ],
            [
              16.007907035,
              45.800356846
            ],
            [
              16.007910074,
              45.800356523
            ],
            [
              16.007951874,
              45.800349423
            ],
            [
              16.007955235,
              45.800348593
            ],
            [
              16.00795829,
              45.80034731
            ],
            [
              16.00800439,
              45.80032321
            ],
            [
              16.008006767,
              45.800321715
            ],
            [
              16.008008721,
              45.800319945
            ],
            [
              16.008036121,
              45.800289845
            ],
            [
              16.008037762,
              45.800287544
            ],
            [
              16.008038688,
              45.800285056
            ],
            [
              16.008038859,
              45.800282488
            ],
            [
              16.008035959,
              45.800247288
            ],
            [
              16.008000641,
              45.800248712
            ],
            [
              16.008003213,
              45.800279924
            ],
            [
              16.007980618,
              45.800304746
            ],
            [
              16.007940009,
              45.800325975
            ],
            [
              16.007904748,
              45.800331964
            ],
            [
              16.007873215,
              45.800329532
            ],
            [
              16.007841581,
              45.800314813
            ],
            [
              16.007810582,
              45.800274515
            ],
            [
              16.007882921,
              45.800251131
            ],
            [
              16.007885971,
              45.800249871
            ],
            [
              16.007888601,
              45.800248213
            ],
            [
              16.007890706,
              45.800246221
            ],
            [
              16.007903706,
              45.800230921
            ],
            [
              16.007905059,
              45.80022895
            ],
            [
              16.007905895,
              45.800226843
            ],
            [
              16.007906188,
              45.800224666
            ],
            [
              16.007905928,
              45.800222487
            ],
            [
              16.007900328,
              45.800199887
            ],
            [
              16.007899203,
              45.8001972
            ],
            [
              16.007479602,
              45.7995
            ],
            [
              16.007479576,
              45.799499956
            ],
            [
              16.00745121,
              45.799453324
            ],
            [
              16.007434937,
              45.799458167
            ],
            [
              16.007418995,
              45.799463565
            ],
            [
              16.007447011,
              45.799509622
            ],
            [
              16.007865816,
              45.800205501
            ],
            [
              16.007869956,
              45.800222209
            ],
            [
              16.007863098,
              45.80023028
            ],
            [
              16.007779116,
              45.800257428
            ],
            [
              16.007529152,
              45.800326951
            ],
            [
              16.007495216,
              45.800335766
            ],
            [
              16.007481162,
              45.800334177
            ],
            [
              16.007465531,
              45.80032591
            ],
            [
              16.007443347,
              45.800294232
            ],
            [
              16.007380096,
              45.800186058
            ],
            [
              16.00705992,
              45.7996269
            ],
            [
              16.007059316,
              45.799625961
            ],
            [
              16.007036219,
              45.799593696
            ],
            [
              16.007020444,
              45.799599221
            ],
            [
              16.007004693,
              45.799604922
            ],
            [
              16.007027354,
              45.799636578
            ],
            [
              16.007340721,
              45.800183846
            ],
            [
              16.00729763,
              45.800196013
            ],
            [
              16.007164582,
              45.800232899
            ],
            [
              16.007164207,
              45.800233006
            ],
            [
              16.006887549,
              45.800314887
            ],
            [
              16.006850565,
              45.800314468
            ],
            [
              16.006826376,
              45.80030744
            ],
            [
              16.006803066,
              45.800294462
            ],
            [
              16.006782193,
              45.800273322
            ],
            [
              16.00677224,
              45.800255834
            ],
            [
              16.006734645,
              45.800189444
            ],
            [
              16.006734464,
              45.800189135
            ],
            [
              16.006613202,
              45.799990798
            ],
            [
              16.006499327,
              45.79979871
            ],
            [
              16.006494723,
              45.799790333
            ],
            [
              16.006478216,
              45.799794771
            ],
            [
              16.006462357,
              45.799800402
            ],
            [
              16.00646639,
              45.799807739
            ]
          ]
        ]
      }
    }
  ]
}
