{
  "type": "FeatureCollection",
  "name": "Špansko C–D – rekonstrukcija izvedenog stanja – površinsko parkiralište 2",
  "bbox": [
    15.8863645,
    45.8039957,
    15.887244,
    45.8041919
  ],
  "reconstruction": {
    "schema": "consensus-builder.corridor-reconstruction.v1",
    "proposal": {
      "proposalId": "pionir-spansko-c-d-observed-parking-952603085",
      "city": "zagreb",
      "name": "Špansko C–D – rekonstrukcija izvedenog stanja – površinsko parkiralište 2",
      "title": "Špansko C–D – rekonstrukcija izvedenog stanja – površinsko parkiralište 2",
      "description": "Rekonstrukcija izvedenog površinskog parkirališta iz aktualnog lokalnog OSM sloja: približno 41 mjesta prema površinskoj procjeni na 1034 m². Poligon parkirališta i središnjica prolaza izravno su preuzeti iz OSM-a. Dvostrani okomiti raspored izveden je iz izmjerene prosječne širine poligona; položaji pojedinih mjesta nisu geodetski snimljeni.",
      "author": "zagreb.lol – lokalna analiza",
      "type": "road",
      "goal": "road-track",
      "primaryType": "Road",
      "isCorridor": true,
      "lifecycleStatus": "Active",
      "createdAt": "2026-08-13T00:00:00.000Z",
      "updatedAt": "2026-08-13T00:00:00.000Z",
      "tags": [
        "roads",
        "parking",
        "research",
        "reconstruction",
        "observed-built-state"
      ],
      "parentParcelIds": [
        "HR-340057-2811/1",
        "HR-340057-2811/3"
      ],
      "cadastreParcelIds": [
        "HR-340057-2811/1",
        "HR-340057-2811/3"
      ],
      "parcelIds": [
        "HR-340057-2811/1",
        "HR-340057-2811/3"
      ],
      "acceptedParcelIds": [],
      "bounds": [
        15.8863645,
        45.8039957,
        15.887244,
        45.8041919
      ],
      "source": {
        "geometryBasis": "current OSM parking polygon and paired parking_aisle centreline",
        "layoutBasis": "inferred double-sided perpendicular bays; individual bay positions are not surveyed",
        "osmParkingId": 952603085,
        "osmAisleId": 253167378,
        "capacity": 41,
        "capacitySource": "area_estimate",
        "areaM2": 1034.2797682551306,
        "snapshotDate": "2026-08-13"
      }
    },
    "roadProposal": {
      "parentParcelIds": [
        "HR-340057-2811/1",
        "HR-340057-2811/3"
      ],
      "childParcelIds": [],
      "mode": "import",
      "isCorridor": true
    },
    "definition": {
      "profile": {
        "strips": [
          {
            "type": "parking_perpendicular",
            "width": 5
          },
          {
            "type": "driving",
            "width": 7.0465849820309,
            "direction": "both"
          },
          {
            "type": "parking_perpendicular",
            "width": 5
          }
        ]
      },
      "width": 17.0465849820309,
      "segmentProfiles": {},
      "tunnels": [],
      "gradeSeparations": [],
      "metadata": {
        "mode": "import",
        "type": "road",
        "isTrack": false,
        "isRoad": true,
        "isCorridor": true,
        "source": "osm-observed-parking",
        "observedReconstruction": true,
        "parking": {
          "osmParkingId": 952603085,
          "osmAisleId": 253167378,
          "capacity": 41,
          "capacitySource": "area_estimate",
          "access": "private",
          "areaM2": 1034.2797682551306,
          "layoutBasis": "double-sided perpendicular bays inferred from parking polygon area / aisle length",
          "tags": {
            "access": "private",
            "amenity": "parking",
            "parking": "street_side"
          }
        }
      }
    }
  },
  "features": [
    {
      "type": "Feature",
      "properties": {
        "id": "site:pionir-spansko-c-d-observed",
        "parcelIds": [
          "HR-340057-2811/1",
          "HR-340057-2811/3"
        ],
        "cestica_ids": [
          40366319,
          40366445
        ],
        "maticni_broj_ko": 340057,
        "broj_cestice": null,
        "brojevi_cestica": [
          "2811/1",
          "2811/3"
        ],
        "areaM2": 20725.37860001106,
        "source": "DGU katastar, unija aktualnih čestica",
        "consensus:role": "site"
      },
      "geometry": {
        "type": "Polygon",
        "coordinates": [
          [
            [
              15.886036659,
              45.803492915
            ],
            [
              15.886012653,
              45.803687232
            ],
            [
              15.885973932,
              45.804003123
            ],
            [
              15.885936624,
              45.804307413
            ],
            [
              15.885929552,
              45.804365592
            ],
            [
              15.885935011,
              45.80437228
            ],
            [
              15.885948793,
              45.804382522
            ],
            [
              15.885966375,
              45.804386485
            ],
            [
              15.886012025,
              45.80438853
            ],
            [
              15.886099337,
              45.804392509
            ],
            [
              15.88651095,
              45.804411456
            ],
            [
              15.88679719,
              45.8044246
            ],
            [
              15.886948948,
              45.804429463
            ],
            [
              15.887089432,
              45.804430037
            ],
            [
              15.88721863,
              45.804427311
            ],
            [
              15.887341942,
              45.804421763
            ],
            [
              15.887361295,
              45.804416738
            ],
            [
              15.887374154,
              45.80440556
            ],
            [
              15.887377014,
              45.804391178
            ],
            [
              15.887363644,
              45.804319843
            ],
            [
              15.887331908,
              45.80415168
            ],
            [
              15.887319928,
              45.804082692
            ],
            [
              15.88730942,
              45.804008492
            ],
            [
              15.887300763,
              45.803929714
            ],
            [
              15.887294698,
              45.803849239
            ],
            [
              15.887291577,
              45.80377013
            ],
            [
              15.887291258,
              45.803717131
            ],
            [
              15.887224654,
              45.803654957
            ],
            [
              15.887292839,
              45.803619781
            ],
            [
              15.887296416,
              45.803563473
            ],
            [
              15.887299222,
              45.803518678
            ],
            [
              15.887309831,
              45.803419397
            ],
            [
              15.887324556,
              45.803320139
            ],
            [
              15.88734216,
              45.803228184
            ],
            [
              15.887350151,
              45.803191695
            ],
            [
              15.887431378,
              45.802835091
            ],
            [
              15.887442462,
              45.802786292
            ],
            [
              15.887459763,
              45.802710261
            ],
            [
              15.887491121,
              45.802572311
            ],
            [
              15.887488795,
              45.802561501
            ],
            [
              15.88747974,
              45.802554344
            ],
            [
              15.887463818,
              45.802551559
            ],
            [
              15.886766245,
              45.802589838
            ],
            [
              15.886380195,
              45.8026108
            ],
            [
              15.886367579,
              45.802611542
            ],
            [
              15.886227913,
              45.80261889
            ],
            [
              15.886201878,
              45.802623249
            ],
            [
              15.886187663,
              45.802629021
            ],
            [
              15.886173319,
              45.802634793
            ],
            [
              15.88616086,
              45.802644714
            ],
            [
              15.886148401,
              45.802654635
            ],
            [
              15.886142608,
              45.802666661
            ],
            [
              15.886136943,
              45.802678778
            ],
            [
              15.886135852,
              45.802684441
            ],
            [
              15.886114239,
              45.802860055
            ],
            [
              15.886078481,
              45.803152297
            ],
            [
              15.886037228,
              45.803487879
            ],
            [
              15.886036659,
              45.803492915
            ]
          ]
        ]
      }
    },
    {
      "type": "Feature",
      "properties": {
        "consensus:index": 0,
        "consensus:segment-id": "osm-253167378-parking-952603085",
        "consensus:role": "corridor-centerline"
      },
      "geometry": {
        "type": "LineString",
        "coordinates": [
          [
            15.886378533,
            45.804066095
          ],
          [
            15.8864076,
            45.8040676
          ],
          [
            15.887156329,
            45.804112018
          ]
        ]
      }
    },
    {
      "type": "Feature",
      "properties": {
        "consensus:role": "corridor-footprint"
      },
      "geometry": {
        "type": "Polygon",
        "coordinates": [
          [
            [
              15.8863919,
              45.8039957
            ],
            [
              15.8863645,
              45.80414
            ],
            [
              15.8872414,
              45.8041919
            ],
            [
              15.887244,
              45.8041444
            ],
            [
              15.8871529,
              45.804137
            ],
            [
              15.8871599,
              45.804086
            ],
            [
              15.8871545,
              45.8040543
            ],
            [
              15.8871445,
              45.8040349
            ],
            [
              15.8863919,
              45.8039957
            ]
          ]
        ]
      }
    }
  ]
}
