{
  "type": "FeatureCollection",
  "name": "Vrbani III – rekonstrukcija naselja – javni park Z1 12",
  "bbox": [
    15.91306182,
    45.789602107,
    15.91359405,
    45.78981742
  ],
  "reconstruction": {
    "schema": "consensus-builder.structure-reconstruction.v1",
    "proposal": {
      "proposalId": "reconstruction-vrbani-iii-park-z1-492",
      "city": "zagreb",
      "name": "Vrbani III – rekonstrukcija naselja – javni park Z1 12",
      "title": "Vrbani III – rekonstrukcija naselja – javni park Z1 12",
      "description": "Javne zelene površine-javni park Z1 (532 m²) iz službenoga kartografskog prikaza plana. Arhivski je referentni sloj i pri primjeni ne simulira novu parcelaciju ni prijenos vlasništva.",
      "author": "zagreb.lol – lokalna analiza",
      "type": "structure",
      "goal": "park",
      "primaryType": "Park",
      "lifecycleStatus": "Active",
      "createdAt": "2026-08-14T00:01:00.000Z",
      "updatedAt": "2026-08-14T00:01:00.000Z",
      "tags": [
        "park",
        "research",
        "reconstruction",
        "neighbourhood-plan",
        "official-plan-footprint",
        "reference-overlay"
      ],
      "parentParcelIds": [
        "HR-339318-7468"
      ],
      "cadastreParcelIds": [
        "HR-339318-7468"
      ],
      "parcelIds": [
        "HR-339318-7468"
      ],
      "acceptedParcelIds": [],
      "bounds": [
        15.91306182,
        45.789602107,
        15.91359405,
        45.78981742
      ],
      "source": {
        "planName": "UPU Vrbani III",
        "planYears": "UPU 2005.; izmjene 2006.",
        "implementationStatus": "većim dijelom izvedeno prema službenoj ocjeni realizacije plana",
        "sources": [
          "https://www.zagreb.hr/UserDocsImages/arhiva/SlGlasnik.nsf/10288f1421388ff8c1256f2d0049015b/d4c62cbed2fe586ec1256fba003490f1-OpenDocument.htm",
          "https://zagreb.hr/vrbani-iii-krajobrazno-uredjenje-naselja/12202",
          "https://data.zagreb.hr/dataset/geoportal-urbanisticki-planovi-uredenja"
        ],
        "coordinateSystem": "lokalni izvori u HTRS96/TM (EPSG:3765), izvoz za aplikaciju u WGS84",
        "geometryBasis": "Grad Zagreb – službena planirana namjena površina",
        "officialLandUseObjectId": 492,
        "officialLandUseCode": "Z1",
        "officialLandUseName": "Javne zelene površine-javni park",
        "officialLandUseGroup": "Javne zelene površine",
        "areaM2": 531.8427769226457,
        "applicationSemantics": "referenceOnly: prikaz bez nove parcelacije ili prijenosa vlasništva"
      }
    },
    "structureProposal": {
      "kind": "park",
      "blockName": "Vrbani III – rekonstrukcija naselja – Z1 12",
      "parentParcelIds": [
        "HR-339318-7468"
      ],
      "referenceOnly": true,
      "applied": false
    }
  },
  "features": [
    {
      "type": "Feature",
      "properties": {
        "id": "plan-site:vrbani-iii",
        "name": "UPU Vrbani III",
        "source": "Grad Zagreb – planirana namjena površina",
        "areaM2": 290717.7758017461,
        "featureCount": 51,
        "consensus:role": "site"
      },
      "geometry": {
        "type": "Polygon",
        "coordinates": [
          [
            [
              15.910047323,
              45.788825134
            ],
            [
              15.909560364,
              45.788858611
            ],
            [
              15.909560509,
              45.788859289
            ],
            [
              15.909605239,
              45.789068006
            ],
            [
              15.909820757,
              45.790075418
            ],
            [
              15.909858819,
              45.790253278
            ],
            [
              15.910135247,
              45.791544944
            ],
            [
              15.910208587,
              45.791887329
            ],
            [
              15.910874405,
              45.791822018
            ],
            [
              15.911034269,
              45.791817403
            ],
            [
              15.911122288,
              45.791813811
            ],
            [
              15.911267808,
              45.791810597
            ],
            [
              15.912225955,
              45.791713747
            ],
            [
              15.912543614,
              45.791682443
            ],
            [
              15.912600881,
              45.791675773
            ],
            [
              15.912932983,
              45.791639777
            ],
            [
              15.913121818,
              45.791621615
            ],
            [
              15.913186508,
              45.791615643
            ],
            [
              15.913203646,
              45.791614052
            ],
            [
              15.913852762,
              45.791553806
            ],
            [
              15.913967422,
              45.791543164
            ],
            [
              15.914682927,
              45.791466921
            ],
            [
              15.914832029,
              45.791451032
            ],
            [
              15.914857315,
              45.791447619
            ],
            [
              15.914927075,
              45.791438204
            ],
            [
              15.915030698,
              45.791424218
            ],
            [
              15.915292947,
              45.791383189
            ],
            [
              15.915418222,
              45.791360886
            ],
            [
              15.915453914,
              45.791354531
            ],
            [
              15.915628146,
              45.791321426
            ],
            [
              15.915681662,
              45.791310925
            ],
            [
              15.915748105,
              45.791297886
            ],
            [
              15.915897276,
              45.791265902
            ],
            [
              15.916085443,
              45.791225395
            ],
            [
              15.916177538,
              45.791203933
            ],
            [
              15.916262131,
              45.79118102
            ],
            [
              15.916362113,
              45.79115394
            ],
            [
              15.916487113,
              45.791122276
            ],
            [
              15.916571303,
              45.791097105
            ],
            [
              15.916783368,
              45.791033704
            ],
            [
              15.916819523,
              45.791022817
            ],
            [
              15.9168289,
              45.791020091
            ],
            [
              15.916849391,
              45.791013965
            ],
            [
              15.916973965,
              45.790974214
            ],
            [
              15.916999701,
              45.790965771
            ],
            [
              15.917033316,
              45.790954419
            ],
            [
              15.917147863,
              45.790915736
            ],
            [
              15.917246706,
              45.79088092
            ],
            [
              15.917506736,
              45.790786629
            ],
            [
              15.917740581,
              45.790695862
            ],
            [
              15.917837175,
              45.790655695
            ],
            [
              15.917936058,
              45.790613839
            ],
            [
              15.91808032,
              45.790549063
            ],
            [
              15.918161034,
              45.790512821
            ],
            [
              15.91816443,
              45.790511228
            ],
            [
              15.918528855,
              45.790340225
            ],
            [
              15.919463528,
              45.789905482
            ],
            [
              15.919689322,
              45.78979866
            ],
            [
              15.919912366,
              45.789675273
            ],
            [
              15.920007215,
              45.789627146
            ],
            [
              15.920411708,
              45.789440557
            ],
            [
              15.920456617,
              45.789417692
            ],
            [
              15.920501526,
              45.789394826
            ],
            [
              15.920497114,
              45.789344753
            ],
            [
              15.920492567,
              45.789322796
            ],
            [
              15.920435091,
              45.789233677
            ],
            [
              15.920371383,
              45.789134894
            ],
            [
              15.920370427,
              45.789133413
            ],
            [
              15.92030255,
              45.789028165
            ],
            [
              15.920230062,
              45.788915766
            ],
            [
              15.920197881,
              45.788865866
            ],
            [
              15.92010117,
              45.78873364
            ],
            [
              15.920074802,
              45.788696379
            ],
            [
              15.919955916,
              45.788531513
            ],
            [
              15.919907681,
              45.788469092
            ],
            [
              15.919847674,
              45.788387049
            ],
            [
              15.919695948,
              45.788200551
            ],
            [
              15.919639315,
              45.788135521
            ],
            [
              15.919537053,
              45.788013831
            ],
            [
              15.919390546,
              45.787847674
            ],
            [
              15.919268775,
              45.787710037
            ],
            [
              15.919175839,
              45.78760332
            ],
            [
              15.918765358,
              45.787131127
            ],
            [
              15.918357053,
              45.786673235
            ],
            [
              15.918205212,
              45.786500004
            ],
            [
              15.916902232,
              45.787065007
            ],
            [
              15.916886043,
              45.787072084
            ],
            [
              15.916023557,
              45.78744606
            ],
            [
              15.915973721,
              45.787467594
            ],
            [
              15.91592557,
              45.7874884
            ],
            [
              15.915679967,
              45.787588677
            ],
            [
              15.915429604,
              45.787690897
            ],
            [
              15.915208952,
              45.787773493
            ],
            [
              15.914996328,
              45.787853085
            ],
            [
              15.914956132,
              45.787867325
            ],
            [
              15.914752951,
              45.787937303
            ],
            [
              15.9145328,
              45.788009905
            ],
            [
              15.91433044,
              45.788073762
            ],
            [
              15.914044881,
              45.788158808
            ],
            [
              15.913825606,
              45.788220079
            ],
            [
              15.913810906,
              45.788224187
            ],
            [
              15.913583132,
              45.788284722
            ],
            [
              15.913543709,
              45.788294856
            ],
            [
              15.913344123,
              45.78834448
            ],
            [
              15.913242145,
              45.788368132
            ],
            [
              15.912976787,
              45.788429189
            ],
            [
              15.912820952,
              45.788462761
            ],
            [
              15.912756922,
              45.788476038
            ],
            [
              15.912521505,
              45.788522675
            ],
            [
              15.912192164,
              45.788582959
            ],
            [
              15.911997097,
              45.788615521
            ],
            [
              15.911851816,
              45.788638346
            ],
            [
              15.91178247,
              45.788648815
            ],
            [
              15.911771578,
              45.788650422
            ],
            [
              15.911507865,
              45.788687231
            ],
            [
              15.911172059,
              45.788729236
            ],
            [
              15.910759465,
              45.788771396
            ],
            [
              15.910549906,
              45.788788622
            ],
            [
              15.910428523,
              45.7887986
            ],
            [
              15.910079052,
              45.788822956
            ],
            [
              15.910047323,
              45.788825134
            ]
          ]
        ]
      }
    },
    {
      "type": "Feature",
      "properties": {
        "consensus:role": "structure-footprint"
      },
      "geometry": {
        "type": "MultiPolygon",
        "coordinates": [
          [
            [
              [
                15.91359405,
                45.789723053
              ],
              [
                15.913585371,
                45.789602107
              ],
              [
                15.913502267,
                45.789620828
              ],
              [
                15.913275838,
                45.789665427
              ],
              [
                15.91306182,
                45.789704164
              ],
              [
                15.913103705,
                45.78981742
              ],
              [
                15.913319444,
                45.789778371
              ],
              [
                15.913550571,
                45.789732848
              ],
              [
                15.91359405,
                45.789723053
              ]
            ]
          ]
        ]
      }
    }
  ]
}
