{
  "type": "FeatureCollection",
  "name": "Vrbani III – rekonstrukcija naselja – javni park Z1 10",
  "bbox": [
    15.915554501,
    45.787625491,
    15.916032945,
    45.788141149
  ],
  "reconstruction": {
    "schema": "consensus-builder.structure-reconstruction.v1",
    "proposal": {
      "proposalId": "reconstruction-vrbani-iii-park-z1-490",
      "city": "zagreb",
      "name": "Vrbani III – rekonstrukcija naselja – javni park Z1 10",
      "title": "Vrbani III – rekonstrukcija naselja – javni park Z1 10",
      "description": "Javne zelene površine-javni park Z1 (639 m²) iz službenoga kartografskog prikaza plana. Arhivski je referentni sloj i pri primjeni ne simulira novu parcelaciju ni prijenos vlasništva.",
      "author": "zagreb.lol – lokalna analiza",
      "type": "structure",
      "goal": "park",
      "primaryType": "Park",
      "lifecycleStatus": "Active",
      "createdAt": "2026-08-14T00:01:00.000Z",
      "updatedAt": "2026-08-14T00:01:00.000Z",
      "tags": [
        "park",
        "research",
        "reconstruction",
        "neighbourhood-plan",
        "official-plan-footprint",
        "reference-overlay"
      ],
      "parentParcelIds": [
        "HR-339318-6716/1",
        "HR-339318-6700/1",
        "HR-339318-6717/1",
        "HR-339318-6718/1",
        "HR-339318-6702/1",
        "HR-339318-6699/1",
        "HR-339318-6701/1",
        "HR-339318-6680/2"
      ],
      "cadastreParcelIds": [
        "HR-339318-6716/1",
        "HR-339318-6700/1",
        "HR-339318-6717/1",
        "HR-339318-6718/1",
        "HR-339318-6702/1",
        "HR-339318-6699/1",
        "HR-339318-6701/1",
        "HR-339318-6680/2"
      ],
      "parcelIds": [
        "HR-339318-6716/1",
        "HR-339318-6700/1",
        "HR-339318-6717/1",
        "HR-339318-6718/1",
        "HR-339318-6702/1",
        "HR-339318-6699/1",
        "HR-339318-6701/1",
        "HR-339318-6680/2"
      ],
      "acceptedParcelIds": [],
      "bounds": [
        15.915554501,
        45.787625491,
        15.916032945,
        45.788141149
      ],
      "source": {
        "planName": "UPU Vrbani III",
        "planYears": "UPU 2005.; izmjene 2006.",
        "implementationStatus": "većim dijelom izvedeno prema službenoj ocjeni realizacije plana",
        "sources": [
          "https://www.zagreb.hr/UserDocsImages/arhiva/SlGlasnik.nsf/10288f1421388ff8c1256f2d0049015b/d4c62cbed2fe586ec1256fba003490f1-OpenDocument.htm",
          "https://zagreb.hr/vrbani-iii-krajobrazno-uredjenje-naselja/12202",
          "https://data.zagreb.hr/dataset/geoportal-urbanisticki-planovi-uredenja"
        ],
        "coordinateSystem": "lokalni izvori u HTRS96/TM (EPSG:3765), izvoz za aplikaciju u WGS84",
        "geometryBasis": "Grad Zagreb – službena planirana namjena površina",
        "officialLandUseObjectId": 490,
        "officialLandUseCode": "Z1",
        "officialLandUseName": "Javne zelene površine-javni park",
        "officialLandUseGroup": "Javne zelene površine",
        "areaM2": 638.5596337008069,
        "applicationSemantics": "referenceOnly: prikaz bez nove parcelacije ili prijenosa vlasništva"
      }
    },
    "structureProposal": {
      "kind": "park",
      "blockName": "Vrbani III – rekonstrukcija naselja – Z1 10",
      "parentParcelIds": [
        "HR-339318-6716/1",
        "HR-339318-6700/1",
        "HR-339318-6717/1",
        "HR-339318-6718/1",
        "HR-339318-6702/1",
        "HR-339318-6699/1",
        "HR-339318-6701/1",
        "HR-339318-6680/2"
      ],
      "referenceOnly": true,
      "applied": false
    }
  },
  "features": [
    {
      "type": "Feature",
      "properties": {
        "id": "plan-site:vrbani-iii",
        "name": "UPU Vrbani III",
        "source": "Grad Zagreb – planirana namjena površina",
        "areaM2": 290717.7758017461,
        "featureCount": 51,
        "consensus:role": "site"
      },
      "geometry": {
        "type": "Polygon",
        "coordinates": [
          [
            [
              15.910047323,
              45.788825134
            ],
            [
              15.909560364,
              45.788858611
            ],
            [
              15.909560509,
              45.788859289
            ],
            [
              15.909605239,
              45.789068006
            ],
            [
              15.909820757,
              45.790075418
            ],
            [
              15.909858819,
              45.790253278
            ],
            [
              15.910135247,
              45.791544944
            ],
            [
              15.910208587,
              45.791887329
            ],
            [
              15.910874405,
              45.791822018
            ],
            [
              15.911034269,
              45.791817403
            ],
            [
              15.911122288,
              45.791813811
            ],
            [
              15.911267808,
              45.791810597
            ],
            [
              15.912225955,
              45.791713747
            ],
            [
              15.912543614,
              45.791682443
            ],
            [
              15.912600881,
              45.791675773
            ],
            [
              15.912932983,
              45.791639777
            ],
            [
              15.913121818,
              45.791621615
            ],
            [
              15.913186508,
              45.791615643
            ],
            [
              15.913203646,
              45.791614052
            ],
            [
              15.913852762,
              45.791553806
            ],
            [
              15.913967422,
              45.791543164
            ],
            [
              15.914682927,
              45.791466921
            ],
            [
              15.914832029,
              45.791451032
            ],
            [
              15.914857315,
              45.791447619
            ],
            [
              15.914927075,
              45.791438204
            ],
            [
              15.915030698,
              45.791424218
            ],
            [
              15.915292947,
              45.791383189
            ],
            [
              15.915418222,
              45.791360886
            ],
            [
              15.915453914,
              45.791354531
            ],
            [
              15.915628146,
              45.791321426
            ],
            [
              15.915681662,
              45.791310925
            ],
            [
              15.915748105,
              45.791297886
            ],
            [
              15.915897276,
              45.791265902
            ],
            [
              15.916085443,
              45.791225395
            ],
            [
              15.916177538,
              45.791203933
            ],
            [
              15.916262131,
              45.79118102
            ],
            [
              15.916362113,
              45.79115394
            ],
            [
              15.916487113,
              45.791122276
            ],
            [
              15.916571303,
              45.791097105
            ],
            [
              15.916783368,
              45.791033704
            ],
            [
              15.916819523,
              45.791022817
            ],
            [
              15.9168289,
              45.791020091
            ],
            [
              15.916849391,
              45.791013965
            ],
            [
              15.916973965,
              45.790974214
            ],
            [
              15.916999701,
              45.790965771
            ],
            [
              15.917033316,
              45.790954419
            ],
            [
              15.917147863,
              45.790915736
            ],
            [
              15.917246706,
              45.79088092
            ],
            [
              15.917506736,
              45.790786629
            ],
            [
              15.917740581,
              45.790695862
            ],
            [
              15.917837175,
              45.790655695
            ],
            [
              15.917936058,
              45.790613839
            ],
            [
              15.91808032,
              45.790549063
            ],
            [
              15.918161034,
              45.790512821
            ],
            [
              15.91816443,
              45.790511228
            ],
            [
              15.918528855,
              45.790340225
            ],
            [
              15.919463528,
              45.789905482
            ],
            [
              15.919689322,
              45.78979866
            ],
            [
              15.919912366,
              45.789675273
            ],
            [
              15.920007215,
              45.789627146
            ],
            [
              15.920411708,
              45.789440557
            ],
            [
              15.920456617,
              45.789417692
            ],
            [
              15.920501526,
              45.789394826
            ],
            [
              15.920497114,
              45.789344753
            ],
            [
              15.920492567,
              45.789322796
            ],
            [
              15.920435091,
              45.789233677
            ],
            [
              15.920371383,
              45.789134894
            ],
            [
              15.920370427,
              45.789133413
            ],
            [
              15.92030255,
              45.789028165
            ],
            [
              15.920230062,
              45.788915766
            ],
            [
              15.920197881,
              45.788865866
            ],
            [
              15.92010117,
              45.78873364
            ],
            [
              15.920074802,
              45.788696379
            ],
            [
              15.919955916,
              45.788531513
            ],
            [
              15.919907681,
              45.788469092
            ],
            [
              15.919847674,
              45.788387049
            ],
            [
              15.919695948,
              45.788200551
            ],
            [
              15.919639315,
              45.788135521
            ],
            [
              15.919537053,
              45.788013831
            ],
            [
              15.919390546,
              45.787847674
            ],
            [
              15.919268775,
              45.787710037
            ],
            [
              15.919175839,
              45.78760332
            ],
            [
              15.918765358,
              45.787131127
            ],
            [
              15.918357053,
              45.786673235
            ],
            [
              15.918205212,
              45.786500004
            ],
            [
              15.916902232,
              45.787065007
            ],
            [
              15.916886043,
              45.787072084
            ],
            [
              15.916023557,
              45.78744606
            ],
            [
              15.915973721,
              45.787467594
            ],
            [
              15.91592557,
              45.7874884
            ],
            [
              15.915679967,
              45.787588677
            ],
            [
              15.915429604,
              45.787690897
            ],
            [
              15.915208952,
              45.787773493
            ],
            [
              15.914996328,
              45.787853085
            ],
            [
              15.914956132,
              45.787867325
            ],
            [
              15.914752951,
              45.787937303
            ],
            [
              15.9145328,
              45.788009905
            ],
            [
              15.91433044,
              45.788073762
            ],
            [
              15.914044881,
              45.788158808
            ],
            [
              15.913825606,
              45.788220079
            ],
            [
              15.913810906,
              45.788224187
            ],
            [
              15.913583132,
              45.788284722
            ],
            [
              15.913543709,
              45.788294856
            ],
            [
              15.913344123,
              45.78834448
            ],
            [
              15.913242145,
              45.788368132
            ],
            [
              15.912976787,
              45.788429189
            ],
            [
              15.912820952,
              45.788462761
            ],
            [
              15.912756922,
              45.788476038
            ],
            [
              15.912521505,
              45.788522675
            ],
            [
              15.912192164,
              45.788582959
            ],
            [
              15.911997097,
              45.788615521
            ],
            [
              15.911851816,
              45.788638346
            ],
            [
              15.91178247,
              45.788648815
            ],
            [
              15.911771578,
              45.788650422
            ],
            [
              15.911507865,
              45.788687231
            ],
            [
              15.911172059,
              45.788729236
            ],
            [
              15.910759465,
              45.788771396
            ],
            [
              15.910549906,
              45.788788622
            ],
            [
              15.910428523,
              45.7887986
            ],
            [
              15.910079052,
              45.788822956
            ],
            [
              15.910047323,
              45.788825134
            ]
          ]
        ]
      }
    },
    {
      "type": "Feature",
      "properties": {
        "consensus:role": "structure-footprint"
      },
      "geometry": {
        "type": "MultiPolygon",
        "coordinates": [
          [
            [
              [
                15.915607614,
                45.78762555
              ],
              [
                15.915604884,
                45.787625491
              ],
              [
                15.915602158,
                45.787625593
              ],
              [
                15.915599454,
                45.787625858
              ],
              [
                15.915596791,
                45.787626282
              ],
              [
                15.91559419,
                45.787626863
              ],
              [
                15.915591668,
                45.787627596
              ],
              [
                15.915589244,
                45.787628475
              ],
              [
                15.915570646,
                45.787635945
              ],
              [
                15.91556828,
                45.787636993
              ],
              [
                15.915566054,
                45.787638181
              ],
              [
                15.915563984,
                45.787639501
              ],
              [
                15.915562087,
                45.787640941
              ],
              [
                15.915560374,
                45.787642492
              ],
              [
                15.915558863,
                45.78764414
              ],
              [
                15.915557561,
                45.787645874
              ],
              [
                15.91555648,
                45.787647682
              ],
              [
                15.915555628,
                45.787649547
              ],
              [
                15.915555011,
                45.787651458
              ],
              [
                15.915554635,
                45.7876534
              ],
              [
                15.915554501,
                45.787655356
              ],
              [
                15.91555461,
                45.787657314
              ],
              [
                15.915554963,
                45.787659256
              ],
              [
                15.915555557,
                45.787661171
              ],
              [
                15.915556386,
                45.787663042
              ],
              [
                15.915557445,
                45.787664856
              ],
              [
                15.915863832,
                45.788130678
              ],
              [
                15.915864852,
                45.788132066
              ],
              [
                15.91586604,
                45.788133387
              ],
              [
                15.915867388,
                45.788134632
              ],
              [
                15.915868884,
                45.78813579
              ],
              [
                15.915870519,
                45.788136853
              ],
              [
                15.915872278,
                45.788137813
              ],
              [
                15.91587415,
                45.788138663
              ],
              [
                15.91587612,
                45.788139396
              ],
              [
                15.915878174,
                45.788140006
              ],
              [
                15.915880297,
                45.78814049
              ],
              [
                15.915882471,
                45.788140844
              ],
              [
                15.915884679,
                45.788141064
              ],
              [
                15.915886907,
                45.788141149
              ],
              [
                15.915889138,
                45.788141099
              ],
              [
                15.915891353,
                45.788140914
              ],
              [
                15.915893538,
                45.788140595
              ],
              [
                15.915895675,
                45.788140145
              ],
              [
                15.915897748,
                45.788139567
              ],
              [
                15.916017789,
                45.788101803
              ],
              [
                15.916019755,
                45.788101113
              ],
              [
                15.91602163,
                45.788100307
              ],
              [
                15.916023399,
                45.788099392
              ],
              [
                15.916025049,
                45.788098375
              ],
              [
                15.916026571,
                45.788097263
              ],
              [
                15.916027949,
                45.788096065
              ],
              [
                15.916029178,
                45.788094788
              ],
              [
                15.916030246,
                45.788093442
              ],
              [
                15.916031144,
                45.788092037
              ],
              [
                15.916031869,
                45.788090584
              ],
              [
                15.916032413,
                45.788089093
              ],
              [
                15.916032772,
                45.788087574
              ],
              [
                15.916032945,
                45.78808604
              ],
              [
                15.916032931,
                45.788084501
              ],
              [
                15.916032728,
                45.788082969
              ],
              [
                15.91603234,
                45.788081454
              ],
              [
                15.916031766,
                45.788079969
              ],
              [
                15.916031015,
                45.788078522
              ],
              [
                15.916030089,
                45.788077126
              ],
              [
                15.916028996,
                45.78807579
              ],
              [
                15.915729757,
                45.78774391
              ],
              [
                15.915632445,
                45.787635983
              ],
              [
                15.915630892,
                45.787634412
              ],
              [
                15.915629153,
                45.787632938
              ],
              [
                15.915627242,
                45.787631574
              ],
              [
                15.915625173,
                45.787630327
              ],
              [
                15.91562296,
                45.787629208
              ],
              [
                15.915620619,
                45.787628225
              ],
              [
                15.915618167,
                45.787627384
              ],
              [
                15.915615621,
                45.787626692
              ],
              [
                15.915613002,
                45.787626153
              ],
              [
                15.915610326,
                45.787625771
              ],
              [
                15.915607614,
                45.78762555
              ]
            ]
          ]
        ]
      }
    }
  ]
}
