{"type":"FeatureCollection","features":[{"type":"Feature","geometry":{"type":"MultiPolygon","coordinates":[[[[-54.6499,-25.5164],[-54.6501,-25.5163],[-54.6502,-25.5164],[-54.6499,-25.5165],[-54.6499,-25.5164]]]]},"properties":{"id":"4350940"}},{"type":"Feature","geometry":{"type":"MultiPolygon","coordinates":[[[[-54.6458,-25.516],[-54.6459,-25.516],[-54.646,-25.5163],[-54.646,-25.5163],[-54.6459,-25.5163],[-54.6458,-25.516]]]]},"properties":{"id":"1749965"}},{"type":"Feature","geometry":{"type":"MultiPolygon","coordinates":[[[[-54.6483,-25.5147],[-54.6484,-25.515],[-54.6483,-25.5151],[-54.6482,-25.5148],[-54.6482,-25.5148],[-54.6483,-25.5147]]]]},"properties":{"id":"1743171"}}]}
