{
  "type": "FeatureCollection",
  "features": [
    {
      "type": "Feature",
      "geometry": {
        "type": "Polygon",
        "coordinates": [
          [
            [
              -117.16393003454213,
              33.179359045759938
            ],
            [
              -117.16442547660215,
              33.179359058331784
            ],
            [
              -117.16499242819684,
              33.179359071442569
            ],
            [
              -117.1652258745557,
              33.179359075270654
            ],
            [
              -117.16556188042716,
              33.179359081530123
            ],
            [
              -117.16611427249198,
              33.179328337319923
            ],
            [
              -117.16611715856325,
              33.17932817713006
            ],
            [
              -117.16611659761739,
              33.179243293875103
            ],
            [
              -117.1661152186329,
              33.179034759636238
            ],
            [
              -117.16610501321426,
              33.17749133308029
            ],
            [
              -117.16502259334705,
              33.177497361268124
            ],
            [
              -117.16448138279802,
              33.177500369568257
            ],
            [
              -117.16394017119607,
              33.177503380923874
            ],
            [
              -117.16393003454213,
              33.179359045759938
            ]
          ]
        ]
      },
      "properties": {
        "id": "P-663555"
      }
    },
    {
      "type": "Feature",
      "geometry": {
        "type": "Polygon",
        "coordinates": [
          [
            [
              -117.16177534042498,
              33.177515395390721
            ],
            [
              -117.16213153767232,
              33.177513420185953
            ],
            [
              -117.16394017119607,
              33.177503380923874
            ],
            [
              -117.16393363715468,
              33.17658098877223
            ],
            [
              -117.16392710107827,
              33.175658593834768
            ],
            [
              -117.16176133150171,
              33.175662667519028
            ],
            [
              -117.16177534042498,
              33.177515395390721
            ]
          ]
        ]
      },
      "properties": {
        "id": "P-663562"
      }
    },
    {
      "type": "Feature",
      "geometry": {
        "type": "Polygon",
        "coordinates": [
          [
            [
              -117.16394017119607,
              33.177503380923874
            ],
            [
              -117.16448138279802,
              33.177500369568257
            ],
            [
              -117.16447496278161,
              33.176578969360172
            ],
            [
              -117.16393363715468,
              33.17658098877223
            ],
            [
              -117.16394017119607,
              33.177503380923874
            ]
          ]
        ]
      },
      "properties": {
        "id": "P-663563"
      }
    }
  ]
}
