{"type":"FeatureCollection","crs":{"type":"name","properties":{"name":"EPSG:4326"}},"features":[{"type":"Feature","id":44487,"geometry":{"type":"Polygon","coordinates":[[[35.097170151657899,31.538507175871274],[35.097146326698812,31.538489104898392],[35.09714051615768,31.538494589699788],[35.096993204308951,31.538400512460306],[35.097208803780958,31.538196565290672],[35.097244275213654,31.538163010327462],[35.097288972789215,31.538198769165398],[35.097283112571141,31.538213636995369],[35.097370975452044,31.538301013641387],[35.097366979513509,31.538305380754199],[35.097399657539661,31.538335128418758],[35.097380183514602,31.538356769606079],[35.097376629563776,31.538355856636723],[35.097360075756349,31.538377320798702],[35.09732584465187,31.538354822861386],[35.097170151657899,31.538507175871274]]]},"properties":{"id":"44487"}},{"type":"Feature","id":44488,"geometry":{"type":"Polygon","coordinates":[[[35.102763910754739,31.538560260251721],[35.102669173455773,31.53859227148007],[35.102684466905352,31.538697468867699],[35.102693164953365,31.538736146219442],[35.102641587650119,31.538716952950868],[35.102614586826853,31.538706525620235],[35.102581421987004,31.538688010797276],[35.102550443394129,31.538668648352726],[35.102522215020009,31.538645459209352],[35.102497206583898,31.538618829233776],[35.102475834225395,31.538589201547946],[35.102458453579864,31.538557069155619],[35.102632847670193,31.538503876297234],[35.102684071024818,31.538482404834706],[35.10273672566165,31.538474269554285],[35.102767533194935,31.538468134329818],[35.102773300083626,31.538482172936838],[35.102797120758716,31.538519727778525],[35.102855925796732,31.538498294754138],[35.102869309381269,31.538523814824952],[35.102817643481586,31.538541679427741],[35.102763910754739,31.538560260251721]]]},"properties":{"id":"44488"}},{"type":"Feature","id":44496,"geometry":{"type":"Polygon","coordinates":[[[35.083258052025151,31.534432571019284],[35.083110269155668,31.534227615711703],[35.083217323767578,31.534171621037114],[35.083259356597502,31.534156780073001],[35.083281152292621,31.534157432072004],[35.083318434136331,31.534152326787154],[35.083365025269323,31.534113861089647],[35.083493852432959,31.534320782264707],[35.083409991220321,31.534355154255856],[35.083258052025151,31.534432571019284]]]},"properties":{"id":"44496"}}]}
