{"type":"FeatureCollection","features":[{"type":"Feature","id":1,"properties":{"id":"fid:1"},"geometry":{"type":"Polygon","coordinates":[[[107.614113377923,16.449010739276222],[107.61411033353258,16.449017536037317],[107.61410618062102,16.449023760729496],[107.61410102968117,16.44902924793538],[107.61409501905362,16.449033849468815],[107.61408831043498,16.449037442128237],[107.61408108348861,16.449039929420287],[107.61407353314858,16.449041244144116],[107.61406586243444,16.449041351837636],[107.61405827526352,16.44904024819339],[107.6140509773502,16.44903796422705],[107.61404416362872,16.44903456110836],[107.61403801735551,16.44903012930012],[107.61403270382064,16.44902478855747],[107.6140283658561,16.449018681897595],[107.6139894580245,16.44895295085948],[107.61396085117437,16.448906208353208],[107.61395641170019,16.44889806498624],[107.61395307984884,16.44888944345884],[107.61395090951909,16.448880482480483],[107.61413766567344,16.44894140437424],[107.614113377923,16.449010739276222]]]}},{"type":"Feature","id":2,"properties":{"id":"fid:2"},"geometry":{"type":"Polygon","coordinates":[[[107.6141556580302,16.448890038789607],[107.61413766567344,16.44894140437424],[107.61395090951909,16.448880482480483],[107.61394988094806,16.448868684418418],[107.61395086190842,16.448856882047835],[107.6139538263488,16.448845393280656],[107.61396049005164,16.448826372843293],[107.6141556580302,16.448890038789607]]]}},{"type":"Feature","id":3,"properties":{"id":"fid:3"},"geometry":{"type":"Polygon","coordinates":[[[107.61417365038707,16.44883867146843],[107.6141556580302,16.448890038789607],[107.61396049005164,16.448826372843293],[107.61397848240844,16.448775007228214],[107.61417365038707,16.44883867146843]]]}}],"crs":{"type":"name","properties":{"name":"EPSG:4326"}}}
