{
  "type": "FeatureCollection",
  "features": [
    {
      "type": "Feature",
      "geometry": {
        "type": "Polygon",
        "coordinates": [
          [
            [
              74.226929448901885,
              31.980962285288715
            ],
            [
              74.226840924422206,
              31.981506744406133
            ],
            [
              74.226734655520744,
              31.982051208674591
            ],
            [
              74.226646129244415,
              31.982595668188385
            ],
            [
              74.226557601171493,
              31.983140127519246
            ],
            [
              74.226486720502308,
              31.983412363592706
            ],
            [
              74.226415840731462,
              31.983684600382272
            ],
            [
              74.226345053487051,
              31.984229054775259
            ],
            [
              74.226256522719169,
              31.984773513556863
            ],
            [
              74.22616799015465,
              31.985317972155176
            ],
            [
              74.22609188218884,
              31.985721114170726
            ],
            [
              74.225932185087544,
              31.985721154553122
            ],
            [
              74.225919757793889,
              31.985862470190629
            ],
            [
              74.225897426574249,
              31.986030888247903
            ],
            [
              74.225847027493558,
              31.986045492170625
            ],
            [
              74.225777871589713,
              31.986059107867352
            ],
            [
              74.225509596916638,
              31.986138296018463
            ],
            [
              74.2254585914731,
              31.986407020615147
            ],
            [
              74.225316819354987,
              31.986951491615091
            ],
            [
              74.225175045440196,
              31.98749596166941
            ],
            [
              74.225068703775207,
              31.987874068247702
            ],
            [
              74.225033269728783,
              31.988040432301762
            ],
            [
              74.224909236642588,
              31.988584898178789
            ],
            [
              74.224767457337919,
              31.989129368443251
            ],
            [
              74.224643421556763,
              31.989673833952263
            ],
            [
              74.224519383978929,
              31.990218299277146
            ],
            [
              74.224359854862584,
              31.990762772798675
            ],
            [
              74.224235813691521,
              31.99130723775502
            ],
            [
              74.224147262262406,
              31.991851694146337
            ],
            [
              74.224005473076275,
              31.992396163305187
            ],
            [
              74.223863682093508,
              31.99294063151757
            ],
            [
              74.22372188931412,
              31.993485099545289
            ],
            [
              74.223650992475257,
              31.993757333870828
            ],
            [
              74.223562349417975,
              31.994029571959516
            ],
            [
              74.223456044583855,
              31.994574031237182
            ],
            [
              74.223314247312899,
              31.995118499472273
            ],
            [
              74.223190193565415,
              31.995662962189407
            ],
            [
              74.223048392701202,
              31.996207430054472
            ],
            [
              74.222942045646278,
              31.99663090274111
            ],
            [
              74.222906590040338,
              31.996751896972508
            ],
            [
              74.222764785582854,
              31.997296362943413
            ],
            [
              74.22264072554718,
              31.997840825681742
            ],
            [
              74.222498917496409,
              31.998385292043753
            ],
            [
              74.222374854765803,
              31.99892975441114
            ],
            [
              74.222287644521373,
              31.999377322315159
            ],
            [
              74.222233011680743,
              31.999368357981812
            ],
            [
              74.221523126112317,
              31.99932314015561
            ],
            [
              74.221647239148595,
              31.998929910584991
            ],
            [
              74.221789052589216,
              31.998385445171166
            ],
            [
              74.221913118913108,
              31.997840984142854
            ],
            [
              74.222054928760514,
              31.997296518358191
            ],
            [
              74.22217899149112,
              31.996752056197348
            ],
            [
              74.222232180739084,
              31.99658568965976
            ],
            [
              74.222338544862012,
              31.996207586232888
            ],
            [
              74.222409447989051,
              31.99593535308583
            ],
            [
              74.222480350217793,
              31.99566311989248
            ],
            [
              74.222604407558563,
              31.995118657176274
            ],
            [
              74.222746209321073,
              31.994574190465816
            ],
            [
              74.222870263966882,
              31.994029727379761
            ],
            [
              74.22294118236529,
              31.993817986799034
            ],
            [
              74.22302980835461,
              31.993485256490281
            ],
            [
              74.223082961669974,
              31.993213026690224
            ],
            [
              74.223171604727256,
              31.992940789225337
            ],
            [
              74.223295654881468,
              31.992396325585116
            ],
            [
              74.223437447660842,
              31.991851857951008
            ],
            [
              74.223561494221812,
              31.991307393941796
            ],
            [
              74.223650134584176,
              31.991035155392034
            ],
            [
              74.223721029626361,
              31.990762921367434
            ],
            [
              74.223845072594074,
              31.990218456989595
            ],
            [
              74.22396911376515,
              31.989673992427548
            ],
            [
              74.224093154037902,
              31.989129527681399
            ],
            [
              74.224199447193882,
              31.988585066560713
            ],
            [
              74.22435897361531,
              31.988040593065595
            ],
            [
              74.224483009396465,
              31.987496127767592
            ],
            [
              74.224607042482674,
              31.98695166152395
            ],
            [
              74.224748819092412,
              31.986407192048837
            ],
            [
              74.224872849483688,
              31.985862725437851
            ],
            [
              74.224943710389937,
              31.985512533964453
            ],
            [
              74.224979134554829,
              31.985318263976872
            ],
            [
              74.225067739882874,
              31.984970408055386
            ],
            [
              74.225103162251159,
              31.984773797760859
            ],
            [
              74.225209444627382,
              31.984229335171268
            ],
            [
              74.225333469628779,
              31.983684868588703
            ],
            [
              74.225439748411716,
              31.983140405632685
            ],
            [
              74.225546026296357,
              31.982595943255628
            ],
            [
              74.225670046806158,
              31.982051476123821
            ],
            [
              74.225776321995852,
              31.981507012618938
            ],
            [
              74.225900339810707,
              31.980962545121368
            ],
            [
              74.226006612305454,
              31.980418082012925
            ],
            [
              74.226485677558273,
              31.980417961620546
            ],
            [
              74.227017972483239,
              31.980417825226631
            ],
            [
              74.226929448901885,
              31.980962285288715
            ]
          ]
        ]
      },
      "properties": {
        "id": "5253636"
      }
    },
    {
      "type": "Feature",
      "geometry": {
        "type": "Polygon",
        "coordinates": [
          [
            [
              74.225900339810707,
              31.980962545121368
            ],
            [
              74.225776321995852,
              31.981507012618938
            ],
            [
              74.225670046806158,
              31.982051476123821
            ],
            [
              74.225546026296357,
              31.982595943255628
            ],
            [
              74.225439748411716,
              31.983140405632685
            ],
            [
              74.225333469628779,
              31.983684868588703
            ],
            [
              74.225209444627382,
              31.984229335171268
            ],
            [
              74.225103162251159,
              31.984773797760859
            ],
            [
              74.225067739882874,
              31.984970408055386
            ],
            [
              74.224979134554829,
              31.985318263976872
            ],
            [
              74.224358002536491,
              31.985046193565733
            ],
            [
              74.223754618533178,
              31.984774116252204
            ],
            [
              74.223648140324215,
              31.984728770843812
            ],
            [
              74.222938282603565,
              31.984411344737797
            ],
            [
              74.222530116884556,
              31.984229956918806
            ],
            [
              74.222228430272807,
              31.98409391448584
            ],
            [
              74.221518586925185,
              31.983791603256822
            ],
            [
              74.221287886085477,
              31.983685789786328
            ],
            [
              74.221180361339222,
              31.983642731977213
            ],
            [
              74.221287727981988,
              31.983141353504248
            ],
            [
              74.221394030121147,
              31.98259689494256
            ],
            [
              74.221482587838466,
              31.982052439245891
            ],
            [
              74.221518025478133,
              31.981886076524777
            ],
            [
              74.221588888180989,
              31.981507980318476
            ],
            [
              74.221695186726876,
              31.980963521208384
            ],
            [
              74.221801484374438,
              31.980419061153643
            ],
            [
              74.222227319955095,
              31.980418968954424
            ],
            [
              74.222937045623439,
              31.980418810463163
            ],
            [
              74.223646772190037,
              31.980418648923973
            ],
            [
              74.224356498756677,
              31.980418482812979
            ],
            [
              74.225066224425007,
              31.980418312892024
            ],
            [
              74.225775950991647,
              31.98041813916122
            ],
            [
              74.226006612305454,
              31.980418082012925
            ],
            [
              74.225900339810707,
              31.980962545121368
            ]
          ]
        ]
      },
      "properties": {
        "id": "5254864"
      }
    },
    {
      "type": "Feature",
      "geometry": {
        "type": "Polygon",
        "coordinates": [
          [
            [
              74.219388490045375,
              31.98069177924879
            ],
            [
              74.219776162497794,
              31.980730681109314
            ],
            [
              74.219903117803653,
              31.980963894575023
            ],
            [
              74.22009838280033,
              31.981281443093462
            ],
            [
              74.22024039297203,
              31.981508262246699
            ],
            [
              74.220559928210179,
              31.982052633546612
            ],
            [
              74.220435877157641,
              31.982597095337798
            ],
            [
              74.220098750211278,
              31.982597163914143
            ],
            [
              74.219389007474973,
              31.982597305638553
            ],
            [
              74.218679264738654,
              31.982597443553104
            ],
            [
              74.218341995858509,
              31.98205307167569
            ],
            [
              74.21851928736298,
              31.981508602084528
            ],
            [
              74.21867883444564,
              31.980964135358381
            ],
            [
              74.218944906449636,
              31.980676742434053
            ],
            [
              74.219388490045375,
              31.98069177924879
            ]
          ]
        ]
      },
      "properties": {
        "id": "5255146"
      }
    }
  ]
}
