{
  "type": "FeatureCollection",
  "features": [
    {
      "type": "Feature",
      "properties": {"id": "060088   MT0022"},
      "geometry": {
        "type": "Polygon",
        "coordinates": [[[7.2336258692238236,43.698930896220809],[7.2333652575248593,43.698843091740045],[7.2332825892178452,43.698815221777771],[7.2331496440766525,43.698769214238325],[7.2328932524281786,43.698672954108808],[7.2328090736997162,43.698641448025683],[7.2327047362078396,43.698602706687041],[7.2325621564474645,43.698537248943531],[7.2326008831171693,43.69850501328942],[7.2326745992336905,43.698443751222051],[7.2327124081172522,43.698412542483027],[7.2329542124258053,43.698187311300643],[7.2332964173362821,43.697772990808303],[7.2336049286467512,43.697939219744192],[7.23389196648092,43.698093848637129],[7.2341764159870001,43.698247045743265],[7.234173335640441,43.698249058048674],[7.234170131450016,43.698251075176742],[7.2341670577503008,43.69825317733499],[7.2341638668537014,43.698255374168895],[7.2341607931535217,43.698257476326958],[7.2341577194530267,43.698259578484929],[7.2341549000871872,43.698261760850336],[7.2341518396805764,43.698264042714172],[7.2341489031175863,43.698266319755184],[7.2341460903982364,43.698268591973338],[7.2341431538347853,43.698270869014223],[7.2341404649586796,43.698273136409512],[7.2341377827295954,43.698275493657761],[7.2341349833035418,43.698277945581715],[7.2341321772301121,43.698280307652567],[7.2341295016474838,43.698282754753642],[7.2341270671051303,43.698285102356209],[7.2341245153658829,43.698287544634418],[7.2341219702735389,43.698290076765616],[7.2340013480252896,43.698419038218724],[7.2339835738705238,43.698497767232872],[7.233982424284747,43.698500695578147],[7.2339810203632364,43.698503543715539],[7.2339794992442013,43.69850648652848],[7.233977840986852,43.698509254457846],[7.2339763132205848,43.698512107417741],[7.2339745311185952,43.698514880169618],[7.2339726251720098,43.698517657744055],[7.2339707125783317,43.698520345465447],[7.2339686761401287,43.698523038009341],[7.2339665092104779,43.698525645522679],[7.2339642184361841,43.698528257858527],[7.2339619210148767,43.698530780341308],[7.2339594931020148,43.698533217793553],[7.2339569546383515,43.69853583977433],[7.2338313627731328,43.698636248856516],[7.2336258692238236,43.698930896220809]]]
      }
    }
  ]
}
