{
  "type": "FeatureCollection",
  "features": [
    {
      "type": "Feature",
      "id": "P00005",
      "properties": {"id": "P00005"},
      "geometry": {
        "type": "Polygon",
        "coordinates": [[[-97.201384241462009,32.869929058585811],[-97.201382942209477,32.870182848956716],[-97.201426318823124,32.870177594401298],[-97.201426446190908,32.870177581299984],[-97.201522382755513,32.870171305740833],[-97.201522578404223,32.870171300566696],[-97.201571457169848,32.870170902232736],[-97.201572378728017,32.870170879377802],[-97.201574585304797,32.869930550845318],[-97.201544830698111,32.86993053809605],[-97.201384241462009,32.869929058585811]]]
      }
    }
  ]
}
