{
  "type": "FeatureCollection",
  "features": [
    {"type":"Feature","properties":{"id":"4188368"},"geometry":{"type":"Polygon","coordinates":[[[74.193617176508482,31.263357137799943],[74.194143539857649,31.263537855472425],[74.194253394833723,31.263575572484516],[74.194253401121955,31.263595153166499],[74.194253550242252,31.26407056703794],[74.19409348123844,31.264070604663381],[74.193613273328566,31.264070715236063],[74.193613120614998,31.263575719147703],[74.193613053241336,31.263355880793906],[74.193613053241336,31.263355721844452],[74.193617176508482,31.263357137799943]]]}},
    {"type":"Feature","properties":{"id":"4188369"},"geometry":{"type":"Polygon","coordinates":[[[74.193613273328566,31.264070715236063],[74.19297299551657,31.264070858059153],[74.192972846396202,31.263575862739351],[74.193613120614998,31.263575719147703],[74.193613273328566,31.264070715236063]]]}},
    {"type":"Feature","properties":{"id":"4188370"},"geometry":{"type":"Polygon","coordinates":[[[74.19297299551657,31.264070858059153],[74.192332717704531,31.264070997810752],[74.192332597330292,31.263660866673259],[74.192332592838696,31.263644752935352],[74.192508443445476,31.263590761718991],[74.192556668603203,31.263575954883763],[74.192972846396202,31.263575862739351],[74.19297299551657,31.264070858059153]]]}}
  ]
}
