{
  "type": "FeatureCollection",
  "name": "wiesbaden-parcel-samples",
  "crs": {"type": "name", "properties": {"name": "urn:ogc:def:crs:OGC:1.3:CRS84"}},
  "features": [
    {"type": "Feature", "properties": {"id": "DEHE062000013CfcFL"}, "geometry": {"type": "Polygon", "coordinates": [[[8.243675374813822,50.03358632275269],[8.243761287922972,50.03355542112491],[8.244631175667221,50.03322967930998],[8.244663438677657,50.03321760330664],[8.245095070365112,50.033740407812964],[8.244287758614103,50.0340155818171],[8.244055280581001,50.03408140685395],[8.243675374813822,50.03358632275269]]]}},
    {"type": "Feature", "properties": {"id": "DEHE062000013CfdFL"}, "geometry": {"type": "Polygon", "coordinates": [[[8.244663438677657,50.03321760330664],[8.245743045171782,50.03281847664671],[8.246372888494179,50.032577046456495],[8.24684311262433,50.03314453512825],[8.245095070365112,50.033740407812964],[8.244663438677657,50.03321760330664]]]}}
  ]
}
