{
  "type": "FeatureCollection",
  "name": "Savica F1–F3 – izmjena lokacijske dozvole 2023.",
  "bbox": [
    15.99725855,
    45.7941712,
    15.99893836,
    45.79502036
  ],
  "edozvola": {
    "schema": "consensus-builder.edozvola-source.v1",
    "archivedAt": "2026-08-13",
    "source": "https://oss.uredjenazemlja.hr/OssWebServices/external/eDozvole",
    "sourceService": "public national eDozvola WFS 2.0.0",
    "sourceCrs": "EPSG:3765",
    "outputCrs": "EPSG:4326",
    "geometryOnly": true,
    "caveat": "Public WFS geometry and case metadata are evidence, not a substitute for the signed permit and main project.",
    "note": "Kasnija prihvaćena lokacijska izmjena sadrži tri nadzemna volumena i trafostanicu, ali bez oznaka volumena u javnom WFS-u.",
    "layerFeatureCounts": {
      "eDozvola_area_polygon": 1,
      "eDozvola_building_line": 0,
      "eDozvola_building_point": 0,
      "eDozvola_building_polygon": 4
    },
    "caseId": "P20230927-1364307-Z06",
    "caseClass": "UP/I-350-05/23-01/000294",
    "caseType": "Lokacijska dozvola - izmjena i/ili dopuna",
    "caseStatus": "Arhiva",
    "requestReceivedAt": "2023-09-27",
    "requestCompleteAt": "2023-10-03",
    "decisionName": "Rješenje o izmjeni i dopuni lokacijske dozvole",
    "decisionNumber": "251-10-21-1/040-23-0006",
    "decisionAt": "2023-10-23",
    "finalAt": "2023-11-16"
  },
  "features": [
    {
      "type": "Feature",
      "properties": {
        "predmet_web_id": "P20230927-1364307-Z06",
        "predmet_group_id": "V02",
        "predmet_group": "Lokacijska dozvola",
        "predmet_vrsta_id": "Z06",
        "predmet_vrsta": "Lokacijska dozvola - izmjena i/ili dopuna",
        "predmet_status_id": "ARHIVA",
        "predmet_status": "Arhiva",
        "predmet_klasa": "UP/I-350-05/23-01/000294",
        "predmet_dat_promjene": null,
        "predmet_url": null,
        "zahtjev_dat_zaprimanja": "2023-09-27",
        "zahtjev_dat_urednosti": "2023-10-03",
        "zavrsni_akt_naziv": "Rješenje o izmjeni i dopuni lokacijske dozvole",
        "zavrsni_akt_urbroj_rjesenja": "251-10-21-1/040-23-0006",
        "zavrsni_akt_dat_rjesavanja": "2023-10-23",
        "zavrsni_akt_nacin_rjesavanja_id": "NR-01-01",
        "zavrsni_akt_nacin_rjesavanja": "zahtjev usvojen",
        "zavrsni_akt_dat_izvrsnosti": null,
        "zavrsni_akt_dat_pravomocnosti": "2023-11-16",
        "nadlezno_tijelo_id": "UJ-2101015",
        "nadlezno_tijelo": "Grad Zagreb, Gradski ured za obnovu, izgradnju, prostorno uređenje, graditeljstvo i komunalne poslove, Sektor za prostorno uređenje i graditeljstvo, Grad Zagreb, Odjel za prostorno uređenje, Središnji odsjek za prostorno uređenje",
        "lokacija": "[{\"lokacija\": {\"lokacija_kat_cestica\": \"2716/8\", \"lokacija_kat_opcina\": \"Trnje\", \"lokacija_mjesto\": \"Zagreb\", \"lokacija_ulica_kucni\": null, \"lokacija_zupanija_id\": \"ZUP-21\", \"lokacija_zupanija\": \"Grad Zagreb\", \"lokacija_samouprava_id\": \"1333\", \"lokacija_samouprava\": \"Grad Zagreb\", \"lokacija_mjesto_id\": null, \"lokacija_kat_opcina_id\": \"335649\"}}]",
        "troskovi_gradjenja_id": null,
        "troskovi_gradjenja": null,
        "edozvola:sourceLayer": "eDozvola_area_polygon",
        "edozvola:sourceFeatureId": "eDozvola_area_polygon.112268",
        "edozvola:geometryAreaM2": 6666.47
      },
      "geometry": {
        "type": "Polygon",
        "coordinates": [
          [
            [
              15.99740592,
              45.79501836
            ],
            [
              15.99757204,
              45.79496987
            ],
            [
              15.99787744,
              45.79488043
            ],
            [
              15.99806742,
              45.79482457
            ],
            [
              15.9982997,
              45.7947564
            ],
            [
              15.9985517,
              45.79468282
            ],
            [
              15.99877224,
              45.79461792
            ],
            [
              15.99892869,
              45.79457164
            ],
            [
              15.99893836,
              45.79456871
            ],
            [
              15.99891846,
              45.79453578
            ],
            [
              15.9989158,
              45.79453145
            ],
            [
              15.99873963,
              45.79423816
            ],
            [
              15.99873735,
              45.79423428
            ],
            [
              15.99872366,
              45.79421235
            ],
            [
              15.99869573,
              45.7941712
            ],
            [
              15.99855012,
              45.79421438
            ],
            [
              15.99855036,
              45.79421564
            ],
            [
              15.99848033,
              45.79423585
            ],
            [
              15.99840966,
              45.79425605
            ],
            [
              15.9983118,
              45.79428208
            ],
            [
              15.99824051,
              45.79429922
            ],
            [
              15.99808533,
              45.79433363
            ],
            [
              15.99797129,
              45.79435671
            ],
            [
              15.99774338,
              45.79439646
            ],
            [
              15.99759951,
              45.7944177
            ],
            [
              15.99742913,
              45.79444007
            ],
            [
              15.9973887,
              45.79444484
            ],
            [
              15.99736384,
              45.79444869
            ],
            [
              15.99734477,
              45.79445248
            ],
            [
              15.99732722,
              45.79445789
            ],
            [
              15.99731404,
              45.79446539
            ],
            [
              15.99730339,
              45.79447659
            ],
            [
              15.99729763,
              45.79448718
            ],
            [
              15.99729483,
              45.79449806
            ],
            [
              15.99728041,
              45.79464304
            ],
            [
              15.99725855,
              45.79487132
            ],
            [
              15.99725907,
              45.79488427
            ],
            [
              15.99726284,
              45.79489509
            ],
            [
              15.99727179,
              45.7949008
            ],
            [
              15.99727758,
              45.79490064
            ],
            [
              15.99728808,
              45.79492039
            ],
            [
              15.99732058,
              45.79498181
            ],
            [
              15.99732501,
              45.7949902
            ],
            [
              15.99733111,
              45.79499869
            ],
            [
              15.99733851,
              45.79500574
            ],
            [
              15.99734554,
              45.79501054
            ],
            [
              15.99735617,
              45.79501544
            ],
            [
              15.99736669,
              45.79501828
            ],
            [
              15.99737735,
              45.79501994
            ],
            [
              15.99738983,
              45.79502036
            ],
            [
              15.99740592,
              45.79501836
            ]
          ]
        ]
      }
    },
    {
      "type": "Feature",
      "properties": {
        "predmet_web_id": "P20230927-1364307-Z06",
        "predmet_group_id": "V02",
        "predmet_group": "Lokacijska dozvola",
        "predmet_vrsta_id": "Z06",
        "predmet_vrsta": "Lokacijska dozvola - izmjena i/ili dopuna",
        "predmet_status_id": "ARHIVA",
        "predmet_status": "Arhiva",
        "predmet_klasa": "UP/I-350-05/23-01/000294",
        "predmet_dat_promjene": null,
        "predmet_url": null,
        "zahtjev_dat_zaprimanja": "2023-09-27",
        "zahtjev_dat_urednosti": "2023-10-03",
        "zavrsni_akt_naziv": "Rješenje o izmjeni i dopuni lokacijske dozvole",
        "zavrsni_akt_urbroj_rjesenja": "251-10-21-1/040-23-0006",
        "zavrsni_akt_dat_rjesavanja": "2023-10-23",
        "zavrsni_akt_nacin_rjesavanja_id": "NR-01-01",
        "zavrsni_akt_nacin_rjesavanja": "zahtjev usvojen",
        "zavrsni_akt_dat_izvrsnosti": null,
        "zavrsni_akt_dat_pravomocnosti": "2023-11-16",
        "zavrsni_akt_url": null,
        "nadlezno_tijelo_id": "UJ-2101015",
        "nadlezno_tijelo": "Grad Zagreb, Gradski ured za obnovu, izgradnju, prostorno uređenje, graditeljstvo i komunalne poslove, Sektor za prostorno uređenje i graditeljstvo, Grad Zagreb, Odjel za prostorno uređenje, Središnji odsjek za prostorno uređenje",
        "lokacija": "[{\"lokacija\": {\"lokacija_kat_cestica\": \"2716/8\", \"lokacija_kat_opcina\": \"Trnje\", \"lokacija_mjesto\": \"Zagreb\", \"lokacija_ulica_kucni\": null, \"lokacija_zupanija_id\": \"ZUP-21\", \"lokacija_zupanija\": \"Grad Zagreb\", \"lokacija_samouprava_id\": \"1333\", \"lokacija_samouprava\": \"Grad Zagreb\", \"lokacija_mjesto_id\": null, \"lokacija_kat_opcina_id\": \"335649\"}}]",
        "gradjevina_zahvat_id": "VZ-01",
        "gradjevina_zahvat": "građenje zgrade",
        "gradjevina_zahvat_dodatno": null,
        "gradjevina_namjena_id": "mn",
        "gradjevina_namjena": "mješovite namjene",
        "gradjevina_namjena_dodatno": null,
        "gradjevina_skupina_id": "SK-02b",
        "gradjevina_skupina": "2.b skupine",
        "gradjevina_ibz": null,
        "gradjevina_gbp": null,
        "gradjevina_volumen": null,
        "gradjevina_etaze": null,
        "gradjevina_br_jedinica_id": null,
        "gradjevina_br_jedinica": null,
        "gradjevina_nkvg_id": null,
        "gradjevina_nkvg": null,
        "troskovi_gradjenja_id": null,
        "troskovi_gradjenja": null,
        "edozvola:sourceLayer": "eDozvola_building_polygon",
        "edozvola:sourceFeatureId": "eDozvola_building_polygon.229509",
        "edozvola:geometryAreaM2": 16.62
      },
      "geometry": {
        "type": "Polygon",
        "coordinates": [
          [
            [
              15.99885079,
              45.79450867
            ],
            [
              15.9988121,
              45.79452002
            ],
            [
              15.99883732,
              45.79456233
            ],
            [
              15.99887601,
              45.79455107
            ],
            [
              15.99885079,
              45.79450867
            ]
          ]
        ]
      }
    },
    {
      "type": "Feature",
      "properties": {
        "predmet_web_id": "P20230927-1364307-Z06",
        "predmet_group_id": "V02",
        "predmet_group": "Lokacijska dozvola",
        "predmet_vrsta_id": "Z06",
        "predmet_vrsta": "Lokacijska dozvola - izmjena i/ili dopuna",
        "predmet_status_id": "ARHIVA",
        "predmet_status": "Arhiva",
        "predmet_klasa": "UP/I-350-05/23-01/000294",
        "predmet_dat_promjene": null,
        "predmet_url": null,
        "zahtjev_dat_zaprimanja": "2023-09-27",
        "zahtjev_dat_urednosti": "2023-10-03",
        "zavrsni_akt_naziv": "Rješenje o izmjeni i dopuni lokacijske dozvole",
        "zavrsni_akt_urbroj_rjesenja": "251-10-21-1/040-23-0006",
        "zavrsni_akt_dat_rjesavanja": "2023-10-23",
        "zavrsni_akt_nacin_rjesavanja_id": "NR-01-01",
        "zavrsni_akt_nacin_rjesavanja": "zahtjev usvojen",
        "zavrsni_akt_dat_izvrsnosti": null,
        "zavrsni_akt_dat_pravomocnosti": "2023-11-16",
        "zavrsni_akt_url": null,
        "nadlezno_tijelo_id": "UJ-2101015",
        "nadlezno_tijelo": "Grad Zagreb, Gradski ured za obnovu, izgradnju, prostorno uređenje, graditeljstvo i komunalne poslove, Sektor za prostorno uređenje i graditeljstvo, Grad Zagreb, Odjel za prostorno uređenje, Središnji odsjek za prostorno uređenje",
        "lokacija": "[{\"lokacija\": {\"lokacija_kat_cestica\": \"2716/8\", \"lokacija_kat_opcina\": \"Trnje\", \"lokacija_mjesto\": \"Zagreb\", \"lokacija_ulica_kucni\": null, \"lokacija_zupanija_id\": \"ZUP-21\", \"lokacija_zupanija\": \"Grad Zagreb\", \"lokacija_samouprava_id\": \"1333\", \"lokacija_samouprava\": \"Grad Zagreb\", \"lokacija_mjesto_id\": null, \"lokacija_kat_opcina_id\": \"335649\"}}]",
        "gradjevina_zahvat_id": "VZ-01",
        "gradjevina_zahvat": "građenje zgrade",
        "gradjevina_zahvat_dodatno": null,
        "gradjevina_namjena_id": "mn",
        "gradjevina_namjena": "mješovite namjene",
        "gradjevina_namjena_dodatno": null,
        "gradjevina_skupina_id": "SK-02b",
        "gradjevina_skupina": "2.b skupine",
        "gradjevina_ibz": null,
        "gradjevina_gbp": null,
        "gradjevina_volumen": null,
        "gradjevina_etaze": null,
        "gradjevina_br_jedinica_id": null,
        "gradjevina_br_jedinica": null,
        "gradjevina_nkvg_id": null,
        "gradjevina_nkvg": null,
        "troskovi_gradjenja_id": null,
        "troskovi_gradjenja": null,
        "edozvola:sourceLayer": "eDozvola_building_polygon",
        "edozvola:sourceFeatureId": "eDozvola_building_polygon.229510",
        "edozvola:geometryAreaM2": 692.64
      },
      "geometry": {
        "type": "Polygon",
        "coordinates": [
          [
            [
              15.99854943,
              45.79467813
            ],
            [
              15.99876004,
              45.79461661
            ],
            [
              15.99856665,
              45.79429246
            ],
            [
              15.99835605,
              45.7943539
            ],
            [
              15.99854943,
              45.79467813
            ]
          ]
        ]
      }
    },
    {
      "type": "Feature",
      "properties": {
        "predmet_web_id": "P20230927-1364307-Z06",
        "predmet_group_id": "V02",
        "predmet_group": "Lokacijska dozvola",
        "predmet_vrsta_id": "Z06",
        "predmet_vrsta": "Lokacijska dozvola - izmjena i/ili dopuna",
        "predmet_status_id": "ARHIVA",
        "predmet_status": "Arhiva",
        "predmet_klasa": "UP/I-350-05/23-01/000294",
        "predmet_dat_promjene": null,
        "predmet_url": null,
        "zahtjev_dat_zaprimanja": "2023-09-27",
        "zahtjev_dat_urednosti": "2023-10-03",
        "zavrsni_akt_naziv": "Rješenje o izmjeni i dopuni lokacijske dozvole",
        "zavrsni_akt_urbroj_rjesenja": "251-10-21-1/040-23-0006",
        "zavrsni_akt_dat_rjesavanja": "2023-10-23",
        "zavrsni_akt_nacin_rjesavanja_id": "NR-01-01",
        "zavrsni_akt_nacin_rjesavanja": "zahtjev usvojen",
        "zavrsni_akt_dat_izvrsnosti": null,
        "zavrsni_akt_dat_pravomocnosti": "2023-11-16",
        "zavrsni_akt_url": null,
        "nadlezno_tijelo_id": "UJ-2101015",
        "nadlezno_tijelo": "Grad Zagreb, Gradski ured za obnovu, izgradnju, prostorno uređenje, graditeljstvo i komunalne poslove, Sektor za prostorno uređenje i graditeljstvo, Grad Zagreb, Odjel za prostorno uređenje, Središnji odsjek za prostorno uređenje",
        "lokacija": "[{\"lokacija\": {\"lokacija_kat_cestica\": \"2716/8\", \"lokacija_kat_opcina\": \"Trnje\", \"lokacija_mjesto\": \"Zagreb\", \"lokacija_ulica_kucni\": null, \"lokacija_zupanija_id\": \"ZUP-21\", \"lokacija_zupanija\": \"Grad Zagreb\", \"lokacija_samouprava_id\": \"1333\", \"lokacija_samouprava\": \"Grad Zagreb\", \"lokacija_mjesto_id\": null, \"lokacija_kat_opcina_id\": \"335649\"}}]",
        "gradjevina_zahvat_id": "VZ-01",
        "gradjevina_zahvat": "građenje zgrade",
        "gradjevina_zahvat_dodatno": null,
        "gradjevina_namjena_id": "mn",
        "gradjevina_namjena": "mješovite namjene",
        "gradjevina_namjena_dodatno": null,
        "gradjevina_skupina_id": "SK-02b",
        "gradjevina_skupina": "2.b skupine",
        "gradjevina_ibz": null,
        "gradjevina_gbp": null,
        "gradjevina_volumen": null,
        "gradjevina_etaze": null,
        "gradjevina_br_jedinica_id": null,
        "gradjevina_br_jedinica": null,
        "gradjevina_nkvg_id": null,
        "gradjevina_nkvg": null,
        "troskovi_gradjenja_id": null,
        "troskovi_gradjenja": null,
        "edozvola:sourceLayer": "eDozvola_building_polygon",
        "edozvola:sourceFeatureId": "eDozvola_building_polygon.229511",
        "edozvola:geometryAreaM2": 692.46
      },
      "geometry": {
        "type": "Polygon",
        "coordinates": [
          [
            [
              15.99810552,
              45.79480773
            ],
            [
              15.99831612,
              45.79474621
            ],
            [
              15.99812261,
              45.79442207
            ],
            [
              15.99791214,
              45.7944835
            ],
            [
              15.99810552,
              45.79480773
            ]
          ]
        ]
      }
    },
    {
      "type": "Feature",
      "properties": {
        "predmet_web_id": "P20230927-1364307-Z06",
        "predmet_group_id": "V02",
        "predmet_group": "Lokacijska dozvola",
        "predmet_vrsta_id": "Z06",
        "predmet_vrsta": "Lokacijska dozvola - izmjena i/ili dopuna",
        "predmet_status_id": "ARHIVA",
        "predmet_status": "Arhiva",
        "predmet_klasa": "UP/I-350-05/23-01/000294",
        "predmet_dat_promjene": null,
        "predmet_url": null,
        "zahtjev_dat_zaprimanja": "2023-09-27",
        "zahtjev_dat_urednosti": "2023-10-03",
        "zavrsni_akt_naziv": "Rješenje o izmjeni i dopuni lokacijske dozvole",
        "zavrsni_akt_urbroj_rjesenja": "251-10-21-1/040-23-0006",
        "zavrsni_akt_dat_rjesavanja": "2023-10-23",
        "zavrsni_akt_nacin_rjesavanja_id": "NR-01-01",
        "zavrsni_akt_nacin_rjesavanja": "zahtjev usvojen",
        "zavrsni_akt_dat_izvrsnosti": null,
        "zavrsni_akt_dat_pravomocnosti": "2023-11-16",
        "zavrsni_akt_url": null,
        "nadlezno_tijelo_id": "UJ-2101015",
        "nadlezno_tijelo": "Grad Zagreb, Gradski ured za obnovu, izgradnju, prostorno uređenje, graditeljstvo i komunalne poslove, Sektor za prostorno uređenje i graditeljstvo, Grad Zagreb, Odjel za prostorno uređenje, Središnji odsjek za prostorno uređenje",
        "lokacija": "[{\"lokacija\": {\"lokacija_kat_cestica\": \"2716/8\", \"lokacija_kat_opcina\": \"Trnje\", \"lokacija_mjesto\": \"Zagreb\", \"lokacija_ulica_kucni\": null, \"lokacija_zupanija_id\": \"ZUP-21\", \"lokacija_zupanija\": \"Grad Zagreb\", \"lokacija_samouprava_id\": \"1333\", \"lokacija_samouprava\": \"Grad Zagreb\", \"lokacija_mjesto_id\": null, \"lokacija_kat_opcina_id\": \"335649\"}}]",
        "gradjevina_zahvat_id": "VZ-01",
        "gradjevina_zahvat": "građenje zgrade",
        "gradjevina_zahvat_dodatno": null,
        "gradjevina_namjena_id": "mn",
        "gradjevina_namjena": "mješovite namjene",
        "gradjevina_namjena_dodatno": null,
        "gradjevina_skupina_id": "SK-02b",
        "gradjevina_skupina": "2.b skupine",
        "gradjevina_ibz": null,
        "gradjevina_gbp": null,
        "gradjevina_volumen": null,
        "gradjevina_etaze": null,
        "gradjevina_br_jedinica_id": null,
        "gradjevina_br_jedinica": null,
        "gradjevina_nkvg_id": null,
        "gradjevina_nkvg": null,
        "troskovi_gradjenja_id": null,
        "troskovi_gradjenja": null,
        "edozvola:sourceLayer": "eDozvola_building_polygon",
        "edozvola:sourceFeatureId": "eDozvola_building_polygon.229512",
        "edozvola:geometryAreaM2": 1318.66
      },
      "geometry": {
        "type": "Polygon",
        "coordinates": [
          [
            [
              15.9973927,
              45.79501578
            ],
            [
              15.99787621,
              45.79487466
            ],
            [
              15.99764025,
              45.79447906
            ],
            [
              15.99741301,
              45.79454537
            ],
            [
              15.9975557,
              45.79478453
            ],
            [
              15.9972993,
              45.79485935
            ],
            [
              15.9973927,
              45.79501578
            ]
          ]
        ]
      }
    }
  ]
}
