{
  "type": "FeatureCollection",
  "name": "Savica F1–F3 – DGU izvedeni kontekst",
  "context": {
    "schema": "consensus-builder.reconstruction-context.v1",
    "capturedAt": "2026-08-13T00:00:00.000Z",
    "geometryBasis": "current DGU cadastral geometry",
    "caveat": "Podzemne garaže i trafostanica prikazane su samo kao kontekst."
  },
  "features": [
    {
      "type": "Feature",
      "properties": {
        "id": "HR-335649-2716/8",
        "cestica_id": 21309385,
        "maticni_broj_ko": 335649,
        "broj_cestice": "2716/8",
        "areaM2": 6666.564950017974,
        "source": "DGU katastar, aktualna čestica",
        "context:role": "site"
      },
      "geometry": {
        "type": "MultiPolygon",
        "coordinates": [
          [
            [
              [
                15.997258548,
                45.794871274
              ],
              [
                15.99728041,
                45.794643002
              ],
              [
                15.997294834,
                45.794498018
              ],
              [
                15.997297633,
                45.794487143
              ],
              [
                15.997303388,
                45.79447655
              ],
              [
                15.997314036,
                45.79446535
              ],
              [
                15.997327224,
                45.794457849
              ],
              [
                15.997344767,
                45.794452438
              ],
              [
                15.997363838,
                45.794448652
              ],
              [
                15.997388698,
                45.794444803
              ],
              [
                15.997429131,
                45.794440032
              ],
              [
                15.997599511,
                45.794417656
              ],
              [
                15.997743383,
                45.794396424
              ],
              [
                15.997971287,
                45.794356664
              ],
              [
                15.998085333,
                45.794333591
              ],
              [
                15.998240513,
                45.79429918
              ],
              [
                15.9983118,
                45.794282037
              ],
              [
                15.998409664,
                45.794256013
              ],
              [
                15.998480334,
                45.794235808
              ],
              [
                15.998550362,
                45.7942156
              ],
              [
                15.998550116,
                45.794214339
              ],
              [
                15.998695727,
                45.794171158
              ],
              [
                15.998723657,
                45.794212311
              ],
              [
                15.998737352,
                45.794234236
              ],
              [
                15.998739633,
                45.794238115
              ],
              [
                15.9989158,
                45.794531412
              ],
              [
                15.998918463,
                45.794535743
              ],
              [
                15.998938363,
                45.794568673
              ],
              [
                15.998928689,
                45.7945716
              ],
              [
                15.998772245,
                45.794617883
              ],
              [
                15.998551703,
                45.79468278
              ],
              [
                15.998299697,
                45.794756357
              ],
              [
                15.998067419,
                45.794824532
              ],
              [
                15.997877443,
                45.794880384
              ],
              [
                15.997572039,
                45.794969831
              ],
              [
                15.997405924,
                45.79501832
              ],
              [
                15.997389827,
                45.795020318
              ],
              [
                15.997377354,
                45.795019904
              ],
              [
                15.997366692,
                45.795018237
              ],
              [
                15.99735617,
                45.795015401
              ],
              [
                15.997345538,
                45.795010496
              ],
              [
                15.997338506,
                45.795005696
              ],
              [
                15.997331109,
                45.794998645
              ],
              [
                15.997325011,
                45.79499016
              ],
              [
                15.997320584,
                45.794981772
              ],
              [
                15.997288078,
                45.794920353
              ],
              [
                15.997277579,
                45.794900601
              ],
              [
                15.997271789,
                45.794900756
              ],
              [
                15.997262836,
                45.794895048
              ],
              [
                15.997259074,
                45.794884234
              ],
              [
                15.997258548,
                45.794871274
              ]
            ]
          ]
        ]
      }
    },
    {
      "type": "Feature",
      "properties": {
        "context:role": "supporting-structure",
        "dguBuildingId": 13086208,
        "dguBuildingNumber": "19037",
        "dguBuildingType": "PODZEMNA GARAŽA",
        "footprintAreaM2": 2523.829099989469,
        "source": "DGU katastar, aktualna zgrada"
      },
      "geometry": {
        "type": "MultiPolygon",
        "coordinates": [
          [
            [
              [
                15.998772724,
                45.79450703
              ],
              [
                15.998762887,
                45.794513825
              ],
              [
                15.998752672,
                45.794519719
              ],
              [
                15.998741562,
                45.794525069
              ],
              [
                15.998728911,
                45.794530142
              ],
              [
                15.998711626,
                45.794535465
              ],
              [
                15.998710208,
                45.794535909
              ],
              [
                15.998757983,
                45.794616021
              ],
              [
                15.998550214,
                45.794676655
              ],
              [
                15.998528164,
                45.794639667
              ],
              [
                15.998526745,
                45.79464011
              ],
              [
                15.998351476,
                45.794691259
              ],
              [
                15.998355911,
                45.794698747
              ],
              [
                15.998311416,
                45.794711779
              ],
              [
                15.998306981,
                45.794704291
              ],
              [
                15.99829344,
                45.794708191
              ],
              [
                15.998292021,
                45.794708634
              ],
              [
                15.998314071,
                45.794745623
              ],
              [
                15.998106301,
                45.794806257
              ],
              [
                15.998084251,
                45.794769268
              ],
              [
                15.997913554,
                45.794483102
              ],
              [
                15.997904809,
                45.794468577
              ],
              [
                15.998127539,
                45.79440351
              ],
              [
                15.998123104,
                45.794396023
              ],
              [
                15.998170565,
                45.794382194
              ],
              [
                15.998174999,
                45.794389682
              ],
              [
                15.998289653,
                45.794356173
              ],
              [
                15.998285218,
                45.794348685
              ],
              [
                15.998324941,
                45.794337072
              ],
              [
                15.998329504,
                45.794344561
              ],
              [
                15.998709573,
                45.794233664
              ],
              [
                15.998802716,
                45.794389918
              ],
              [
                15.998807145,
                45.794398035
              ],
              [
                15.998811417,
                45.794409392
              ],
              [
                15.998814139,
                45.794421371
              ],
              [
                15.998814836,
                45.794429742
              ],
              [
                15.998827051,
                45.794430246
              ],
              [
                15.998825073,
                45.794450032
              ],
              [
                15.998812987,
                45.79444944
              ],
              [
                15.998810334,
                45.794458426
              ],
              [
                15.998806391,
                45.794467856
              ],
              [
                15.998801424,
                45.794476563
              ],
              [
                15.998795692,
                45.794484726
              ],
              [
                15.998788283,
                45.794493241
              ],
              [
                15.998781276,
                45.794500049
              ],
              [
                15.998772724,
                45.79450703
              ]
            ]
          ]
        ]
      }
    },
    {
      "type": "Feature",
      "properties": {
        "context:role": "principal-building",
        "dguBuildingId": 13086209,
        "dguBuildingNumber": "19038",
        "dguBuildingType": "STAMBENA ZGRADA",
        "footprintAreaM2": 692.5541000103724,
        "source": "DGU katastar, aktualna zgrada"
      },
      "geometry": {
        "type": "MultiPolygon",
        "coordinates": [
          [
            [
              [
                15.998316124,
                45.794746172
              ],
              [
                15.998105517,
                45.794807693
              ],
              [
                15.998082833,
                45.794769712
              ],
              [
                15.997912007,
                45.794483545
              ],
              [
                15.997913554,
                45.794483102
              ],
              [
                15.998122613,
                45.794422115
              ],
              [
                15.99829344,
                45.794708191
              ],
              [
                15.998316124,
                45.794746172
              ]
            ]
          ]
        ]
      }
    },
    {
      "type": "Feature",
      "properties": {
        "context:role": "principal-building",
        "dguBuildingId": 13086210,
        "dguBuildingNumber": "19039",
        "dguBuildingType": "STAMBENA ZGRADA",
        "footprintAreaM2": 692.6580499966302,
        "source": "DGU katastar, aktualna zgrada"
      },
      "geometry": {
        "type": "MultiPolygon",
        "coordinates": [
          [
            [
              [
                15.998711626,
                45.794535465
              ],
              [
                15.998760036,
                45.79461657
              ],
              [
                15.99854943,
                45.794678092
              ],
              [
                15.998526745,
                45.79464011
              ],
              [
                15.998356047,
                45.794353855
              ],
              [
                15.998566652,
                45.794292424
              ],
              [
                15.998711626,
                45.794535465
              ]
            ]
          ]
        ]
      }
    },
    {
      "type": "Feature",
      "properties": {
        "context:role": "supporting-structure",
        "dguBuildingId": 13086211,
        "dguBuildingNumber": "19040",
        "dguBuildingType": "TRAFOSTANICA",
        "footprintAreaM2": 16.796200000442287,
        "source": "DGU katastar, aktualna zgrada"
      },
      "geometry": {
        "type": "MultiPolygon",
        "coordinates": [
          [
            [
              [
                15.998811712,
                45.794519888
              ],
              [
                15.998850664,
                45.794508182
              ],
              [
                15.998876527,
                45.794550316
              ],
              [
                15.998837576,
                45.794562022
              ],
              [
                15.998811712,
                45.794519888
              ]
            ]
          ]
        ]
      }
    },
    {
      "type": "Feature",
      "properties": {
        "context:role": "principal-building",
        "dguBuildingId": 13350652,
        "dguBuildingNumber": "19105",
        "dguBuildingType": "POSLOVNA ZGRADA",
        "footprintAreaM2": 1318.9301999945465,
        "source": "DGU katastar, aktualna zgrada"
      },
      "geometry": {
        "type": "MultiPolygon",
        "coordinates": [
          [
            [
              [
                15.99764025,
                45.794479022
              ],
              [
                15.997674213,
                45.794535858
              ],
              [
                15.997853653,
                45.794836639
              ],
              [
                15.997876208,
                45.79487462
              ],
              [
                15.99739257,
                45.795015741
              ],
              [
                15.997299303,
                45.794859306
              ],
              [
                15.997555696,
                45.794784491
              ],
              [
                15.997413006,
                45.794545327
              ],
              [
                15.99764025,
                45.794479022
              ]
            ]
          ]
        ]
      }
    },
    {
      "type": "Feature",
      "properties": {
        "context:role": "supporting-structure",
        "dguBuildingId": 13350653,
        "dguBuildingNumber": "19106",
        "dguBuildingType": "PODZEMNA GARAŽA",
        "footprintAreaM2": 2015.90909998658,
        "source": "DGU katastar, aktualna zgrada"
      },
      "geometry": {
        "type": "MultiPolygon",
        "coordinates": [
          [
            [
              [
                15.997871406,
                45.794478328
              ],
              [
                15.997904809,
                45.794468577
              ],
              [
                15.997913554,
                45.794483102
              ],
              [
                15.998084251,
                45.794769268
              ],
              [
                15.998082833,
                45.794769712
              ],
              [
                15.998069162,
                45.794773701
              ],
              [
                15.998076639,
                45.794786151
              ],
              [
                15.998026728,
                45.794800688
              ],
              [
                15.998019379,
                45.794788239
              ],
              [
                15.997911174,
                45.794819796
              ],
              [
                15.997915609,
                45.794827284
              ],
              [
                15.997889557,
                45.794834908
              ],
              [
                15.997885122,
                45.79482742
              ],
              [
                15.997853653,
                45.794836639
              ],
              [
                15.997852234,
                45.794837083
              ],
              [
                15.997874285,
                45.794873982
              ],
              [
                15.997393483,
                45.795014306
              ],
              [
                15.997301356,
                45.794859855
              ],
              [
                15.997557749,
                45.79478504
              ],
              [
                15.997415059,
                45.794545876
              ],
              [
                15.997639466,
                45.794480368
              ],
              [
                15.997672794,
                45.794536302
              ],
              [
                15.997674213,
                45.794535858
              ],
              [
                15.997845354,
                45.794485952
              ],
              [
                15.997840791,
                45.794478463
              ],
              [
                15.997866972,
                45.79447084
              ],
              [
                15.997871406,
                45.794478328
              ]
            ]
          ]
        ]
      }
    }
  ]
}
