{
  "type": "FeatureCollection",
  "crs": {
    "type": "name",
    "properties": {
      "name": "urn:ogc:def:crs:EPSG::32642"
    }
  },
  "sourceRequest": "https://map.gov4c.kz/geoserver/wfs?service=WFS&version=2.0.0&request=GetFeature&typename=egkn:u_view&outputFormat=application%2Fjson&srsname=EPSG:32642&bbox=670049.009,5666880.225,670069.009,5666900.225,EPSG:32642&propertyname=gid,kad_nomer,geom&count=3&viewparams=district_id:254",
  "features": [
    {
      "type": "Feature",
      "geometry": {
        "type": "MultiPolygon",
        "coordinates": [
          [
            [
              [
                670068.1139,
                5666874.7279
              ],
              [
                670063.4129,
                5666873.9357
              ],
              [
                670058.7725,
                5666874.8472
              ],
              [
                670054.4991,
                5666876.5742
              ],
              [
                670049.6895,
                5666879.1801
              ],
              [
                670045.8463,
                5666882.6257
              ],
              [
                670042.6697,
                5666886.8991
              ],
              [
                670040.5758,
                5666891.6172
              ],
              [
                670039.373,
                5666896.5716
              ],
              [
                670039.5034,
                5666903.1817
              ],
              [
                670041.0613,
                5666909.1495
              ],
              [
                670043.2714,
                5666913.8428
              ],
              [
                670046.3054,
                5666917.9694
              ],
              [
                670049.9876,
                5666920.9218
              ],
              [
                670054.3976,
                5666923.2029
              ],
              [
                670059.0484,
                5666924.4937
              ],
              [
                670063.981,
                5666925.0052
              ],
              [
                670069.0377,
                5666924.4409
              ],
              [
                670073.6656,
                5666922.6083
              ],
              [
                670078.0809,
                5666919.8563
              ],
              [
                670081.5697,
                5666917.0067
              ],
              [
                670084.6339,
                5666913.0287
              ],
              [
                670086.899,
                5666909.0183
              ],
              [
                670088.518,
                5666903.6805
              ],
              [
                670089.1091,
                5666899.0013
              ],
              [
                670088.569,
                5666893.8456
              ],
              [
                670086.6031,
                5666889.2924
              ],
              [
                670084.2726,
                5666885.0943
              ],
              [
                670081.1226,
                5666881.3634
              ],
              [
                670077.0409,
                5666878.3947
              ],
              [
                670073.0303,
                5666876.1295
              ],
              [
                670068.1139,
                5666874.7279
              ]
            ]
          ]
        ]
      },
      "properties": {
        "kad_nomer": "21320072529",
        "sourceGid": 5884914
      }
    }
  ]
}
