{
  "type": "FeatureCollection",
  "crs": {
    "type": "name",
    "properties": {
      "name": "EPSG:4326"
    }
  },
  "sourceRequest": "https://map.gov4c.kz/geoserver/wfs?service=WFS&version=2.0.0&request=GetFeature&typename=egkn:u_view&outputFormat=application%2Fjson&srsname=EPSG:32642&bbox=670049.009,5666880.225,670069.009,5666900.225,EPSG:32642&propertyname=gid,kad_nomer,geom&count=3&viewparams=district_id:254",
  "sourceCrs": "EPSG:32642",
  "virtualId": "KZ:astana:egkn-u-view:sha256:16dc5f1d351a453f13da42e68fc1dcbfe0910104b25dbd340428faca80b72a49",
  "features": [
    {
      "type": "Feature",
      "geometry": {
        "type": "MultiPolygon",
        "coordinates": [
          [
            [
              [
                71.4305226882,
                51.1280580665
              ],
              [
                71.430455195,
                51.1280523449
              ],
              [
                71.4303893709,
                51.1280619117
              ],
              [
                71.4303291714,
                51.1280786961
              ],
              [
                71.4302617307,
                51.1281035358
              ],
              [
                71.4302084842,
                51.1281356327
              ],
              [
                71.4301651456,
                51.1281749688
              ],
              [
                71.4301374752,
                51.1282179788
              ],
              [
                71.4301226392,
                51.1282628472
              ],
              [
                71.4301276194,
                51.128322195
              ],
              [
                71.4301526781,
                51.1283753484
              ],
              [
                71.4301864476,
                51.1284168579
              ],
              [
                71.4302317133,
                51.1284530315
              ],
              [
                71.43028568,
                51.1284784633
              ],
              [
                71.4303497214,
                51.128497648
              ],
              [
                71.4304167337,
                51.1285078641
              ],
              [
                71.4304874019,
                51.1285109951
              ],
              [
                71.4305593343,
                51.1285044239
              ],
              [
                71.430624546,
                51.1284865854
              ],
              [
                71.4306862882,
                51.1284605499
              ],
              [
                71.430734756,
                51.1284339127
              ],
              [
                71.4307766289,
                51.1283972637
              ],
              [
                71.4308070771,
                51.1283605609
              ],
              [
                71.4308276739,
                51.1283121242
              ],
              [
                71.4308339054,
                51.1282699098
              ],
              [
                71.4308237611,
                51.1282237504
              ],
              [
                71.4307935439,
                51.1281834272
              ],
              [
                71.4307582887,
                51.1281464027
              ],
              [
                71.4307115534,
                51.1281138188
              ],
              [
                71.4306518753,
                51.1280883593
              ],
              [
                71.4305935444,
                51.1280691991
              ],
              [
                71.4305226882,
                51.1280580665
              ]
            ]
          ]
        ]
      },
      "properties": {
        "kad_nomer": "21320072529",
        "sourceGid": 5884914,
        "geometryHash": "sha256:16dc5f1d351a453f13da42e68fc1dcbfe0910104b25dbd340428faca80b72a49"
      }
    }
  ]
}
