{
  "type": "FeatureCollection",
  "crs": "EPSG:4326",
  "features": [
    {
      "type": "Feature",
      "geometry": {
        "type": "MultiPolygon",
        "coordinates": [
          [
            [
              [
                74.56935021,
                42.87469689
              ],
              [
                74.5693697,
                42.87487869
              ],
              [
                74.57003305,
                42.87483943
              ],
              [
                74.57000465,
                42.87465789
              ],
              [
                74.56935021,
                42.87469689
              ]
            ]
          ]
        ]
      },
      "properties": {
        "PROPCODE": "1-01-02-0011-0889",
        "DOMCODE": "20"
      },
      "id": "ENI_AREA.7104209"
    },
    {
      "type": "Feature",
      "geometry": {
        "type": "MultiPolygon",
        "coordinates": [
          [
            [
              [
                74.56997702,
                42.87448128
              ],
              [
                74.56994024,
                42.87448376
              ],
              [
                74.56933014,
                42.87450966
              ],
              [
                74.56935021,
                42.87469689
              ],
              [
                74.57000465,
                42.87465789
              ],
              [
                74.56997702,
                42.87448128
              ]
            ]
          ]
        ]
      },
      "properties": {
        "PROPCODE": "1-01-02-0011-0890",
        "DOMCODE": "20"
      },
      "id": "ENI_AREA.7104210"
    },
    {
      "type": "Feature",
      "geometry": {
        "type": "MultiPolygon",
        "coordinates": [
          [
            [
              [
                74.56853235,
                42.87613423
              ],
              [
                74.56976762,
                42.87609756
              ],
              [
                74.56996515,
                42.87609738
              ],
              [
                74.57117461,
                42.87604959
              ],
              [
                74.57123045,
                42.87604738
              ],
              [
                74.57144229,
                42.87603901
              ],
              [
                74.57136113,
                42.87526554
              ],
              [
                74.57124184,
                42.87393419
              ],
              [
                74.57033213,
                42.87397107
              ],
              [
                74.56984993,
                42.87398865
              ],
              [
                74.56942528,
                42.87399389
              ],
              [
                74.56913816,
                42.87399773
              ],
              [
                74.5691383,
                42.87402403
              ],
              [
                74.56911266,
                42.87402693
              ],
              [
                74.56910798,
                42.8740495
              ],
              [
                74.56908148,
                42.87404949
              ],
              [
                74.56898477,
                42.87413717
              ],
              [
                74.56894876,
                42.87416981
              ],
              [
                74.56893854,
                42.87418103
              ],
              [
                74.56857109,
                42.87458438
              ],
              [
                74.5685675,
                42.8745882
              ],
              [
                74.5684371,
                42.874727
              ],
              [
                74.56844315,
                42.87481631
              ],
              [
                74.5684816,
                42.87528893
              ],
              [
                74.56851501,
                42.87581425
              ],
              [
                74.56852412,
                42.87601335
              ],
              [
                74.56853235,
                42.87613423
              ]
            ],
            [
              [
                74.56862004,
                42.87602663
              ],
              [
                74.56859045,
                42.87602372
              ],
              [
                74.56859056,
                42.87588869
              ],
              [
                74.5687799,
                42.87588581
              ],
              [
                74.56877988,
                42.87593214
              ],
              [
                74.56868514,
                42.87593297
              ],
              [
                74.56868538,
                42.87599109
              ],
              [
                74.5686378,
                42.87599048
              ],
              [
                74.56863778,
                42.8760021
              ],
              [
                74.56862005,
                42.8760021
              ],
              [
                74.56862004,
                42.87602663
              ]
            ],
            [
              [
                74.56940339,
                42.87523771
              ],
              [
                74.5693912,
                42.87507973
              ],
              [
                74.56960615,
                42.87506459
              ],
              [
                74.56961511,
                42.87522195
              ],
              [
                74.56940339,
                42.87523771
              ]
            ],
            [
              [
                74.57073989,
                42.87603262
              ],
              [
                74.57073992,
                42.87597907
              ],
              [
                74.57084733,
                42.87597517
              ],
              [
                74.5708473,
                42.87603263
              ],
              [
                74.57073989,
                42.87603262
              ]
            ],
            [
              [
                74.57086417,
                42.87596879
              ],
              [
                74.57092624,
                42.87596284
              ],
              [
                74.57092355,
                42.87593106
              ],
              [
                74.57104231,
                42.87592511
              ],
              [
                74.57105306,
                42.87601252
              ],
              [
                74.57086954,
                42.87602243
              ],
              [
                74.57086417,
                42.87596879
              ]
            ],
            [
              [
                74.57047132,
                42.87565911
              ],
              [
                74.57046602,
                42.87556987
              ],
              [
                74.57057842,
                42.87556857
              ],
              [
                74.57069615,
                42.87562502
              ],
              [
                74.5707104,
                42.87566832
              ],
              [
                74.57067293,
                42.87567882
              ],
              [
                74.57056052,
                42.87568274
              ],
              [
                74.57056051,
                42.87571162
              ],
              [
                74.57050519,
                42.87571293
              ],
              [
                74.57050343,
                42.8756578
              ],
              [
                74.57047132,
                42.87565911
              ]
            ],
            [
              [
                74.57062035,
                42.87539012
              ],
              [
                74.57062084,
                42.87535576
              ],
              [
                74.57064483,
                42.87535651
              ],
              [
                74.57064335,
                42.87538987
              ],
              [
                74.57062035,
                42.87539012
              ]
            ],
            [
              [
                74.56882768,
                42.87483711
              ],
              [
                74.56883908,
                42.87475354
              ],
              [
                74.56883659,
                42.87469225
              ],
              [
                74.56901707,
                42.8746844
              ],
              [
                74.56901865,
                42.87467223
              ],
              [
                74.56913519,
                42.87466862
              ],
              [
                74.56914643,
                42.87485131
              ],
              [
                74.56915564,
                42.87492881
              ],
              [
                74.56910363,
                42.87493221
              ],
              [
                74.56910035,
                42.87491098
              ],
              [
                74.5690525,
                42.87491157
              ],
              [
                74.56903681,
                42.87493948
              ],
              [
                74.56903762,
                42.87496618
              ],
              [
                74.56899391,
                42.87496739
              ],
              [
                74.56898815,
                42.87493583
              ],
              [
                74.56894442,
                42.87493644
              ],
              [
                74.56894444,
                42.87490792
              ],
              [
                74.56898321,
                42.87490731
              ],
              [
                74.56901093,
                42.87484519
              ],
              [
                74.56882768,
                42.87483711
              ]
            ],
            [
              [
                74.57123466,
                42.87580761
              ],
              [
                74.57123401,
                42.87576303
              ],
              [
                74.57133157,
                42.87576353
              ],
              [
                74.57133088,
                42.87581472
              ],
              [
                74.57125263,
                42.87581545
              ],
              [
                74.57123466,
                42.87580761
              ]
            ],
            [
              [
                74.57133156,
                42.87578778
              ],
              [
                74.57133157,
                42.87576353
              ],
              [
                74.57134623,
                42.87576378
              ],
              [
                74.57134491,
                42.87573708
              ],
              [
                74.57137621,
                42.87573684
              ],
              [
                74.57137687,
                42.87574443
              ],
              [
                74.57140584,
                42.875753
              ],
              [
                74.57140881,
                42.87579465
              ],
              [
                74.57135787,
                42.87579464
              ],
              [
                74.57134655,
                42.87578778
              ],
              [
                74.57133156,
                42.87578778
              ]
            ],
            [
              [
                74.57122626,
                42.87565503
              ],
              [
                74.57122724,
                42.87560989
              ],
              [
                74.57130146,
                42.87561018
              ],
              [
                74.57130086,
                42.87565504
              ],
              [
                74.57122626,
                42.87565503
              ]
            ],
            [
              [
                74.57114368,
                42.87572335
              ],
              [
                74.5710315,
                42.87564814
              ],
              [
                74.57108297,
                42.87561135
              ],
              [
                74.571183,
                42.87561251
              ],
              [
                74.57118792,
                42.87568835
              ],
              [
                74.57114368,
                42.87572335
              ]
            ],
            [
              [
                74.57077156,
                42.87592205
              ],
              [
                74.57076773,
                42.87584595
              ],
              [
                74.57081219,
                42.87581151
              ],
              [
                74.57092051,
                42.87588993
              ],
              [
                74.57088333,
                42.87592374
              ],
              [
                74.57077156,
                42.87592205
              ]
            ]
          ]
        ]
      },
      "properties": {
        "PROPCODE": "1-01-02-0011-0855",
        "DOMCODE": "20"
      },
      "id": "ENI_AREA.7116703"
    }
  ],
  "sourceRequest": "https://cadastre.kg/svc-portal/map/proxy.do?http://localhost/o2map/services/wfs?service=WFS&version=1.1.0&request=GetFeature&typename=ENI_AREA&propertyname=PROPCODE,DOMCODE,THE_GEOM&outputFormat=application/json&srsname=EPSG%3A4326&maxFeatures=3&bbox=74.5697,42.8745,74.5699,42.8747,EPSG%3A4326"
}
