{"type":"FeatureCollection","crs":{"type":"name","properties":{"name":"urn:ogc:def:crs:EPSG::32643"}},"source":"https://map.gov4c.kz/geoserver/wfs","sourceLayer":"egkn:u_view","sourceRequestPropertyName":"gid,kad_nomer,geom","featureCount":3,"features":[{"type":"Feature","id":"u_view.fid--3f0c7dfc_1a11d30647c_-3e78","geometry":{"type":"MultiPolygon","coordinates":[[[[654910.161,4791593.1449],[654960.1122,4791599.6961],[655078.3896,4791613.9219],[655079.7935,4791592.0532],[655081.0795,4791540.5805],[655087.4961,4791427.0233],[655084.3286,4791408.2495],[655083.7555,4791381.0351],[655080.6358,4791368.8627],[655076.3323,4791364.6633],[655081.2936,4791357.6773],[655073.5189,4791339.1974],[655070.7618,4791337.3338],[655068.6955,4791327.1858],[655070.6663,4791315.4306],[655069.8916,4791301.312],[655065.1078,4791300.6018],[655066.6144,4791291.6362],[655056.1471,4791290.1949],[655054.0316,4791299.5466],[654987.2577,4791289.6077],[654982.1229,4791321.4908],[654978.5247,4791321.4079],[654967.5324,4791407.8586],[654963.8029,4791435.1739],[654939.7249,4791460.2203],[654922.2154,4791473.6174],[654916.6583,4791497.7905],[654898.9544,4791493.5823],[654893.4281,4791520.7562],[654895.9969,4791522.1155],[654890.6488,4791545.8933],[654893.8288,4791546.7666],[654891.7778,4791575.0205],[654897.5317,4791590.0538],[654910.0933,4791591.7433],[654910.161,4791593.1449]]]]},"geometry_name":"geom","properties":{"gid":7236597,"kad_nomer":"20311024010"}},{"type":"Feature","id":"u_view.fid-1c0d636f_1a11d30382e_-1d76","geometry":{"type":"MultiPolygon","coordinates":[[[[655442.5601,4776680.6174],[655444.1676,4776675.0741],[655442.4397,4776680.6346],[655441.6746,4776687.8174],[655443.1636,4776692.6518],[655468.3112,4776690.6296],[655473.5098,4776686.3489],[655490.6381,4776698.6431],[655526.309,4776730.8644],[655397.0464,4776819.4975],[655383.2346,4776802.5793],[655357.0841,4776817.779],[655341.0632,4776840.4117],[655342.3121,4776851.3409],[655336.6024,4776899.6118],[655339.0876,4776943.7709],[655314.8627,4777005.7168],[655307.5124,4777012.2482],[655307.896,4777012.9571],[655308.1719,4777035.7644],[655354.8758,4777066.1392],[655286.1696,4777340.372],[655177.0244,4777716.2798],[655438.9289,4778025.0139],[656069.9777,4778740.1338],[656118.7968,4778898.5937],[656171.1258,4779001.3917],[656245.8125,4779106.5139],[656444.2984,4779385.891],[656515.4841,4779534.535],[656569.6783,4779621.8854],[656569.2243,4779637.2757],[656558.9221,4779680.841],[656541.2738,4779748.1385],[656533.3152,4779794.1577],[656554.0417,4779836.5364],[656572.0166,4779889.8523],[656571.5025,4779968.7444],[656561.4869,4780069.4191],[656543.0813,4780156.6],[656520.5293,4780237.0853],[656502.2873,4780256.2668],[656459.2089,4780294.378],[656440.2636,4780335.4443],[656435.6008,4780407.7406],[656422.7467,4780462.2477],[656398.5496,4780527.2944],[656358.7611,4780596.2827],[656318.9231,4780671.7702],[656312.5825,4780673.5245],[656315.6693,4780700.1967],[656276.4335,4780758.1972],[656259.0839,4780812.5008],[656250.6298,4780867.0089],[656256.7089,4780933.152],[656288.8828,4780956.093],[656361.1935,4780899.2533],[656376.5344,4780897.5061],[656375.831,4780919.3909],[656348.7072,4780929.0677],[656376.9221,4780950.2176],[656414.7983,4780938.288],[656448.8317,4780906.4693],[656445.627,4780945.7975],[656452.4697,4780952.6552],[656526.7055,4780833.8567],[656689.722,4780572.5928],[656764.6305,4780385.4062],[656909.0369,4780024.5089],[656680.9239,4779407.0327],[657223.5947,4779483.4142],[657587.5785,4779541.4864],[659231.4455,4779803.4998],[659825.2441,4780266.0824],[659829.0251,4780262.5691],[659851.0024,4780241.8732],[659877.1654,4780217.3738],[658601.5803,4778699.1537],[658825.7297,4778237.7803],[658856.9276,4778006.0842],[659396.4986,4776852.3184],[658395.293,4776806.1053],[655896.107,4776165.1371],[655617.4076,4776390.8428],[655606.5694,4776427.2954],[655467.8154,4776586.0136],[655462.4273,4776585.4897],[655446.8486,4776584.5316],[655432.35,4776597.499],[655420.8799,4776611.406],[655453.193,4776639.1798],[655451.58,4776648.4433],[655451.68,4776657.1459],[655447.7566,4776666.8561],[655445.0315,4776672.2938],[655444.1676,4776675.0741],[655445.3406,4776671.9009],[655446.8112,4776668.8346],[655448.4769,4776665.9727],[655450.6358,4776663.4222],[655455.4908,4776658.4236],[655467.2311,4776650.603],[655471.0774,4776648.5913],[655486.9443,4776619.1748],[655482.3948,4776613.0499],[655511.3808,4776613.7161],[655530.7254,4776607.4604],[655534.287,4776635.2434],[655516.3383,4776637.3311],[655510.6169,4776642.5998],[655505.4113,4776638.48],[655480.7442,4776680.5149],[655468.418,4776690.332],[655443.1659,4776692.5519],[655441.7792,4776687.6197],[655442.5601,4776680.6174]],[[656068.3866,4776423.1084],[656075.7611,4776402.4768],[656092.0683,4776406.5518],[656109.6736,4776415.0568],[656114.415,4776430.6664],[656107.3932,4776431.6052],[656068.3866,4776423.1084]],[[655421.8126,4776612.1575],[655447.6413,4776584.8499],[655461.0255,4776596.008],[655459.6783,4776631.1286],[655453.4784,4776639.3764],[655421.8126,4776612.1575]],[[655561.3014,4776608.5632],[655565.3178,4776607.8554],[655581.626,4776590.1294],[655577.4222,4776585.9326],[655579.3696,4776583.8773],[655610.5716,4776553.393],[655606.9736,4776596.8123],[655597.1668,4776605.7872],[655586.6076,4776617.0451],[655563.0617,4776636.4049],[655561.3014,4776608.5632]],[[658273.5463,4779461.8547],[658270.0491,4779466.0746],[658263.6166,4779463.1264],[658248.4652,4779452.2775],[658247.8815,4779451.564],[658244.4705,4779447.6854],[658240.948,4779444.3042],[658233.6757,4779438.7366],[658218.2992,4779428.9826],[658212.7352,4779423.0543],[658215.8395,4779418.5254],[658236.6916,4779425.0052],[658246.4802,4779416.8299],[658255.8597,4779400.3447],[658268.9718,4779408.5465],[658271.481,4779412.5045],[658297.5547,4779439.8056],[658283.2395,4779453.4772],[658273.5463,4779461.8547]],[[658782.8765,4777134.5318],[658801.9927,4777094.7188],[658853.4363,4777119.0527],[658833.7262,4777158.6019],[658782.8765,4777134.5318]],[[656904.4888,4776677.1359],[656843.9175,4776640.942],[656849.8123,4776623.7766],[656849.9422,4776622.4796],[656851.1484,4776613.5068],[656853.0589,4776595.6499],[656902.1068,4776611.0778],[656894.2187,4776632.2976],[656891.1317,4776640.4271],[656890.5998,4776641.815],[656916.2537,4776659.1054],[656904.4888,4776677.1359]],[[657075.6561,4776822.0771],[657092.4171,4776785.9605],[657158.2596,4776822.9757],[657142.7381,4776859.1208],[657075.6561,4776822.0771]],[[656131.1044,4776406.7989],[656052.7863,4776383.498],[656055.4622,4776373.2391],[656012.9347,4776361.7212],[656020.6735,4776334.3776],[656062.5797,4776345.9413],[656139.3009,4776367.3654],[656131.1044,4776406.7989]],[[657010.981,4776803.8898],[657030.128,4776780.1286],[657041.5499,4776761.7902],[657047.4908,4776751.3262],[657071.1015,4776772.6699],[657090.1639,4776786.5288],[657073.7819,4776823.5641],[657115.5277,4776845.5946],[657102.6167,4776867.7991],[657081.8519,4776857.5213],[657052.6489,4776841.0493],[657034.0952,4776820.7218],[657010.981,4776803.8898]],[[658677.5416,4777275.0188],[658687.168,4777260.8393],[658717.0883,4777216.5244],[658728.1141,4777219.778],[658741.4699,4777226.0853],[658754.2248,4777228.0786],[658767.8414,4777227.3916],[658772.9332,4777223.4084],[658798.3891,4777216.6931],[658812.3881,4777203.7141],[658817.658,4777187.6344],[658819.7226,4777180.4813],[658828.0439,4777162.1715],[658855.6229,4777167.5058],[658868.8954,4777179.6115],[658809.1323,4777232.2409],[658749.3708,4777243.468],[658711.4957,4777294.5004],[658698.325,4777293.1975],[658694.3211,4777289.0053],[658677.5416,4777275.0188]],[[658679.579,4777064.5536],[658669.9942,4777111.7361],[658653.3987,4777159.3573],[658647.9289,4777192.8335],[658625.8934,4777255.2306],[658616.7669,4777286.8226],[658616.7289,4777292.8221],[658616.8599,4777295.8252],[658622.2183,4777306.3489],[658621.8599,4777313.2411],[658613.187,4777329.4428],[658611.4913,4777333.604],[658588.0012,4777346.1648],[658585.09,4777342.2978],[658584.5063,4777341.5843],[658584.0881,4777342.3747],[658581.3549,4777343.812],[658576.0368,4777344.5898],[658567.8751,4777342.9021],[658550.0077,4777337.091],[658545.049,4777335.277],[658540.9947,4777333.2837],[658539.608,4777328.3516],[658533.7073,4777324.0157],[658532.2861,4777320.5828],[658534.0014,4777319.9223],[658545.0477,4777270.0731],[658553.592,4777250.7684],[658570.6172,4777227.9586],[658574.2452,4777183.2393],[658575.4825,4777168.5671],[658594.084,4777129.3923],[658601.4701,4777116.9614],[658616.7027,4777106.0109],[658608.478,4777029.6175],[658595.5528,4776965.4168],[658719.4634,4776991.3662],[658682.3018,4777059.2159],[658679.579,4777064.5536]],[[655514.3703,4776657.6868],[655519.983,4776652.7955],[655525.7751,4776649.6685],[655531.9663,4776646.5907],[655538.6748,4776644.4847],[655546.1971,4776643.9675],[655561.8349,4776643.6571],[655568.8732,4776641.5687],[655575.1779,4776637.8934],[655580.8427,4776632.9133],[655585.9732,4776626.8109],[655591.0374,4776619.247],[655596.5553,4776609.7733],[655600.3408,4776603.0101],[655607.0426,4776596.8539],[655608.0068,4776584.9254],[655626.518,4776544.8791],[655665.3888,4776497.0503],[655679.2802,4776494.8394],[655691.7721,4776492.6063],[655700.1556,4776490.2989],[655705.5367,4776487.6525],[655709.973,4776484.3343],[655716.1268,4776478.9655],[655726.3863,4776474.651],[655765.5553,4776428.6491],[655793.3416,4776416.2471],[655799.1718,4776416.2511],[655803.5951,4776416.5528],[655806.1899,4776417.2225],[655807.7811,4776418.039],[655809.5268,4776418.6692],[655812.2125,4776418.8609],[655815.3608,4776418.5033],[655818.1732,4776417.5379],[655820.0785,4776416.0016],[655821.4508,4776414.1631],[655822.603,4776412.7694],[655832.2762,4776409.1616],[655834.609,4776409.0451],[655838.29,4776409.0097],[655841.5849,4776408.8055],[655844.1892,4776408.1854],[655846.1604,4776407.2706],[655847.6129,4776406.2939],[655848.743,4776405.4198],[655849.6121,4776404.5898],[655850.3224,4776403.7061],[655851.0161,4776402.6819],[655851.7141,4776401.8979],[655863.0452,4776400.5883],[655871.0115,4776399.8714],[655884.8738,4776397.1898],[655899.5691,4776393.0673],[655909.0582,4776391.3853],[655913.9448,4776391.9777],[655914.5634,4776392.0419],[655932.4245,4776394.2025],[655948.3905,4776395.7194],[655961.6029,4776392.5929],[655978.2716,4776390.506],[655992.9602,4776389.7234],[656007.2192,4776388.9312],[656022.0829,4776389.6727],[656027.9704,4776390.7148],[656045.8699,4776394.1996],[656054.5162,4776404.3888],[656049.4899,4776418.5739],[656043.5561,4776446.1388],[656019.677,4776462.5908],[656006.4615,4776467.5873],[655983.1987,4776479.4133],[655916.3741,4776506.0188],[655919.9297,4776527.1015],[655871.9674,4776540.5998],[655836.1394,4776550.4469],[655764.3846,4776569.6587],[655764.5983,4776569.9336],[655742.0978,4776587.3173],[655727.7094,4776604.1874],[655718.262,4776594.9199],[655717.6937,4776595.2767],[655695.918,4776621.1575],[655695.5355,4776642.1496],[655692.7564,4776645.586],[655687.6382,4776637.668],[655686.7971,4776630.7483],[655658.1147,4776660.3904],[655655.7152,4776656.4452],[655651.4569,4776660.7175],[655624.4517,4776676.1175],[655607.0981,4776687.1192],[655541.7541,4776718.9288],[655537.0218,4776716.41],[655514.3703,4776657.6868]]]]},"geometry_name":"geom","properties":{"gid":7252550,"kad_nomer":"20313062033"}},{"type":"Feature","id":"u_view.fid--573cc778_1a11d3068f5_-4f01","geometry":{"type":"MultiPolygon","coordinates":[[[[649161.595,4782523.1032],[649169.345,4782533.9819],[649172.2872,4782532.1495],[649223.6364,4782499.6301],[649226.1339,4782504.0877],[649278.479,4782484.7914],[649293.2716,4782476.4316],[649310.6859,4782467.132],[649319.0759,4782463.225],[649328.6275,4782456.6446],[649346.5645,4782446.357],[649370.3491,4782434.0039],[649397.5564,4782416.3294],[649397.3634,4782416.025],[649428.6995,4782401.4456],[649427.1669,4782398.5102],[649427.8759,4782398.1265],[649427.5634,4782394.3192],[649427.7829,4782389.1241],[649424.7122,4782379.1532],[649423.9609,4782377.0359],[649409.4082,4782331.5002],[649388.707,4782266.3225],[649378.067,4782233.2771],[649343.5071,4782266.2827],[649191.3093,4782418.1846],[649108.0513,4782507.5712],[649127.1919,4782523.2118],[649138.1173,4782526.4632],[649145.1687,4782532.9256],[649148.9175,4782530.8118],[649160.7232,4782521.8832],[649161.595,4782523.1032]]]]},"geometry_name":"geom","properties":{"gid":7395205,"kad_nomer":"20322023199"}}]}
