{
  "type": "FeatureCollection",
  "name": "Aracaju municipal fiscal lots (bounded WUP-neighborhood sample)",
  "metadata": {
    "source": "https://geoserver.fazenda.aracaju.se.gov.br/ows",
    "typeName": "Limites_Municipais:malha_lote",
    "request": "WFS 2.0 GetFeature, count=3, BBOX=710580,8792560,710680,8792660,EPSG:31984; output srsName=EPSG:4326",
    "matchedInBoundedBbox": 62,
    "returned": 3,
    "retainedGeometryCount": 3,
    "note": "Municipal fiscal lot cadastre, not proof of legal title; WUP point is outside these three returned polygons."
  },
  "crs": {
    "type": "name",
    "properties": {
      "name": "urn:ogc:def:crs:EPSG::4326"
    }
  },
  "features": [
    {
      "type": "Feature",
      "id": "malha_lote.97681",
      "geometry": {
        "type": "MultiPolygon",
        "coordinates": [
          [
            [
              [
                -37.07236705,
                -10.91587135
              ],
              [
                -37.07238436,
                -10.91599949
              ],
              [
                -37.07239168,
                -10.91603512
              ],
              [
                -37.07244608,
                -10.91602703
              ],
              [
                -37.07243357,
                -10.91594692
              ],
              [
                -37.07243131,
                -10.91593245
              ],
              [
                -37.07242738,
                -10.91590725
              ],
              [
                -37.07242048,
                -10.91586305
              ],
              [
                -37.07236705,
                -10.91587135
              ]
            ]
          ]
        ]
      },
      "properties": {
        "objectid": 328880,
        "inscricao_lote": "18010710221",
        "quadra": "1801071",
        "area": 111.3
      }
    },
    {
      "type": "Feature",
      "id": "malha_lote.95590",
      "geometry": {
        "type": "MultiPolygon",
        "coordinates": [
          [
            [
              [
                -37.07399502,
                -10.91642446
              ],
              [
                -37.07381164,
                -10.91644856
              ],
              [
                -37.07378387,
                -10.91645222
              ],
              [
                -37.07377236,
                -10.91645366
              ],
              [
                -37.07375146,
                -10.91645629
              ],
              [
                -37.07364407,
                -10.91646978
              ],
              [
                -37.07359865,
                -10.91647549
              ],
              [
                -37.07351959,
                -10.91648662
              ],
              [
                -37.07347238,
                -10.91649289
              ],
              [
                -37.0734386,
                -10.91649738
              ],
              [
                -37.07339309,
                -10.91650332
              ],
              [
                -37.07325853,
                -10.91652317
              ],
              [
                -37.0732512,
                -10.91654343
              ],
              [
                -37.07326015,
                -10.91660087
              ],
              [
                -37.07327629,
                -10.91671877
              ],
              [
                -37.07327794,
                -10.91673086
              ],
              [
                -37.07328388,
                -10.91677614
              ],
              [
                -37.07328666,
                -10.91679737
              ],
              [
                -37.07329339,
                -10.91684911
              ],
              [
                -37.07329708,
                -10.91687748
              ],
              [
                -37.07330419,
                -10.91692973
              ],
              [
                -37.07330709,
                -10.91695109
              ],
              [
                -37.0733158,
                -10.91701477
              ],
              [
                -37.07331943,
                -10.91704135
              ],
              [
                -37.07332093,
                -10.91705232
              ],
              [
                -37.07332903,
                -10.91711295
              ],
              [
                -37.07333183,
                -10.91713395
              ],
              [
                -37.0733417,
                -10.91721126
              ],
              [
                -37.07335663,
                -10.91732153
              ],
              [
                -37.07336043,
                -10.91735007
              ],
              [
                -37.07336333,
                -10.91737183
              ],
              [
                -37.07336862,
                -10.91741152
              ],
              [
                -37.0733711,
                -10.91742832
              ],
              [
                -37.0733832,
                -10.91751022
              ],
              [
                -37.07339322,
                -10.9175913
              ],
              [
                -37.07340615,
                -10.91769348
              ],
              [
                -37.0734137,
                -10.91775612
              ],
              [
                -37.07343101,
                -10.91788769
              ],
              [
                -37.07344394,
                -10.91799211
              ],
              [
                -37.07344566,
                -10.91800488
              ],
              [
                -37.07347153,
                -10.91819708
              ],
              [
                -37.07347379,
                -10.91821386
              ],
              [
                -37.07349053,
                -10.9182265
              ],
              [
                -37.07363123,
                -10.91823258
              ],
              [
                -37.07375168,
                -10.91823875
              ],
              [
                -37.07390699,
                -10.91824652
              ],
              [
                -37.07408153,
                -10.91825548
              ],
              [
                -37.07417317,
                -10.91826017
              ],
              [
                -37.07421303,
                -10.9182622
              ],
              [
                -37.07425287,
                -10.91826424
              ],
              [
                -37.07438549,
                -10.91827049
              ],
              [
                -37.0744544,
                -10.91827436
              ],
              [
                -37.07455526,
                -10.91822924
              ],
              [
                -37.07454085,
                -10.91813797
              ],
              [
                -37.07453317,
                -10.91807886
              ],
              [
                -37.07452897,
                -10.91804146
              ],
              [
                -37.07451875,
                -10.91796919
              ],
              [
                -37.07451561,
                -10.91794702
              ],
              [
                -37.07451326,
                -10.91793041
              ],
              [
                -37.0744907,
                -10.91777447
              ],
              [
                -37.07446766,
                -10.9176067
              ],
              [
                -37.07445114,
                -10.91749105
              ],
              [
                -37.07443125,
                -10.91747688
              ],
              [
                -37.07442436,
                -10.91743782
              ],
              [
                -37.0744161,
                -10.91738491
              ],
              [
                -37.07441427,
                -10.91737027
              ],
              [
                -37.07443213,
                -10.9173676
              ],
              [
                -37.07441957,
                -10.91727888
              ],
              [
                -37.07441979,
                -10.91727178
              ],
              [
                -37.07441489,
                -10.91722144
              ],
              [
                -37.0744036,
                -10.91714544
              ],
              [
                -37.07440109,
                -10.91712854
              ],
              [
                -37.07438791,
                -10.91703988
              ],
              [
                -37.07438289,
                -10.91700619
              ],
              [
                -37.07437405,
                -10.91694126
              ],
              [
                -37.07436705,
                -10.91688564
              ],
              [
                -37.07432466,
                -10.9165856
              ],
              [
                -37.07432318,
                -10.91657513
              ],
              [
                -37.07432061,
                -10.91655696
              ],
              [
                -37.07430857,
                -10.91647171
              ],
              [
                -37.07429867,
                -10.91640156
              ],
              [
                -37.07429124,
                -10.91639592
              ],
              [
                -37.07427721,
                -10.91638528
              ],
              [
                -37.07420436,
                -10.91639541
              ],
              [
                -37.07403066,
                -10.91641977
              ],
              [
                -37.07399502,
                -10.91642446
              ]
            ]
          ]
        ]
      },
      "properties": {
        "objectid": 326586,
        "inscricao_lote": "18010740632",
        "quadra": "1801074",
        "area": 23254.67
      }
    },
    {
      "type": "Feature",
      "id": "malha_lote.96456",
      "geometry": {
        "type": "MultiPolygon",
        "coordinates": [
          [
            [
              [
                -37.07244471,
                -10.91666931
              ],
              [
                -37.07246922,
                -10.91684059
              ],
              [
                -37.07247158,
                -10.91685708
              ],
              [
                -37.07250025,
                -10.91685314
              ],
              [
                -37.0725594,
                -10.91684499
              ],
              [
                -37.07255698,
                -10.91682829
              ],
              [
                -37.07253223,
                -10.9166571
              ],
              [
                -37.07244471,
                -10.91666931
              ]
            ]
          ]
        ]
      },
      "properties": {
        "objectid": 327556,
        "inscricao_lote": "18010750074",
        "quadra": "1801075",
        "area": 203.15
      }
    }
  ]
}
