{
  "type": "FeatureCollection",
  "features": [
    {
      "type": "Feature",
      "id": "DE-NRW-05400700400095______",
      "geometry": {
        "type": "MultiPolygon",
        "coordinates": [
          [
            [
              [
                7.09174965267535,
                50.78186391218706
              ],
              [
                7.091860271773656,
                50.781689488195546
              ],
              [
                7.091947523216753,
                50.78142381702634
              ],
              [
                7.091969952020065,
                50.7813555071055
              ],
              [
                7.092010798053182,
                50.781362030440675
              ],
              [
                7.092010373258316,
                50.78136333860516
              ],
              [
                7.091999528917702,
                50.7813963583137
              ],
              [
                7.091988507536761,
                50.78142920676439
              ],
              [
                7.091977263348083,
                50.78146202485076
              ],
              [
                7.091965746750032,
                50.78149495294338
              ],
              [
                7.091965286083108,
                50.78149625621926
              ],
              [
                7.091960505901436,
                50.78150950983103
              ],
              [
                7.091953056176821,
                50.781529626306074
              ],
              [
                7.091945384180734,
                50.78154970917521
              ],
              [
                7.09194021529111,
                50.781562904017
              ],
              [
                7.091912587566253,
                50.78162928512342
              ],
              [
                7.091911015067013,
                50.78163285359109
              ],
              [
                7.091902821183766,
                50.78165111587125
              ],
              [
                7.091894466353664,
                50.781669196653276
              ],
              [
                7.091885955758139,
                50.78168709685783
              ],
              [
                7.091877226475304,
                50.78170495468528
              ],
              [
                7.091868208800046,
                50.781722907021795
              ],
              [
                7.091858897624059,
                50.78174095279405
              ],
              [
                7.091857054503577,
                50.781744468820996
              ],
              [
                7.091855208011358,
                50.781747978821635
              ],
              [
                7.091845596021552,
                50.78176596793909
              ],
              [
                7.091835837442483,
                50.781783770734755
              ],
              [
                7.091825937375877,
                50.78180138829025
              ],
              [
                7.091815822194357,
                50.78181895666384
              ],
              [
                7.0918054116009825,
                50.78183661038885
              ],
              [
                7.091794700578854,
                50.78185434823353
              ],
              [
                7.091792588355803,
                50.78185779747995
              ],
              [
                7.091825403031239,
                50.781892600971624
              ],
              [
                7.091773724518935,
                50.781873030130846
              ],
              [
                7.09174965267535,
                50.78186391218706
              ]
            ]
          ]
        ]
      },
      "properties": {
        "parcelId": "DE-NRW-05400700400095______",
        "id": "DE-NRW-05400700400095______",
        "sourceId": "de-nrw-lika-flurstueck",
        "sourceParcelId": "05400700400095______",
        "parcelNumber": "05400700400095______",
        "cadMunicipalityName": null,
        "ownershipType": "unknown",
        "sourceProperties": {
          "objid": "DENW46AL1000DTCsFL",
          "flurstid": "DENW46AL1000DTCs",
          "aktualit": "2024-09-18T08:05:01Z",
          "flaeche": 151,
          "gemarkung": "Bergheim-M\u00fcllekoven",
          "gemaschl": "054007",
          "flur": "4",
          "flstnrzae": "95",
          "gemeinde": "Troisdorf",
          "gmdschl": "05382068"
        }
      }
    },
    {
      "type": "Feature",
      "id": "DE-NRW-05400700400093______",
      "geometry": {
        "type": "MultiPolygon",
        "coordinates": [
          [
            [
              [
                7.091969952020065,
                50.7813555071055
              ],
              [
                7.092073831343402,
                50.781039229788774
              ],
              [
                7.0921127604336975,
                50.78104544291611
              ],
              [
                7.092097244174507,
                50.781092357679
              ],
              [
                7.0920786722156395,
                50.781149153215786
              ],
              [
                7.092060322998473,
                50.78120597784734
              ],
              [
                7.092045327020892,
                50.781252960570065
              ],
              [
                7.09203464296555,
                50.78128680943189
              ],
              [
                7.092033196110392,
                50.78129148503829
              ],
              [
                7.092022866156002,
                50.781324438493144
              ],
              [
                7.092012312773287,
                50.781357363480936
              ],
              [
                7.092010798053182,
                50.781362030440675
              ],
              [
                7.091969952020065,
                50.7813555071055
              ]
            ]
          ]
        ]
      },
      "properties": {
        "parcelId": "DE-NRW-05400700400093______",
        "id": "DE-NRW-05400700400093______",
        "sourceId": "de-nrw-lika-flurstueck",
        "sourceParcelId": "05400700400093______",
        "parcelNumber": "05400700400093______",
        "cadMunicipalityName": null,
        "ownershipType": "unknown",
        "sourceProperties": {
          "objid": "DENW46AL1000DTKTFL",
          "flurstid": "DENW46AL1000DTKT",
          "aktualit": "2024-09-18T08:05:01Z",
          "flaeche": 103,
          "gemarkung": "Bergheim-M\u00fcllekoven",
          "gemaschl": "054007",
          "flur": "4",
          "flstnrzae": "93",
          "gemeinde": "Troisdorf",
          "gmdschl": "05382068"
        }
      }
    },
    {
      "type": "Feature",
      "id": "DE-NRW-05400700400091______",
      "geometry": {
        "type": "MultiPolygon",
        "coordinates": [
          [
            [
              [
                7.092073831343402,
                50.781039229788774
              ],
              [
                7.0921145892279025,
                50.78091513418089
              ],
              [
                7.092234564218791,
                50.780549797867224
              ],
              [
                7.092243063963888,
                50.78052882839625
              ],
              [
                7.092290912974035,
                50.78053650050132
              ],
              [
                7.0922857611194345,
                50.780550445924845
              ],
              [
                7.0922650090802,
                50.780607015130514
              ],
              [
                7.092244530408971,
                50.78066347640302
              ],
              [
                7.092224273430054,
                50.78071996981423
              ],
              [
                7.092204188675176,
                50.78077663575625
              ],
              [
                7.092199269871903,
                50.78079061496516
              ],
              [
                7.09219203168165,
                50.78081195583232
              ],
              [
                7.092190777011047,
                50.780815562280985
              ],
              [
                7.092171213609411,
                50.7808721535056
              ],
              [
                7.092151921388836,
                50.78092863459382
              ],
              [
                7.092132851495255,
                50.78098514602419
              ],
              [
                7.09211395729384,
                50.781041828577806
              ],
              [
                7.0921127604336975,
                50.78104544291611
              ],
              [
                7.092073831343402,
                50.781039229788774
              ]
            ]
          ]
        ]
      },
      "properties": {
        "parcelId": "DE-NRW-05400700400091______",
        "id": "DE-NRW-05400700400091______",
        "sourceId": "de-nrw-lika-flurstueck",
        "sourceParcelId": "05400700400091______",
        "parcelNumber": "05400700400091______",
        "cadMunicipalityName": null,
        "ownershipType": "unknown",
        "sourceProperties": {
          "objid": "DENW46AL1000DTMWFL",
          "flurstid": "DENW46AL1000DTMW",
          "aktualit": "2024-09-18T08:05:01Z",
          "flaeche": 179,
          "gemarkung": "Bergheim-M\u00fcllekoven",
          "gemaschl": "054007",
          "flur": "4",
          "flstnrzae": "91",
          "gemeinde": "Troisdorf",
          "gmdschl": "05382068"
        }
      }
    }
  ]
}
