{
  "type": "FeatureCollection",
  "name": "Cirebon BPN Kejaksan geometry-only sample",
  "crs": {
    "type": "name",
    "properties": {
      "name": "urn:ogc:def:crs:EPSG::4326"
    }
  },
  "features": [
    {
      "type": "Feature",
      "id": "Persil_Kec_Kejaksan.501",
      "geometry": {
        "type": "MultiPolygon",
        "coordinates": [
          [
            [
              [
                108.5602,
                -6.7094
              ],
              [
                108.5603,
                -6.7095
              ],
              [
                108.5601,
                -6.7096
              ],
              [
                108.5601,
                -6.7096
              ],
              [
                108.5601,
                -6.7095
              ],
              [
                108.5601,
                -6.7095
              ],
              [
                108.5602,
                -6.7094
              ],
              [
                108.5602,
                -6.7094
              ]
            ]
          ]
        ]
      },
      "properties": {}
    },
    {
      "type": "Feature",
      "id": "Persil_Kec_Kejaksan.1805",
      "geometry": {
        "type": "MultiPolygon",
        "coordinates": [
          [
            [
              [
                108.5601,
                -6.7098
              ],
              [
                108.5605,
                -6.7096
              ],
              [
                108.5606,
                -6.7098
              ],
              [
                108.5606,
                -6.7098
              ],
              [
                108.5603,
                -6.7099
              ],
              [
                108.5602,
                -6.7099
              ],
              [
                108.5602,
                -6.7099
              ],
              [
                108.5602,
                -6.7099
              ],
              [
                108.5601,
                -6.7099
              ],
              [
                108.5601,
                -6.7098
              ]
            ]
          ]
        ]
      },
      "properties": {}
    },
    {
      "type": "Feature",
      "id": "Persil_Kec_Kejaksan.1846",
      "geometry": {
        "type": "MultiPolygon",
        "coordinates": [
          [
            [
              [
                108.5601,
                -6.7098
              ],
              [
                108.5601,
                -6.7098
              ],
              [
                108.56,
                -6.7096
              ],
              [
                108.56,
                -6.7096
              ],
              [
                108.5601,
                -6.7096
              ],
              [
                108.5601,
                -6.7096
              ],
              [
                108.5603,
                -6.7095
              ],
              [
                108.5604,
                -6.7095
              ],
              [
                108.5604,
                -6.7095
              ],
              [
                108.5604,
                -6.7094
              ],
              [
                108.5605,
                -6.7094
              ],
              [
                108.5606,
                -6.7094
              ],
              [
                108.5606,
                -6.7094
              ],
              [
                108.5606,
                -6.7094
              ],
              [
                108.5606,
                -6.7094
              ],
              [
                108.5606,
                -6.7094
              ],
              [
                108.5606,
                -6.7094
              ],
              [
                108.5606,
                -6.7094
              ],
              [
                108.5606,
                -6.7094
              ],
              [
                108.5606,
                -6.7095
              ],
              [
                108.5606,
                -6.7095
              ],
              [
                108.5606,
                -6.7095
              ],
              [
                108.5606,
                -6.7096
              ],
              [
                108.5606,
                -6.7096
              ],
              [
                108.5605,
                -6.7096
              ],
              [
                108.5601,
                -6.7098
              ]
            ]
          ]
        ]
      },
      "properties": {}
    }
  ]
}
