{
  "type": "FeatureCollection",
  "features": [
    {
      "type": "Feature",
      "id": "ES-DGC-4323004YJ2742C",
      "geometry": {
        "type": "Polygon",
        "coordinates": [
          [
            [
              -0.3941840678890127,
              39.469429527424275
            ],
            [
              -0.39415132526660324,
              39.46941924388609
            ],
            [
              -0.3940734351257514,
              39.469394705001285
            ],
            [
              -0.39401013302139526,
              39.46937481742689
            ],
            [
              -0.39393223962401325,
              39.469350368463395
            ],
            [
              -0.39390087726869877,
              39.46934047616054
            ],
            [
              -0.3939156599179973,
              39.46931188934285
            ],
            [
              -0.39393970862995775,
              39.4692654926681
            ],
            [
              -0.39395360773369437,
              39.46923877788435
            ],
            [
              -0.39397465073239746,
              39.46919816953386
            ],
            [
              -0.39398730445056857,
              39.46917367902406
            ],
            [
              -0.393989054671298,
              39.469170385007274
            ],
            [
              -0.3940181149442291,
              39.4691142810784
            ],
            [
              -0.3940420406584965,
              39.469068061798076
            ],
            [
              -0.39405669361184315,
              39.46903983240475
            ],
            [
              -0.39405818657197356,
              39.4690403163238
            ],
            [
              -0.3940890909976143,
              39.46905001813845
            ],
            [
              -0.3940985133030832,
              39.469052932066695
            ],
            [
              -0.3941283826012162,
              39.46906234039512
            ],
            [
              -0.3941650333424742,
              39.46907379262871
            ],
            [
              -0.39416629739307446,
              39.46907418132535
            ],
            [
              -0.39423189847011164,
              39.46909475097888
            ],
            [
              -0.39423580340006653,
              39.46909600968353
            ],
            [
              -0.394309678927268,
              39.46911910711957
            ],
            [
              -0.39434322766676266,
              39.46912958886293
            ],
            [
              -0.39434322430715546,
              39.46912967887585
            ],
            [
              -0.3943284788286401,
              39.46915727561386
            ],
            [
              -0.39430359730431763,
              39.4692041942294
            ],
            [
              -0.3942647039848941,
              39.46927773504787
            ],
            [
              -0.3942533292907596,
              39.46929910117881
            ],
            [
              -0.39422444237077375,
              39.469353677553435
            ],
            [
              -0.39419969027566876,
              39.46940023869311
            ],
            [
              -0.3941840678890127,
              39.469429527424275
            ]
          ]
        ]
      },
      "properties": {
        "parcelId": "ES-DGC-4323004YJ2742C",
        "id": "ES-DGC-4323004YJ2742C",
        "sourceId": "es-dgc-inspire-cp-wfs",
        "sourceParcelId": "4323004YJ2742C",
        "parcelNumber": "4323004YJ2742C",
        "cadMunicipalityName": null,
        "ownershipType": "unknown",
        "sourceProperties": {
          "nationalCadastralReference": "4323004YJ2742C"
        }
      }
    },
    {
      "type": "Feature",
      "id": "ES-DGC-4323005YJ2742C",
      "geometry": {
        "type": "Polygon",
        "coordinates": [
          [
            [
              -0.39390087726869877,
              39.46934047616054
            ],
            [
              -0.39389536323093555,
              39.46933873091877
            ],
            [
              -0.39374130189572815,
              39.46929032192468
            ],
            [
              -0.3937372808291621,
              39.46928906059884
            ],
            [
              -0.39373647796002553,
              39.469288772328525
            ],
            [
              -0.39375535189102073,
              39.46925334049184
            ],
            [
              -0.3937638539845702,
              39.46923731528271
            ],
            [
              -0.3937871085041906,
              39.46919351338765
            ],
            [
              -0.3938164938319633,
              39.46913804741864
            ],
            [
              -0.3938257464734593,
              39.469120597624496
            ],
            [
              -0.39386800046443055,
              39.46913451790306
            ],
            [
              -0.3938854548120161,
              39.46914022452938
            ],
            [
              -0.3938914266558591,
              39.46914216021437
            ],
            [
              -0.39391978619848783,
              39.4691515347398
            ],
            [
              -0.39394355744833315,
              39.469159274866854
            ],
            [
              -0.39398730445056857,
              39.46917367902406
            ],
            [
              -0.39397465073239746,
              39.46919816953386
            ],
            [
              -0.39395360773369437,
              39.46923877788435
            ],
            [
              -0.39393970862995775,
              39.4692654926681
            ],
            [
              -0.3939156599179973,
              39.46931188934285
            ],
            [
              -0.39390087726869877,
              39.46934047616054
            ]
          ]
        ]
      },
      "properties": {
        "parcelId": "ES-DGC-4323005YJ2742C",
        "id": "ES-DGC-4323005YJ2742C",
        "sourceId": "es-dgc-inspire-cp-wfs",
        "sourceParcelId": "4323005YJ2742C",
        "parcelNumber": "4323005YJ2742C",
        "cadMunicipalityName": null,
        "ownershipType": "unknown",
        "sourceProperties": {
          "nationalCadastralReference": "4323005YJ2742C"
        }
      }
    },
    {
      "type": "Feature",
      "id": "ES-DGC-4323006YJ2742C",
      "geometry": {
        "type": "Polygon",
        "coordinates": [
          [
            [
              -0.39373647796002553,
              39.469288772328525
            ],
            [
              -0.39372855196319134,
              39.46928625228096
            ],
            [
              -0.39369466156551475,
              39.4692755825214
            ],
            [
              -0.3936635315518845,
              39.469265695365706
            ],
            [
              -0.3936321692760561,
              39.46925580299268
            ],
            [
              -0.3936003458273765,
              39.46924581017994
            ],
            [
              -0.39358989174063164,
              39.46924251271768
            ],
            [
              -0.3935935083582444,
              39.46923592730216
            ],
            [
              -0.3936080218694141,
              39.469208325458645
            ],
            [
              -0.3936167764246129,
              39.46919176539329
            ],
            [
              -0.3936330367930385,
              39.46916095954805
            ],
            [
              -0.3936364177704186,
              39.46915445893443
            ],
            [
              -0.3936380451503295,
              39.46915134234453
            ],
            [
              -0.3936481746355766,
              39.469132200554164
            ],
            [
              -0.3936691942501694,
              39.469092222353225
            ],
            [
              -0.39364540961430017,
              39.469084842223126
            ],
            [
              -0.39369688142685105,
              39.46898572839233
            ],
            [
              -0.39370590852579296,
              39.4689680933728
            ],
            [
              -0.3937230623933228,
              39.468935145433875
            ],
            [
              -0.3937339742617593,
              39.4689386333268
            ],
            [
              -0.39377361077969486,
              39.46895105352598
            ],
            [
              -0.3937828007870042,
              39.46895396227004
            ],
            [
              -0.3937980787559185,
              39.46895880930711
            ],
            [
              -0.39380887785718327,
              39.46896220457592
            ],
            [
              -0.39379125612069427,
              39.46899523212351
            ],
            [
              -0.39378238549810946,
              39.46901178960022
            ],
            [
              -0.3937725152216334,
              39.46903021651048
            ],
            [
              -0.39375839390598977,
              39.4690566560249
            ],
            [
              -0.3937521435699995,
              39.46906840749829
            ],
            [
              -0.3937442725792118,
              39.469083095537144
            ],
            [
              -0.3937294006622101,
              39.46911095962587
            ],
            [
              -0.3937411221459321,
              39.46911455576354
            ],
            [
              -0.3937750158349461,
              39.46912513549458
            ],
            [
              -0.3938164938319633,
              39.46913804741864
            ],
            [
              -0.3937871085041906,
              39.46919351338765
            ],
            [
              -0.3937638539845702,
              39.46923731528271
            ],
            [
              -0.39375535189102073,
              39.46925334049184
            ],
            [
              -0.39373647796002553,
              39.469288772328525
            ]
          ]
        ]
      },
      "properties": {
        "parcelId": "ES-DGC-4323006YJ2742C",
        "id": "ES-DGC-4323006YJ2742C",
        "sourceId": "es-dgc-inspire-cp-wfs",
        "sourceParcelId": "4323006YJ2742C",
        "parcelNumber": "4323006YJ2742C",
        "cadMunicipalityName": null,
        "ownershipType": "unknown",
        "sourceProperties": {
          "nationalCadastralReference": "4323006YJ2742C"
        }
      }
    }
  ]
}
