{"type":"FeatureCollection","attribution":"Municipality of Pereira SIGPER / AMCO terrain-cadastre layer; IGAC cartographic context","semantics":"Physical ground/terrain cadastral geometry only. Not a register of property rights, title, owner record, or proof of ownership.","features":[{"type":"Feature","id":696,"geometry":{"type":"Polygon","coordinates":[[[-75.7003237094205,4.81346195714742],[-75.7003237521162,4.81346158632575],[-75.7003324257833,4.81346262949391],[-75.7003325339906,4.81346264533743],[-75.7003504493488,4.81346479903267],[-75.7003777777301,4.8134680905982],[-75.700377885909,4.81346809920838],[-75.7003803915251,4.81346839753591],[-75.7004606193135,4.81347803872624],[-75.7004836198935,4.81348081318993],[-75.7005101187141,4.81348398961358],[-75.7005112998753,4.81348413860675],[-75.7005080111845,4.81351629000338],[-75.7005041928384,4.81355375920514],[-75.7004924745767,4.81355263049407],[-75.700471287404,4.81355059014056],[-75.7004480186007,4.81354835735519],[-75.7004218197782,4.81354584239798],[-75.700400145797,4.81354376148366],[-75.7003825188389,4.81354206950955],[-75.7003577029856,4.81353968737386],[-75.7003557971238,4.81353950418948],[-75.7003477932285,4.81353873589842],[-75.7003414788274,4.81353812995469],[-75.7003391907135,4.81353791031871],[-75.7003241827349,4.81353646921154],[-75.7003156541429,4.81353565056713],[-75.7003196117646,4.81349944554622],[-75.7003237094205,4.81346195714742]]]},"properties":{"OBJECTID":696}},{"type":"Feature","id":1101,"geometry":{"type":"Polygon","coordinates":[[[-75.7011762279228,4.81338018070196],[-75.7011813052635,4.81333998537741],[-75.7012484937863,4.81334786387034],[-75.701249539663,4.81334798628056],[-75.7013233280386,4.81335664314425],[-75.701345047988,4.81335918761244],[-75.7013873789312,4.813364154387],[-75.7013876313692,4.8133641805077],[-75.7015616525539,4.8133845984641],[-75.7015510652677,4.81347866880051],[-75.7014825220388,4.81347005441952],[-75.7014609005414,4.81346733780054],[-75.7014348879806,4.81346406003999],[-75.7013805186392,4.81345722453974],[-75.7013775612144,4.81345684755029],[-75.7013435420534,4.81345257099125],[-75.7013041039826,4.81344761080685],[-75.7012500681856,4.81344080108895],[-75.7011698391539,4.813430605827],[-75.7011748294813,4.81339119735841],[-75.7011762279228,4.81338018070196]]]},"properties":{"OBJECTID":1101}},{"type":"Feature","id":1102,"geometry":{"type":"Polygon","coordinates":[[[-75.6999340639592,4.81319890094197],[-75.6998980868916,4.81319495842465],[-75.6998926236404,4.81323741087215],[-75.6998793964268,4.81323596629488],[-75.6998515778039,4.81323290717958],[-75.6998321701646,4.81323078018089],[-75.6997873655731,4.81322585927526],[-75.6997935113253,4.81316839988944],[-75.6997845496853,4.81316746091225],[-75.6997894522692,4.8131215482439],[-75.699794543507,4.81307388552381],[-75.6998483413143,4.81307952831697],[-75.6999120771687,4.81308621469057],[-75.6999078530835,4.81311907495368],[-75.7001217248723,4.81314231394824],[-75.7001998663389,4.813150809027],[-75.7002275675865,4.81315381616318],[-75.7002562705206,4.8131569377468],[-75.7002515930566,4.81319731231304],[-75.7002496879048,4.81321375608465],[-75.7002474333801,4.81323324511921],[-75.7002248728739,4.81323076994162],[-75.7002119620931,4.81322935394976],[-75.7000287688169,4.81320927576875],[-75.6999340639592,4.81319890094197]]]},"properties":{"OBJECTID":1102}}]}
