{
  "type": "FeatureCollection",
  "name": "Okara PULSE exact WUP locator polygon response",
  "crs": {
    "type": "name",
    "properties": {
      "name": "EPSG:4326"
    }
  },
  "features": [
    {
      "type": "Feature",
      "geometry": {
        "type": "Polygon",
        "coordinates": [
          [
            [
              73.45231153711019,
              30.808809155134355
            ],
            [
              73.45243045788413,
              30.808624358098736
            ],
            [
              73.45243466828788,
              30.808617816146814
            ],
            [
              73.45279979123006,
              30.808073498567435
            ],
            [
              73.45281553600202,
              30.80804923325454
            ],
            [
              73.45314931313068,
              30.807534825696816
            ],
            [
              73.45315297915536,
              30.807529175589842
            ],
            [
              73.45350852336168,
              30.806991906222738
            ],
            [
              73.4535133032973,
              30.80698485415802
            ],
            [
              73.4535167663027,
              30.806979744882742
            ],
            [
              73.45373906699616,
              30.806651766958733
            ],
            [
              73.45351691452473,
              30.80659294834823
            ],
            [
              73.45295267101669,
              30.806440266538978
            ],
            [
              73.45281617829748,
              30.80641083827018
            ],
            [
              73.45256644305523,
              30.806345318462927
            ],
            [
              73.45254041616649,
              30.806440146174793
            ],
            [
              73.45239173600382,
              30.806984527787833
            ],
            [
              73.45238888205614,
              30.806994625974053
            ],
            [
              73.45236329264696,
              30.80708513308131
            ],
            [
              73.45235377319992,
              30.807096109292075
            ],
            [
              73.45212406140534,
              30.80702353866173
            ],
            [
              73.45211512855818,
              30.807020716293753
            ],
            [
              73.45203762281376,
              30.80699601709792
            ],
            [
              73.45200120870538,
              30.80698441205371
            ],
            [
              73.45164038599849,
              30.806868505045212
            ],
            [
              73.45157811029144,
              30.806984285517743
            ],
            [
              73.45156820995868,
              30.806999209044204
            ],
            [
              73.45141422704089,
              30.807241964851578
            ],
            [
              73.4512314171856,
              30.807528604638126
            ],
            [
              73.45117971554775,
              30.807645182103617
            ],
            [
              73.45120302772769,
              30.807648149505717
            ],
            [
              73.45108476721548,
              30.807836273044625
            ],
            [
              73.45107113707768,
              30.807830469416132
            ],
            [
              73.45091647413521,
              30.808072933791365
            ],
            [
              73.45086260126932,
              30.808154803909286
            ],
            [
              73.45127384641312,
              30.808354466526186
            ],
            [
              73.4514137464422,
              30.808422814234262
            ],
            [
              73.45179268008357,
              30.808617625574527
            ],
            [
              73.4521144269739,
              30.80877618542187
            ],
            [
              73.45227902348681,
              30.808859679044183
            ],
            [
              73.45231153711019,
              30.808809155134355
            ]
          ]
        ]
      },
      "properties": {
        "OBJECTID": 10854687,
        "Khasra_ID": 0,
        "Mouza_ID": 0
      }
    }
  ]
}
