{
  "type": "FeatureCollection",
  "name": "city-567-thessaloniki-samples",
  "features": [
    {
      "type": "Feature",
      "properties": {
        "KAEK": "190442128009"
      },
      "geometry": {
        "type": "Polygon",
        "coordinates": [
          [
            [
              22.945520716022912,
              40.63415881870816
            ],
            [
              22.945557197750126,
              40.6342001774976
            ],
            [
              22.945566054353225,
              40.634210112779265
            ],
            [
              22.945653666942366,
              40.63430814431249
            ],
            [
              22.945552482822517,
              40.634361494933316
            ],
            [
              22.945479649232965,
              40.634280736978084
            ],
            [
              22.945477381847525,
              40.634278968621565
            ],
            [
              22.945466122999985,
              40.634264863877114
            ],
            [
              22.945412449729705,
              40.63420310052951
            ],
            [
              22.945385016171556,
              40.63417385970066
            ],
            [
              22.945452453707567,
              40.634139340547534
            ],
            [
              22.945487112386186,
              40.634121075180275
            ],
            [
              22.945496821978697,
              40.634132485743244
            ],
            [
              22.945514558943433,
              40.634150468347784
            ],
            [
              22.945520716022912,
              40.63415881870816
            ]
          ]
        ]
      }
    }
  ]
}
