{"type":"FeatureCollection","name":"Wuppertal ALKIS parcel sample at exact WUP centroid","crs":{"type":"name","properties":{"name":"EPSG:4326"}},"features":[{"type":"Feature","properties":{"flstkennz":"05327700500316______"},"geometry":{"type":"MultiPolygon","coordinates":[[[[7.0828113951,51.2201716997],[7.084696599,51.2197487069],[7.083171745,51.2202452155],[7.0832151285,51.2202643804],[7.0847166531,51.2197768692],[7.0847603319,51.2197506315],[7.0848031231,51.2198230531],[7.0855383889,51.2199735381],[7.0856086387,51.2198991714],[7.085677625,51.2198562874],[7.0857446349,51.2198455037],[7.0858177578,51.2198264834],[7.0859085296,51.2198335533],[7.0860055124,51.2198424514],[7.0860615283,51.2198329447],[7.0861388424,51.2198154136],[7.0861657843,51.219822896],[7.0863244858,51.2198153027],[7.0864081459,51.2198239646],[7.0865372688,51.2198852431],[7.0866655885,51.2199123699],[7.0867997478,51.2198839779],[7.086927047,51.2198980745],[7.0872440556,51.2198962071],[7.0874657596,51.2199016032],[7.0876418127,51.2199076107],[7.0879207059,51.2199287437],[7.0880970726,51.2199779861],[7.0881792327,51.2199924499],[7.0883509997,51.220004097],[7.0884008359,51.2200199929],[7.0884639076,51.2200320132],[7.088545653,51.2200419733],[7.088594899,51.2200406645],[7.0886536888,51.2200630558],[7.0886703708,51.2200668987],[7.0887870895,51.2200937527],[7.0890086859,51.2201124901],[7.0890366707,51.2201148628],[7.0892707971,51.2201346587],[7.0892820709,51.2201356163],[7.0893356293,51.2201401422],[7.0904500363,51.2202600051],[7.0904767259,51.2202628779],[7.090646922,51.2203021412],[7.0908121085,51.2203129668],[7.0908412294,51.220314881],[7.091037208,51.2203277286],[7.0914120844,51.2203522989],[7.0918667979,51.2203821091],[7.0922246547,51.2202662397],[7.0922568266,51.2202709102],[7.0924399088,51.2202403057],[7.0926912971,51.2200119833],[7.0926982967,51.2199995878],[7.0927204403,51.2199603516],[7.0927501846,51.2199076865],[7.0927944704,51.2198292411],[7.0927699132,51.219803192],[7.0927778758,51.2197498301],[7.0927578181,51.2197233688],[7.0927414584,51.219644861],[7.0927635331,51.2196253009],[7.0927492554,51.2195868469],[7.0927490045,51.2195295199],[7.0927630086,51.2194994141],[7.0927916609,51.2194721191],[7.092793655,51.219429074],[7.0928190096,51.2193769309],[7.0928761178,51.2193433728],[7.0929108562,51.2192606437],[7.0929690052,51.2192192245],[7.0930153684,51.2191646359],[7.0930359193,51.2191219922],[7.093118322,51.2191090991],[7.0931757525,51.2190625329],[7.093240836,51.2190310651],[7.0933684865,51.2189708044],[7.0934738185,51.2189484911],[7.0935575613,51.2188958783],[7.0936476332,51.218866841],[7.093832216,51.2187751409],[7.0938581401,51.2187282409],[7.0939512602,51.2186780919],[7.0940621054,51.2184779098],[7.0941191837,51.2183857417],[7.0941096538,51.2183443076],[7.0941445597,51.2183267908],[7.0941760953,51.2182809624],[7.0941781529,51.2182311465],[7.0941789759,51.2182289026],[7.094233747,51.2180795539],[7.094584294,51.217925463],[7.0945963849,51.217920147],[7.0946341592,51.2178997361],[7.0947155081,51.217879702],[7.0951444448,51.2175693875],[7.0952444824,51.2175468785],[7.0952998338,51.2175498841],[7.0954149245,51.2175432592],[7.0956066379,51.2174742633],[7.0957625797,51.2174312869],[7.095847533,51.2173620458],[7.0959261794,51.217317937],[7.0959878362,51.2172899373],[7.0960759893,51.2172691137],[7.0961515655,51.2172726818],[7.0962456782,51.2172594285],[7.0962780808,51.2172629775],[7.0963261923,51.2172592367],[7.09636778,51.2172654173],[7.0964056956,51.2172745238],[7.0964676396,51.2172694073],[7.0965931219,51.2172937702],[7.0967605079,51.2172965203],[7.0968068016,51.2172910231],[7.0969195526,51.2172883337],[7.0970204489,51.2172876726],[7.0970407004,51.2172893331],[7.0971388789,51.2173153376],[7.0972836861,51.217357245],[7.0974540887,51.2173587302],[7.0975491515,51.2173467413],[7.0976899062,51.2173080749],[7.097824439,51.2172431729],[7.0979141048,51.2171887558],[7.097990382,51.2171357128],[7.0980303142,51.2171153538],[7.0980704397,51.217098991],[7.0981191156,51.2170662645],[7.0982789289,51.2170327996],[7.0984076563,51.2170447936],[7.0984522395,51.217041876],[7.0986723195,51.2169699547],[7.0987523854,51.2169434399],[7.0988238235,51.2169341327],[7.0989425766,51.2168767971],[7.0990183349,51.2168342221],[7.0990740521,51.2168147757],[7.0991770278,51.2167643062],[7.0992262541,51.2167272265],[7.0992605001,51.216681153],[7.099356456,51.2166213602],[7.0994369973,51.2165679808],[7.0994810964,51.2165455127],[7.0995720069,51.2165247672],[7.0998067964,51.2164112823],[7.0998839163,51.2164013293],[7.0999690851,51.2163909944],[7.1000601845,51.2163903425],[7.1001388649,51.216401261],[7.1002057592,51.2164115114],[7.1002448777,51.2163948796],[7.1002696698,51.216330414],[7.100301559,51.2162998153],[7.100362486,51.2162849226],[7.1004328525,51.2162796979],[7.1004782866,51.2162828728],[7.1005473076,51.2163051185],[7.1006117841,51.2163034854],[7.1006804687,51.2163213818],[7.1007857336,51.2163613479],[7.100820159,51.2163721051],[7.1008935323,51.2163755894],[7.1009533296,51.216392667],[7.1010213336,51.2163919632],[7.1011042798,51.2164530335],[7.1011921401,51.2164715917],[7.1012256009,51.2164689062],[7.1012465576,51.2164516825],[7.1013384603,51.2164196743],[7.1015938769,51.2163375742],[7.1016731582,51.2163394632],[7.1017584624,51.2163442738],[7.1017771622,51.2163258623],[7.101797947,51.2163128086],[7.101883808,51.2162988592],[7.1019776977,51.2162860653],[7.1020301958,51.2162752078],[7.1022515114,51.2162485719],[7.1022927545,51.2162321358],[7.1023387865,51.2162005788],[7.1023636779,51.2161322293],[7.1024265054,51.2160603043],[7.1024368638,51.2160072415],[7.1024600811,51.2159527864],[7.1024833751,51.2158978558],[7.1025230653,51.2158679856],[7.1025373696,51.2158572099],[7.1026869388,51.21581395],[7.1027863548,51.2157555235],[7.1028524978,51.2156422833],[7.1029122423,51.2154997202],[7.1028704229,51.2154204773],[7.1028618523,51.2152998021],[7.1028678238,51.2152367485],[7.1029246922,51.2151798083],[7.1029896851,51.2151537296],[7.1030413048,51.2151453935],[7.1031438053,51.2150805056],[7.1032447851,51.2150756048],[7.1033349534,51.2150191503],[7.103376183,51.2149448242],[7.10339555,51.2148864574],[7.1034231084,51.2148451396],[7.1034928229,51.2147940461],[7.1035322793,51.2147517071],[7.1036248675,51.2147311206],[7.1037350168,51.2146870406],[7.1039425101,51.2146320736],[7.1040436122,51.2145966331],[7.1041356813,51.2146207341],[7.1041712453,51.2146295572],[7.1042280822,51.2146235175],[7.1042873783,51.2146353422],[7.1043662267,51.2146435176],[7.1044239616,51.2146281664],[7.1046422925,51.2146084293],[7.1046950201,51.2146121434],[7.1047041007,51.2146152223],[7.1046859769,51.2148110619],[7.1047138827,51.2149770702],[7.1047621175,51.2151585255],[7.104846224,51.2153521451],[7.1049168147,51.2154857678],[7.105062273,51.2156869011],[7.1052034208,51.2158580799],[7.1053753136,51.2160320498],[7.1055384156,51.2162147353],[7.1056776911,51.2163677709],[7.1058083508,51.2165147852],[7.1059588633,51.2166871489],[7.1061358873,51.2168709133],[7.1062507225,51.2170794364],[7.1063371013,51.2173501635],[7.1063535862,51.2175964488],[7.1063156603,51.2178401626],[7.106188044,51.2180968678],[7.1061134576,51.2182076439],[7.1060420427,51.218313714],[7.1058904981,51.2185186981],[7.1057542433,51.2187307285],[7.1056338724,51.2189360372],[7.1055398774,51.2191218439],[7.1054117761,51.2191069721],[7.1053446239,51.2191060195],[7.1052631593,51.2191048711],[7.1052122787,51.2190720942],[7.1047594573,51.219276298],[7.1046624123,51.2192953563],[7.1045662912,51.2193142317],[7.1044189762,51.2193431683],[7.1042047603,51.2194291528],[7.1038606038,51.2195941229],[7.1037389781,51.2196436288],[7.1035876439,51.2196898292],[7.1033430265,51.2197495807],[7.1030580196,51.2198150172],[7.1021952259,51.2199728311],[7.1019352626,51.2200020686],[7.1015531019,51.2200333607],[7.1013267484,51.2200615595],[7.1011003811,51.22011305],[7.100900221,51.2202010553],[7.1005867006,51.2203428879],[7.1001699098,51.2204113578],[7.1000705416,51.220433864],[7.09998928,51.2204600726],[7.0997924754,51.2205325812],[7.0996526718,51.2205886405],[7.0995636201,51.2206541126],[7.0994777311,51.2207140691],[7.099379592,51.2207588619],[7.0992960852,51.2207867063],[7.0992161332,51.2208130795],[7.0989422904,51.2209214591],[7.0988273954,51.2209717977],[7.0987107943,51.2210225222],[7.0985949001,51.2210724217],[7.098508663,51.2211056801],[7.098402859,51.2211470289],[7.0980579734,51.2212823106],[7.0979761038,51.2213061787],[7.0978936043,51.2213220504],[7.0977123501,51.2213447791],[7.0976538849,51.2213539639],[7.0975852225,51.2213739275],[7.0975297075,51.2214171455],[7.0974986961,51.2214488999],[7.0974770478,51.221477596],[7.0973392633,51.2216779816],[7.0972889169,51.2217281634],[7.0971714592,51.2218329038],[7.0969659119,51.2220070508],[7.0968756122,51.2220741463],[7.0967851376,51.2221281177],[7.0965072798,51.2222598897],[7.0964437458,51.2222964386],[7.0963718447,51.2223431307],[7.096346779,51.2224088051],[7.0963656964,51.2224695743],[7.0964330593,51.2226234652],[7.0964427056,51.2226680486],[7.0964359739,51.2227218625],[7.0964109479,51.2227949029],[7.0963892506,51.2228518277],[7.0963673792,51.2228952689],[7.0962967692,51.2229897809],[7.0962616916,51.2230433223],[7.0962178727,51.2231032326],[7.0961755008,51.2232051198],[7.0962166191,51.2233751582],[7.0963696145,51.2233801118],[7.0969185871,51.2234396925],[7.0972814945,51.223915221],[7.0974374622,51.2241228387],[7.097477853,51.2243398184],[7.0975449601,51.2246087636],[7.0977037763,51.224917574],[7.0968632778,51.2252646951],[7.0962560984,51.2255145231],[7.0957144906,51.2255882129],[7.0956751642,51.2255149346],[7.0955879391,51.2254764628],[7.0953907697,51.2255310977],[7.0951159141,51.2256072562],[7.0948168664,51.2256671292],[7.0944754126,51.2257688666],[7.0944089984,51.2257886492],[7.0943253263,51.2257744351],[7.0940112338,51.2257210521],[7.0938804107,51.2256320104],[7.0934621058,51.2253472322],[7.0932429416,51.2252069817],[7.0931784771,51.2251657404],[7.0931298809,51.2250895312],[7.0930647605,51.2250475327],[7.0929716974,51.2249875239],[7.0927217912,51.2248263746],[7.0922654701,51.2244305535],[7.0922141894,51.2243860642],[7.0921399506,51.2243318746],[7.0918974955,51.224154864],[7.0918483685,51.224104717],[7.0916425433,51.2238946596],[7.0912247968,51.2236282465],[7.0905386556,51.2234582569],[7.0903384929,51.2234392608],[7.0900631859,51.2232987982],[7.0892993839,51.2230206578],[7.0892584115,51.2230057434],[7.0892553641,51.2230046325],[7.0880741676,51.2225744888],[7.0871109653,51.2220973466],[7.0864733299,51.2218516205],[7.0852580568,51.2213832719],[7.08418875,51.2208953484],[7.0841667923,51.2209582023],[7.0831479089,51.2203449826],[7.083132261,51.2203355622],[7.0830467232,51.2202928097],[7.0828514748,51.2201952353],[7.0828113951,51.2201716997]]]]}}]}
