{"type":"FeatureCollection","name":"city-7302-minneapolis-saint-paul-samples","features":[{"type":"Feature","properties":{"COUNTY_PIN":"2502924130003"},"geometry":{"type":"Polygon","coordinates":[[[-93.231876,44.972531],[-93.236629,44.972507],[-93.237595,44.972503],[-93.237598,44.972612],[-93.237598,44.972794],[-93.237598,44.972976],[-93.237598,44.973158],[-93.237597,44.973339],[-93.237597,44.973521],[-93.237228,44.973523],[-93.236782,44.973525],[-93.236473,44.973527],[-93.235835,44.97353],[-93.235198,44.973533],[-93.234889,44.973534],[-93.234251,44.973537],[-93.233614,44.97354],[-93.233305,44.973542],[-93.232667,44.973545],[-93.23203,44.973548],[-93.231875,44.973549],[-93.231876,44.972531]]]}},{"type":"Feature","properties":{"COUNTY_PIN":"2502924130005"},"geometry":{"type":"Polygon","coordinates":[[[-93.23663,44.971638],[-93.236784,44.971712],[-93.237069,44.97185],[-93.237374,44.971998],[-93.237392,44.97203],[-93.237491,44.972212],[-93.237591,44.972393],[-93.237595,44.972503],[-93.236629,44.972507],[-93.23663,44.971638]]]}}]}
