{
  "type": "FeatureCollection",
  "features": [
    {
      "type": "Feature",
      "properties": {
        "flstkennz": "140209___00622001002"
      },
      "geometry": {
        "type": "Polygon",
        "coordinates": [
          [
            [
              13.7507559812,
              51.0413878371
            ],
            [
              13.7516595501,
              51.0410272112
            ],
            [
              13.7522697792,
              51.0416348395
            ],
            [
              13.7513662006,
              51.04199556
            ],
            [
              13.7507559812,
              51.0413878371
            ]
          ]
        ]
      }
    }
  ]
}
