{
  "type": "FeatureCollection",
  "name": "Santos official municipal parcel sample",
  "features": [
    {
      "type": "Feature",
      "id": "lotes.20499",
      "properties": {
        "lote": "55044022"
      },
      "geometry": {
        "type": "Polygon",
        "coordinates": [
          [
            [
              -46.33318037,
              -23.96063922
            ],
            [
              -46.33288804,
              -23.96067163
            ],
            [
              -46.33288013,
              -23.96061231
            ],
            [
              -46.33317357,
              -23.96058111
            ],
            [
              -46.33318037,
              -23.96063922
            ]
          ]
        ]
      }
    },
    {
      "type": "Feature",
      "id": "lotes.19812",
      "properties": {
        "lote": "55043019"
      },
      "geometry": {
        "type": "Polygon",
        "coordinates": [
          [
            [
              -46.33333504,
              -23.96078133
            ],
            [
              -46.33384865,
              -23.96072763
            ],
            [
              -46.33385636,
              -23.96078833
            ],
            [
              -46.33385991,
              -23.96081619
            ],
            [
              -46.33375103,
              -23.96082873
            ],
            [
              -46.33334534,
              -23.96087142
            ],
            [
              -46.33333504,
              -23.96078133
            ]
          ]
        ]
      }
    },
    {
      "type": "Feature",
      "id": "lotes.20142",
      "properties": {
        "lote": "55043018"
      },
      "geometry": {
        "type": "Polygon",
        "coordinates": [
          [
            [
              -46.33383953,
              -23.96065589
            ],
            [
              -46.33384216,
              -23.96067655
            ],
            [
              -46.33384865,
              -23.96072763
            ],
            [
              -46.33333504,
              -23.96078133
            ],
            [
              -46.33332679,
              -23.96070916
            ],
            [
              -46.33383953,
              -23.96065589
            ]
          ]
        ]
      }
    }
  ]
}
