{
  "type": "FeatureCollection",
  "name": "baltimore_city_safe_parcel_sample",
  "crs": {
    "type": "name",
    "properties": {
      "name": "urn:ogc:def:crs:OGC:1.3:CRS84"
    }
  },
  "features": [
    {
      "type": "Feature",
      "id": "3559 001",
      "properties": {
        "OBJECTID": 31357,
        "BLOCKLOT": "3559 001"
      },
      "geometry": {
        "type": "Polygon",
        "coordinates": [
          [
            [
              -76.62500603705686,
              39.32559662389584
            ],
            [
              -76.62507038825306,
              39.32568064636507
            ],
            [
              -76.62509259463357,
              39.32571401241155
            ],
            [
              -76.62511878551213,
              39.3257533653514
            ],
            [
              -76.62522670936701,
              39.32589331718866
            ],
            [
              -76.62573094041423,
              39.326527951689734
            ],
            [
              -76.62600881807052,
              39.32687767672371
            ],
            [
              -76.62603195709646,
              39.32690732046392
            ],
            [
              -76.626290276912,
              39.32701137319903
            ],
            [
              -76.62661211530035,
              39.32700156798415
            ],
            [
              -76.62663297792982,
              39.327000931411014
            ],
            [
              -76.62662056626102,
              39.326726534823656
            ],
            [
              -76.62661968795148,
              39.326707040720294
            ],
            [
              -76.62661809688696,
              39.3266716712881
            ],
            [
              -76.62738905787377,
              39.32664820111315
            ],
            [
              -76.62739156209086,
              39.32670309144957
            ],
            [
              -76.62740394249936,
              39.326977459735126
            ],
            [
              -76.62768229750401,
              39.326969006586005
            ],
            [
              -76.62765958572099,
              39.32652770789887
            ],
            [
              -76.62762188793488,
              39.32579701274359
            ],
            [
              -76.62725088245637,
              39.32577961085661
            ],
            [
              -76.62725590072138,
              39.32571258231398
            ],
            [
              -76.62725878918627,
              39.32567404460063
            ],
            [
              -76.62726156459235,
              39.325637044354764
            ],
            [
              -76.62726430322212,
              39.325600153635754
            ],
            [
              -76.62726700299125,
              39.32556411323645
            ],
            [
              -76.62726993009436,
              39.325525108954004
            ],
            [
              -76.62727266669073,
              39.32548860338662
            ],
            [
              -76.62727547878225,
              39.325451163273236
            ],
            [
              -76.6272782931093,
              39.32541364163629
            ],
            [
              -76.62728106798565,
              39.325376393983625
            ],
            [
              -76.62728376758994,
              39.32534038169483
            ],
            [
              -76.62728646878011,
              39.32530406718684
            ],
            [
              -76.62728935547528,
              39.32526585979991
            ],
            [
              -76.6272920950216,
              39.32522913354498
            ],
            [
              -76.62729483333162,
              39.32519229764164
            ],
            [
              -76.62729764582825,
              39.32515477599555
            ],
            [
              -76.62730042119372,
              39.325117775742825
            ],
            [
              -76.6273031559562,
              39.32508126875872
            ],
            [
              -76.62730597011351,
              39.32504377382455
            ],
            [
              -76.62730874575843,
              39.32500671874932
            ],
            [
              -76.6273114844797,
              39.324969801314275
            ],
            [
              -76.62731422126191,
              39.32493359655846
            ],
            [
              -76.62731699465984,
              39.32489662300478
            ],
            [
              -76.62731973460609,
              39.32485981521623
            ],
            [
              -76.62732269979129,
              39.3248200969534
            ],
            [
              -76.62732532399696,
              39.324784992495495
            ],
            [
              -76.62732787019915,
              39.32475095471002
            ],
            [
              -76.62733064495676,
              39.32471406409412
            ],
            [
              -76.62733349577671,
              39.32467613069546
            ],
            [
              -76.62733631010902,
              39.32463825200263
            ],
            [
              -76.62733920073225,
              39.32459963134577
            ],
            [
              -76.62734197677094,
              39.324562494735886
            ],
            [
              -76.62734482173511,
              39.324525328824514
            ],
            [
              -76.6273476015284,
              39.32448747672832
            ],
            [
              -76.62735030149351,
              39.32445138289927
            ],
            [
              -76.62735311133828,
              39.324414354632964
            ],
            [
              -76.62735638299036,
              39.32437038230558
            ],
            [
              -76.62735923565923,
              39.32433209186242
            ],
            [
              -76.6273622754167,
              39.32429160632077
            ],
            [
              -76.627375733987,
              39.32411173585287
            ],
            [
              -76.62752372386717,
              39.322324560355426
            ],
            [
              -76.62753310757812,
              39.32226083910454
            ],
            [
              -76.62754140251883,
              39.32222901801049
            ],
            [
              -76.6275704271562,
              39.32219506550663
            ],
            [
              -76.62757323405744,
              39.3221585587127
            ],
            [
              -76.62785569317472,
              39.322172797656584
            ],
            [
              -76.6278662938342,
              39.322173352733465
            ],
            [
              -76.62766243910005,
              39.32196410365383
            ],
            [
              -76.62740097964506,
              39.32169572666244
            ],
            [
              -76.62683964384497,
              39.32112211389151
            ],
            [
              -76.62680107884219,
              39.32109577244395
            ],
            [
              -76.62676467372508,
              39.32108165472537
            ],
            [
              -76.62627338153503,
              39.32096198292159
            ],
            [
              -76.62622450820996,
              39.32095284933595
            ],
            [
              -76.62581646606638,
              39.320938922191196
            ],
            [
              -76.62578836379232,
              39.321093293148444
            ],
            [
              -76.62523822883409,
              39.32123965958875
            ],
            [
              -76.62510899104336,
              39.3216960162843
            ],
            [
              -76.62505974198525,
              39.32184480223657
            ],
            [
              -76.62507277903995,
              39.32189934115086
            ],
            [
              -76.62508585206335,
              39.32196077229175
            ],
            [
              -76.62508780580104,
              39.32196332564023
            ],
            [
              -76.62520461114255,
              39.32211605283694
            ],
            [
              -76.62499928415059,
              39.322208249551174
            ],
            [
              -76.6246915190736,
              39.32234753427588
            ],
            [
              -76.62476469831535,
              39.32243916610008
            ],
            [
              -76.62471983052802,
              39.32246159124847
            ],
            [
              -76.62478609139458,
              39.32254460796335
            ],
            [
              -76.62450232466696,
              39.32267732408392
            ],
            [
              -76.62449169292957,
              39.32268228594974
            ],
            [
              -76.62499945888719,
              39.32331814450151
            ],
            [
              -76.62503710387772,
              39.32336524004376
            ],
            [
              -76.62499955767312,
              39.32364713734017
            ],
            [
              -76.62496541241116,
              39.32379377425971
            ],
            [
              -76.62499960542705,
              39.32383863498604
            ],
            [
              -76.62505906802502,
              39.32391726373543
            ],
            [
              -76.62499959987333,
              39.323946450174795
            ],
            [
              -76.6247732668805,
              39.324052830346936
            ],
            [
              -76.62467544347064,
              39.323928668068866
            ],
            [
              -76.62466982546105,
              39.32392154013615
            ],
            [
              -76.62460572046801,
              39.323951727885174
            ],
            [
              -76.62456312658637,
              39.32397177055191
            ],
            [
              -76.62452148682088,
              39.323991404383335
            ],
            [
              -76.62445383826963,
              39.32402325631427
            ],
            [
              -76.62447543824759,
              39.324049655353456
            ],
            [
              -76.62450241499442,
              39.324081917840886
            ],
            [
              -76.62452032678692,
              39.32410382936362
            ],
            [
              -76.62452706995806,
              39.32411208826283
            ],
            [
              -76.62453195059797,
              39.32411833528865
            ],
            [
              -76.62455256110584,
              39.32414464821598
            ],
            [
              -76.62462629259007,
              39.324238944215516
            ],
            [
              -76.62467495749205,
              39.324301175000386
            ],
            [
              -76.62470357105927,
              39.32433778203749
            ],
            [
              -76.6247297991644,
              39.324371332504256
            ],
            [
              -76.62475019923103,
              39.324397425434476
            ],
            [
              -76.62477983236354,
              39.32443529801846
            ],
            [
              -76.62480363912168,
              39.32446573978047
            ],
            [
              -76.6248289541801,
              39.324498106527365
            ],
            [
              -76.62498235477204,
              39.32469429654187
            ],
            [
              -76.62514755575546,
              39.32491185394726
            ],
            [
              -76.62515093743502,
              39.324916142253045
            ],
            [
              -76.62516602464356,
              39.32493527685462
            ],
            [
              -76.62535029909145,
              39.32516928514806
            ],
            [
              -76.62534500934096,
              39.32521371766975
            ],
            [
              -76.62533742354967,
              39.32527788440798
            ],
            [
              -76.62533035918656,
              39.32533721863254
            ],
            [
              -76.62532281066031,
              39.32540083586079
            ],
            [
              -76.62531670601007,
              39.32545254023529
            ],
            [
              -76.62530887360721,
              39.325456167254266
            ],
            [
              -76.62526277166053,
              39.32547754563695
            ],
            [
              -76.6252213832815,
              39.32549674193501
            ],
            [
              -76.62518095099553,
              39.325515501285935
            ],
            [
              -76.62513853211134,
              39.325535160958175
            ],
            [
              -76.6250971089881,
              39.32555441192356
            ],
            [
              -76.62505589665452,
              39.325573499080754
            ],
            [
              -76.62500603705686,
              39.32559662389584
            ]
          ]
        ]
      }
    }
  ]
}
