{"type":"FeatureCollection","features":[{"type":"Feature","id":"80598974","properties":{"sourceObjectId":80598974},"geometry":{"type":"Polygon","coordinates":[[[103.8119330509379,1.4393089553478733],[103.81203242600412,1.440358741644336],[103.81171521501388,1.4410124127007882],[103.81140887704652,1.4416479965384108],[103.81131641351656,1.4414211812340525],[103.81120714630158,1.441186949979501],[103.81108628714327,1.4409586874058522],[103.81095419548055,1.4407366648239806],[103.81081105102616,1.4405217865974482],[103.81065757265709,1.440314324040531],[103.81049402994935,1.4401147293357457],[103.80915037401202,1.4385610186111417],[103.807900981414,1.4371144752536564],[103.80665150052458,1.4356679312172367],[103.8054019313444,1.434221205631097],[103.80415757549801,1.4327806291109],[103.80290297739371,1.4313279333144058],[103.80185208869486,1.4301116403298735],[103.80080120110027,1.4288952564365578],[103.79975076390906,1.427678510333205],[103.79869960893443,1.4264624872403926],[103.79755662069208,1.4251390238396309],[103.79641345403182,1.4238155598831508],[103.7962772315197,1.4235753586903377],[103.79614460200936,1.4234217955887145],[103.79601772338937,1.4232748344281854],[103.79599148511501,1.4232395638172826],[103.79596767298469,1.4232074585185268],[103.79592786662141,1.423133390483756],[103.7958992927221,1.4230542581951457],[103.79588249041221,1.422971779952884],[103.79587790895803,1.4228876740555294],[103.79588554832614,1.42280393010322],[103.79590522877241,1.4227220855111298],[103.79593668068796,1.422644039438263],[103.79597909531296,1.4225715101619463],[103.79603157403335,1.422505944648847],[103.79609303851593,1.4224488802990374],[103.79618325812402,1.422376532667071],[103.79700842511492,1.4229086734839513],[103.79818772354838,1.423670437413061],[103.79817090847486,1.4244245860421283],[103.79816407337628,1.424807583960986],[103.80001372216124,1.425581294775844],[103.80054288846911,1.4265825234757625],[103.80062286099299,1.426734457722665],[103.80186531191448,1.4290907043456171],[103.80191203862964,1.4290987538261424],[103.80303608581517,1.4292920315447253],[103.80316906978884,1.4298874663653047],[103.80328929454957,1.4304254739139437],[103.80340942950446,1.430963481453725],[103.80352947464763,1.4315019411664964],[103.80364960969789,1.4320408530545987],[103.80421069336047,1.4319137971985283],[103.80474508865035,1.431792890541265],[103.80485202161819,1.4317686549334716],[103.80512203425769,1.4329797821495573],[103.80515474283565,1.4330006733558438],[103.80566245001145,1.432885734958428],[103.80607221010402,1.432792952186618],[103.80596527508877,1.432986665607158],[103.80664209811346,1.432833383996183],[103.80674831224027,1.4328087865462236],[103.80695264210453,1.433723914550092],[103.807147806825,1.4346065757693003],[103.80817021966102,1.43538660099922],[103.80931313394079,1.4362548929499754],[103.8095202488046,1.4373585805767894],[103.80968863651603,1.4382518223460927],[103.81090246254199,1.4380480815361616],[103.81179944282194,1.4378974232367285],[103.8119330509379,1.4393089553478733]]]}}]}
