{"type":"FeatureCollection","name":"lodz-egib-exact-wup-parcel","source":"https://igeodeta.log.lodz.pl/cgi-bin/lodz-egib?","sourceLayer":"ms:dzialki","sourceCrs":"EPSG:3857","sampleCrs":"EPSG:4326","features":[{"type":"Feature","properties":{"id_dzialki":"106105_9.0006.98/1"},"geometry":{"type":"Polygon","coordinates":[[[19.455273861941382,51.766416642551725],[19.455509010959886,51.76643961937127],[19.45575699414597,51.7664607288361],[19.456777551024107,51.76654768319933],[19.45673867114809,51.76673954281524],[19.45561516422124,51.766645503271405],[19.455390145351483,51.76662671598551],[19.455233113039576,51.76661364856648],[19.455273861941382,51.766416642551725]]]}}]}
