{"type":"FeatureCollection","name":"city-1005-auckland-samples","features":[{"type":"Feature","properties":{"id":5211850},"geometry":{"type":"Polygon","coordinates":[[[174.77701,-36.904099],[174.776876,-36.904167],[174.776796,-36.904207],[174.776731,-36.90424],[174.776586,-36.904313],[174.776376,-36.904419],[174.776187,-36.904514],[174.776173,-36.904521],[174.776159,-36.904528],[174.775955,-36.904631],[174.775847,-36.904472],[174.776112,-36.904338],[174.776345,-36.90422],[174.776491,-36.904147],[174.776804,-36.903989],[174.77684,-36.903817],[174.776884,-36.903608],[174.776921,-36.90343],[174.77695,-36.903294],[174.776979,-36.903157],[174.777009,-36.903012],[174.777039,-36.902869],[174.777085,-36.902651],[174.77714,-36.902388],[174.777389,-36.902294],[174.777349,-36.902482],[174.777315,-36.902647],[174.77728,-36.902813],[174.777277,-36.902826],[174.777245,-36.902978],[174.77724,-36.903005],[174.77721,-36.903144],[174.777171,-36.903332],[174.777152,-36.903422],[174.777142,-36.903469],[174.777132,-36.903519],[174.7771,-36.903672],[174.777087,-36.903733],[174.777047,-36.903921],[174.777018,-36.904061],[174.777011,-36.904094],[174.77701,-36.904099]]]}}]}
