{
  "type": "FeatureCollection",
  "features": [
    {
      "type": "Feature",
      "id": "US-FL-FORT-LAUDERDALE-ROW-92851",
      "geometry": {
        "type": "Polygon",
        "coordinates": [
          [
            [
              -80.20115503972487,
              26.21168324488241
            ],
            [
              -80.2011190701999,
              26.212903421309427
            ],
            [
              -80.20335646694659,
              26.212893524775588
            ],
            [
              -80.2033495656664,
              26.211673164938492
            ],
            [
              -80.20115503972487,
              26.21168324488241
            ]
          ]
        ]
      },
      "properties": {
        "parcelId": "US-FL-FORT-LAUDERDALE-ROW-92851",
        "id": "US-FL-FORT-LAUDERDALE-ROW-92851",
        "sourceId": "us-fl-fort-lauderdale-taxparcels-ground",
        "sourceParcelId": "92851",
        "parcelNumber": "9207010024",
        "cadMunicipalityName": null,
        "ownershipType": "unknown",
        "sourceProperties": {
          "OBJECTID": 92851,
          "PARCELID": "9207010024",
          "RECORDTYPE": "Parcel"
        }
      }
    },
    {
      "type": "Feature",
      "id": "US-FL-FORT-LAUDERDALE-ROW-97983",
      "geometry": {
        "type": "Polygon",
        "coordinates": [
          [
            [
              -80.19944128045438,
              26.21299885555158
            ],
            [
              -80.19938248108782,
              26.214960281925407
            ],
            [
              -80.2011636236093,
              26.214952429907317
            ],
            [
              -80.20115212343211,
              26.212991310357445
            ],
            [
              -80.20111647474252,
              26.212991467026907
            ],
            [
              -80.19944128045438,
              26.21299885555158
            ]
          ]
        ]
      },
      "properties": {
        "parcelId": "US-FL-FORT-LAUDERDALE-ROW-97983",
        "id": "US-FL-FORT-LAUDERDALE-ROW-97983",
        "sourceId": "us-fl-fort-lauderdale-taxparcels-ground",
        "sourceParcelId": "97983",
        "parcelNumber": "9206160030",
        "cadMunicipalityName": null,
        "ownershipType": "unknown",
        "sourceProperties": {
          "OBJECTID": 97983,
          "PARCELID": "9206160030",
          "RECORDTYPE": "Parcel"
        }
      }
    },
    {
      "type": "Feature",
      "id": "US-FL-FORT-LAUDERDALE-ROW-178045",
      "geometry": {
        "type": "Polygon",
        "coordinates": [
          [
            [
              -80.20234790506363,
              26.214947435986584
            ],
            [
              -80.2023494199046,
              26.214947604149916
            ],
            [
              -80.2023509317253,
              26.21494777500429
            ],
            [
              -80.20235244653553,
              26.214947947680407
            ],
            [
              -80.20235395833775,
              26.214948121242433
            ],
            [
              -80.20235547012152,
              26.214948297512134
            ],
            [
              -80.20235698386962,
              26.214948479208292
            ],
            [
              -80.20235849563494,
              26.21494865818563
            ],
            [
              -80.20236000736334,
              26.21494884257835
            ],
            [
              -80.20236151607145,
              26.214949029662094
            ],
            [
              -80.20236302777526,
              26.214949217665026
            ],
            [
              -80.20236453946676,
              26.214949407473085
            ],
            [
              -80.20236604713736,
              26.2149495999666
            ],
            [
              -80.2023675588104,
              26.2149497924823
            ],
            [
              -80.20236906744468,
              26.21494999039673
            ],
            [
              -80.20237057607284,
              26.214950189213702
            ],
            [
              -80.20237208368805,
              26.214950389830218
            ],
            [
              -80.20237359227927,
              26.214950594062557
            ],
            [
              -80.20237510087667,
              26.214950797392273
            ],
            [
              -80.20237660943715,
              26.214951006137387
            ],
            [
              -80.20237811398903,
              26.21495121576284
            ],
            [
              -80.20237962253104,
              26.214951427215603
            ],
            [
              -80.20238112806507,
              26.214951639554254
            ],
            [
              -80.20238263656404,
              26.214951857324923
            ],
            [
              -80.2023841410667,
              26.214952074170828
            ],
            [
              -80.20238564654537,
              26.214952294632514
            ],
            [
              -80.20238715200558,
              26.214952517801873
            ],
            [
              -80.20238865346334,
              26.21495274094901
            ],
            [
              -80.20239015889281,
              26.214952968631152
            ],
            [
              -80.20239166431612,
              26.21495319721584
            ],
            [
              -80.20239316671912,
              26.21495342849155
            ],
            [
              -80.20239466810307,
              26.21495366246939
            ],
            [
              -80.20239617048765,
              26.214953896452776
            ],
            [
              -80.2023976728353,
              26.214954135851514
            ],
            [
              -80.20239917418235,
              26.214954375244677
            ],
            [
              -80.20240067651154,
              26.214954617351076
            ],
            [
              -80.20240217884076,
              26.214954859457464
            ],
            [
              -80.2024036771306,
              26.21495510695702
            ],
            [
              -80.2024051764149,
              26.21495535536465
            ],
            [
              -80.20240667768815,
              26.214955605588507
            ],
            [
              -80.2024081769417,
              26.214955858508933
            ],
            [
              -80.20240967619524,
              26.214956111429366
            ],
            [
              -80.20241117140328,
              26.21495637064549
            ],
            [
              -80.20241267061996,
              26.21495662898127
            ],
            [
              -80.20241416881753,
              26.214956890019145
            ],
            [
              -80.20241566500775,
              26.21495715194849
            ],
            [
              -80.20241716116722,
              26.214957418390604
            ],
            [
              -80.20241865631989,
              26.214957685729754
            ],
            [
              -80.2024201524609,
              26.21495795487957
            ],
            [
              -80.20242164757668,
              26.214958227634035
            ],
            [
              -80.20242314069125,
              26.214958500377413
            ],
            [
              -80.2024246357763,
              26.214958777644682
            ],
            [
              -80.20242612885393,
              26.21495905580341
            ],
            [
              -80.20242762091254,
              26.214959336664247
            ],
            [
              -80.2024291139533,
              26.214959620238336
            ],
            [
              -80.20243060700022,
              26.21495990290982
            ],
            [
              -80.20243209602008,
              26.214960189169343
            ],
            [
              -80.20243358902394,
              26.21496047815874
            ],
            [
              -80.20243507800689,
              26.214960769833635
            ],
            [
              -80.20243656697139,
              26.214961064216194
            ],
            [
              -80.20243805693649,
              26.214961358604285
            ],
            [
              -80.20243954588256,
              26.21496165569451
            ],
            [
              -80.20244103581078,
              26.21496195549792
            ],
            [
              -80.2024425217181,
              26.214962257986844
            ],
            [
              -80.20244401162172,
              26.21496256140051
            ],
            [
              -80.20244549751058,
              26.214962866597087
            ],
            [
              -80.2024469843816,
              26.21496317450686
            ],
            [
              -80.20244847023356,
              26.214963485118798
            ],
            [
              -80.2024499530591,
              26.214963799324305
            ],
            [
              -80.20245143989322,
              26.214964112649454
            ],
            [
              -80.20245292270644,
              26.21496442866007
            ],
            [
              -80.20245440649568,
              26.214964748286448
            ],
            [
              -80.202455889272,
              26.214965069712417
            ],
            [
              -80.20245737204219,
              26.21496539204092
            ],
            [
              -80.20245885279886,
              26.214965716163455
            ],
            [
              -80.20246033553212,
              26.214966043907307
            ],
            [
              -80.20246181525127,
              26.214966373439626
            ],
            [
              -80.20246329594643,
              26.214966706587738
            ],
            [
              -80.20246477564098,
              26.214967039730272
            ],
            [
              -80.20246625232137,
              26.214967374661278
            ],
            [
              -80.20246773297963,
              26.21496771322473
            ],
            [
              -80.20246920963544,
              26.21496805176596
            ],
            [
              -80.20247068625434,
              26.214968395722554
            ],
            [
              -80.20247216387388,
              26.214968739684675
            ],
            [
              -80.20247363747248,
              26.214969086332285
            ],
            [
              -80.20247511406066,
              26.214969434801667
            ],
            [
              -80.20247658764085,
              26.214969784156928
            ],
            [
              -80.20247806220317,
              26.214970136225418
            ],
            [
              -80.20247953574646,
              26.214970490996038
            ],
            [
              -80.20248100926514,
              26.214970849376893
            ],
            [
              -80.20248247978813,
              26.21497120683852
            ],
            [
              -80.20248395027423,
              26.21497156971552
            ],
            [
              -80.20248542476278,
              26.214971932614713
            ],
            [
              -80.20248689222858,
              26.214972298182698
            ],
            [
              -80.2024883626901,
              26.21497266466991
            ],
            [
              -80.20248983011899,
              26.21497303565326
            ],
            [
              -80.20249130054977,
              26.214973406653243
            ],
            [
              -80.20249276795407,
              26.214973781246844
            ],
            [
              -80.20249423636517,
              26.214974154943388
            ],
            [
              -80.20249570073689,
              26.214974534033107
            ],
            [
              -80.20249716510249,
              26.214974914025372
            ],
            [
              -80.20249863245762,
              26.2149752958394
            ],
            [
              -80.20250009680477,
              26.214975678539346
            ],
            [
              -80.20250155811317,
              26.21497606663798
            ],
            [
              -80.20250302242955,
              26.21497645385069
            ],
            [
              -80.20250448371955,
              26.214976844657
            ],
            [
              -80.20250594499105,
              26.21497723817101
            ],
            [
              -80.20250740626872,
              26.214977630782393
            ],
            [
              -80.20250886750334,
              26.214978029711745
            ],
            [
              -80.20251032573614,
              26.2149784286244
            ],
            [
              -80.20251178395046,
              26.214978830244746
            ],
            [
              -80.2025132421648,
              26.214979231865076
            ],
            [
              -80.20251470036071,
              26.214979636193085
            ],
            [
              -80.20251615551786,
              26.21498004591981
            ],
            [
              -80.20251761369532,
              26.21498045295548
            ],
            [
              -80.20251906883404,
              26.21498086538987
            ],
            [
              -80.20252052097092,
              26.214981277807585
            ],
            [
              -80.20252197607273,
              26.21498169565733
            ],
            [
              -80.2025234281912,
              26.214982110782707
            ],
            [
              -80.20252488027272,
              26.214982531323457
            ],
            [
              -80.20252633235427,
              26.214982951864197
            ],
            [
              -80.20252778439276,
              26.21498337872286
            ],
            [
              -80.20252923245343,
              26.21498380194906
            ],
            [
              -80.20253068147781,
              26.214984230596176
            ],
            [
              -80.20253213047756,
              26.214984662853528
            ],
            [
              -80.2025335794835,
              26.214985094208313
            ],
            [
              -80.20253502546915,
              26.214985528254104
            ],
            [
              -80.20253647144864,
              26.21498596320247
            ],
            [
              -80.20253791639679,
              26.21498640265808
            ],
            [
              -80.2025393623394,
              26.214986843021794
            ],
            [
              -80.20254080526172,
              26.214987286076514
            ],
            [
              -80.20254225117358,
              26.214987730953002
            ],
            [
              -80.20254369007502,
              26.214988176693208
            ],
            [
              -80.20254513296045,
              26.214988625163276
            ],
            [
              -80.20254657283175,
              26.214989075421812
            ],
            [
              -80.2025480156803,
              26.214989529307235
            ],
            [
              -80.20254945152458,
              26.214989983153792
            ],
            [
              -80.20255089133438,
              26.214990442437923
            ],
            [
              -80.20255232814236,
              26.214990901705402
            ],
            [
              -80.20255376695775,
              26.214991360081374
            ],
            [
              -80.20255520072699,
              26.214991824747557
            ],
            [
              -80.20255663749809,
              26.21499228943035
            ],
            [
              -80.2025580702483,
              26.214992756798623
            ],
            [
              -80.20255950398065,
              26.214993226880132
            ],
            [
              -80.2025609377069,
              26.214993697864198
            ],
            [
              -80.20256237042022,
              26.21499417064783
            ],
            [
              -80.20256380111385,
              26.214994646128
            ],
            [
              -80.20256523078845,
              26.214995124310345
            ],
            [
              -80.2025666584618,
              26.21499560248157
            ],
            [
              -80.20256808811799,
              26.214996083371545
            ],
            [
              -80.20256951574832,
              26.21499656786068
            ],
            [
              -80.20257094236574,
              26.21499705414938
            ],
            [
              -80.20257236698194,
              26.21499754042696
            ],
            [
              -80.20257379355631,
              26.214998033033577
            ],
            [
              -80.20257521813564,
              26.214998524726507
            ],
            [
              -80.2025766417082,
              26.214999017316448
            ],
            [
              -80.2025780632488,
              26.214999514408085
            ],
            [
              -80.20257948378261,
              26.21500001239671
            ],
            [
              -80.20258090529863,
              26.21500051309859
            ],
            [
              -80.20258232582019,
              26.215001012892337
            ],
            [
              -80.20258374331529,
              26.215001516279663
            ],
            [
              -80.20258516178026,
              26.215002024185353
            ],
            [
              -80.20258657925694,
              26.215002530280334
            ],
            [
              -80.20258799369489,
              26.215003041774057
            ],
            [
              -80.2025894121353,
              26.21500355328995
            ],
            [
              -80.20259082355297,
              26.215004067474677
            ],
            [
              -80.20259223796018,
              26.21500458348117
            ],
            [
              -80.20259365034157,
              26.215005103086813
            ],
            [
              -80.20259506172236,
              26.21500562268688
            ],
            [
              -80.20259647308472,
              26.21500614499462
            ],
            [
              -80.20259788442861,
              26.215006670010037
            ],
            [
              -80.2025992937713,
              26.21500719501437
            ],
            [
              -80.2026006990931,
              26.215007722704158
            ],
            [
              -80.20260210739212,
              26.21500825402083
            ],
            [
              -80.20260351267703,
              26.21500878712597
            ],
            [
              -80.20260491796195,
              26.21500932023112
            ],
            [
              -80.20260632422902,
              26.215009856049473
            ],
            [
              -80.20260772647522,
              26.215010394553293
            ],
            [
              -80.2026091286968,
              26.215010936667383
            ],
            [
              -80.20261053092455,
              26.2150114778789
            ],
            [
              -80.20261193013204,
              26.215012021781426
            ],
            [
              -80.2026133293149,
              26.215012569294196
            ],
            [
              -80.20261472848549,
              26.215013118612102
            ],
            [
              -80.20261612464812,
              26.215013668815875
            ],
            [
              -80.20261752380024,
              26.21501422084142
            ],
            [
              -80.20261891692411,
              26.21501477644393
            ],
            [
              -80.20292982803356,
              26.21501339987911
            ],
            [
              -80.20291445449207,
              26.2144276280335
            ],
            [
              -80.20291445248644,
              26.214427481801543
            ],
            [
              -80.2029144056263,
              26.214425694398255
            ],
            [
              -80.20291260061781,
              26.214356937132663
            ],
            [
              -80.20289627038989,
              26.213734764480584
            ],
            [
              -80.20287655779464,
              26.212983685656603
            ],
            [
              -80.20115212343211,
              26.212991310357445
            ],
            [
              -80.2011636236093,
              26.214952429907317
            ],
            [
              -80.2023458122616,
              26.214947206850773
            ],
            [
              -80.20234790506363,
              26.214947435986584
            ]
          ]
        ]
      },
      "properties": {
        "parcelId": "US-FL-FORT-LAUDERDALE-ROW-178045",
        "id": "US-FL-FORT-LAUDERDALE-ROW-178045",
        "sourceId": "us-fl-fort-lauderdale-taxparcels-ground",
        "sourceParcelId": "178045",
        "parcelNumber": "9206160020",
        "cadMunicipalityName": null,
        "ownershipType": "unknown",
        "sourceProperties": {
          "OBJECTID": 178045,
          "PARCELID": "9206160020",
          "RECORDTYPE": "Parcel"
        }
      }
    }
  ]
}
