{"type":"FeatureCollection","name":"Bordeaux parcel intersecting exact UN WUP 2025 locator","crs":{"type":"name","properties":{"name":"EPSG:4326"}},"features":[{"type":"Feature","properties":{"idu":"33063000IX0001"},"geometry":{"type":"MultiPolygon","coordinates":[[[[-0.5984518,44.83346239],[-0.59845805,44.83353023],[-0.59871253,44.83627741],[-0.59871498,44.83630184],[-0.59871592,44.83631245],[-0.59872101,44.83636816],[-0.59872378,44.83639754],[-0.59872532,44.83641372],[-0.59873452,44.83651373],[-0.59871341,44.83653028],[-0.59855304,44.83653215],[-0.59848318,44.83653297],[-0.59797778,44.83653891],[-0.59797236,44.83653945],[-0.59789478,44.83654638],[-0.59784531,44.83655313],[-0.59775815,44.83656488],[-0.59768431,44.83657475],[-0.59535282,44.83688839],[-0.59529354,44.83689635],[-0.59509954,44.83694662],[-0.59419763,44.83717945],[-0.59343558,44.83746217],[-0.59198967,44.83792774],[-0.59123696,44.83809533],[-0.59115153,44.83811432],[-0.59102614,44.83814226],[-0.59102502,44.83814455],[-0.59092748,44.83812076],[-0.59092795,44.83811417],[-0.59085397,44.83813594],[-0.59082127,44.83814556],[-0.59074616,44.83816746],[-0.59070203,44.83818051],[-0.59063608,44.83807819],[-0.59062752,44.83806513],[-0.59051838,44.83789562],[-0.59051948,44.83789496],[-0.5905207,44.83789429],[-0.5905218,44.83789371],[-0.59052303,44.83789304],[-0.59052636,44.83789167],[-0.59052908,44.83789059],[-0.59053166,44.83788933],[-0.59053411,44.83788799],[-0.59053655,44.83788656],[-0.59053873,44.83788505],[-0.59054091,44.83788345],[-0.59054295,44.83788167],[-0.59054473,44.8378799],[-0.59054725,44.83787567],[-0.59054938,44.83787128],[-0.59055086,44.83786681],[-0.59055184,44.83786227],[-0.59055243,44.83785766],[-0.59055239,44.83785306],[-0.59055185,44.83784848],[-0.59055067,44.83784402],[-0.59054912,44.83783956],[-0.59048443,44.83773512],[-0.59038033,44.83756708],[-0.59035633,44.83752856],[-0.59033161,44.83748871],[-0.59030703,44.83744895],[-0.59020971,44.83729177],[-0.5901415,44.83718186],[-0.59013799,44.83717846],[-0.5901341,44.83717516],[-0.59012998,44.83717205],[-0.59012549,44.83716931],[-0.59012065,44.83716676],[-0.59011556,44.83716449],[-0.59011024,44.8371625],[-0.59010469,44.83716088],[-0.59009902,44.83715944],[-0.59009606,44.83715872],[-0.59009298,44.8371581],[-0.59008991,44.83715757],[-0.59008684,44.83715713],[-0.59008366,44.83715687],[-0.59008049,44.83715679],[-0.59007732,44.83715681],[-0.59007416,44.83715691],[-0.59007101,44.83715719],[-0.59006723,44.8371574],[-0.59006345,44.83715771],[-0.59005979,44.837158],[-0.59005602,44.83715849],[-0.59005239,44.83715915],[-0.59004876,44.8371598],[-0.59004513,44.83716055],[-0.59004151,44.83716139],[-0.59003803,44.8371624],[-0.58982729,44.83684198],[-0.5892685,44.83593555],[-0.58913883,44.83561511],[-0.58912288,44.83557561],[-0.58912075,44.83557001],[-0.5891119,44.83554839],[-0.58902329,44.83532937],[-0.58907924,44.83531106],[-0.59048576,44.83489386],[-0.59104103,44.83472915],[-0.59156646,44.83457325],[-0.59327064,44.83406768],[-0.59443857,44.83372124],[-0.5947931,44.83361458],[-0.5948146,44.8336082],[-0.59486433,44.83359352],[-0.59492855,44.83357386],[-0.59494036,44.83357033],[-0.59497578,44.83355981],[-0.59499678,44.83355345],[-0.59507121,44.83353094],[-0.59513825,44.83352363],[-0.59835087,44.83343691],[-0.59844911,44.83343426],[-0.5984518,44.83346239]]]]}}]}
