{"type":"FeatureCollection","name":"city-3714-evaton-samples","features":[{"type":"Feature","properties":{"PRCL_KEY":"G421T0IQ010900001104000000"},"geometry":{"type":"Polygon","coordinates":[[[27.850696778000042,-26.52458916299998],[27.85130287400006,-26.524485144999975],[27.85182927900007,-26.524394812999954],[27.852363743000073,-26.52430308099997],[27.85280854800004,-26.524226759999973],[27.852960587000045,-26.52492517199994],[27.85085048800005,-26.52529686599997],[27.850696778000042,-26.52458916299998]]]}}]}
