{
  "type": "FeatureCollection",
  "name": "calgary_near_wup_safe_geometry_samples",
  "crs": {
    "type": "name",
    "properties": {
      "name": "urn:ogc:def:crs:OGC:1.3:CRS84"
    }
  },
  "features": [
    {
      "type": "Feature",
      "id": "890152282",
      "properties": {
        "cpid": "890152282"
      },
      "geometry": {
        "type": "MultiPolygon",
        "coordinates": [
          [
            [
              [
                -114.1057223,
                51.0354634
              ],
              [
                -114.1061697,
                51.0354644
              ],
              [
                -114.1061695,
                51.035396
              ],
              [
                -114.1061693,
                51.0353276
              ],
              [
                -114.105722,
                51.035327
              ],
              [
                -114.1057221,
                51.0353952
              ],
              [
                -114.1057223,
                51.0354634
              ]
            ]
          ]
        ]
      }
    },
    {
      "type": "Feature",
      "id": "160560482",
      "properties": {
        "cpid": "160560482"
      },
      "geometry": {
        "type": "MultiPolygon",
        "coordinates": [
          [
            [
              [
                -114.1057217,
                51.0351905
              ],
              [
                -114.1061689,
                51.0351908
              ],
              [
                -114.1061687,
                51.0351224
              ],
              [
                -114.1057215,
                51.0351223
              ],
              [
                -114.1057217,
                51.0351905
              ]
            ]
          ]
        ]
      }
    },
    {
      "type": "Feature",
      "id": "170560483",
      "properties": {
        "cpid": "170560483"
      },
      "geometry": {
        "type": "MultiPolygon",
        "coordinates": [
          [
            [
              [
                -114.1057215,
                51.0351223
              ],
              [
                -114.1061687,
                51.0351224
              ],
              [
                -114.1061686,
                51.0350539
              ],
              [
                -114.1057214,
                51.0350541
              ],
              [
                -114.1057215,
                51.0351223
              ]
            ]
          ]
        ]
      }
    }
  ]
}
