{"type":"FeatureCollection","features":[{"type":"Feature","id":918703,"properties":{"OBJECTID":918703},"geometry":{"type":"Polygon","coordinates":[[[-65.41624877298158,-24.80002145629908],[-65.41624210413113,-24.799903863234398],[-65.41627880779845,-24.799901027368584],[-65.41633747398858,-24.799896561951044],[-65.41646773359216,-24.799886598168733],[-65.41647023933224,-24.799886517666017],[-65.41647221763705,-24.79988643510643],[-65.41657796037025,-24.79988152124738],[-65.41658439017725,-24.799881185219668],[-65.41658557732902,-24.79988109957403],[-65.41665759167243,-24.799877227717364],[-65.41668350910945,-24.799875794089733],[-65.41672891417564,-24.7998732628551],[-65.41678124351697,-24.799870397497756],[-65.41678935494515,-24.799869977741224],[-65.41683990376802,-24.799867195697935],[-65.41685830313844,-24.799866184111657],[-65.41682655071833,-24.799909933614163],[-65.41680415470854,-24.799940810369364],[-65.41679738810308,-24.79994972113967],[-65.41676126529266,-24.799997515931295],[-65.41655185134078,-24.800008435197892],[-65.41655016971671,-24.800008518915245],[-65.41646133187125,-24.80001476251597],[-65.41632767887775,-24.80002426168366],[-65.41624942607619,-24.80002982425236],[-65.41624877298158,-24.80002145629908]]]}}]}
