{
  "type": "FeatureCollection",
  "name": "Fresno County parcel exact WUP locator sample",
  "crs": {
    "type": "name",
    "properties": {
      "name": "EPSG:4326"
    }
  },
  "features": [
    {
      "geometry": {
        "type": "Polygon",
        "coordinates": [
          [
            [
              -119.77154013373837,
              36.79228995575093
            ],
            [
              -119.77171101237366,
              36.79228965629514
            ],
            [
              -119.77171526103251,
              36.792048277696935
            ],
            [
              -119.7716881607455,
              36.79203562255546
            ],
            [
              -119.77141133269961,
              36.791906359798126
            ],
            [
              -119.77140871296085,
              36.79192980773516
            ],
            [
              -119.77140115262937,
              36.79195255221574
            ],
            [
              -119.77138887247057,
              36.79197392312781
            ],
            [
              -119.77137223598628,
              36.7919932935951
            ],
            [
              -119.77135172938272,
              36.7920100936249
            ],
            [
              -119.7713279572959,
              36.792023830862945
            ],
            [
              -119.77148197841302,
              36.79226808465215
            ],
            [
              -119.77149582078006,
              36.79229003659028
            ],
            [
              -119.77154013373837,
              36.79228995575093
            ]
          ]
        ]
      },
      "type": "Feature",
      "properties": {
        "APN": "43614106"
      }
    }
  ]
}
