{"type":"FeatureCollection","features":[{"type":"Feature","id":"740498","properties":{"sourceObjectId":740498},"geometry":{"type":"Polygon","coordinates":[[[-82.7305958334449,27.871270472534487],[-82.73059429785928,27.87127044186635],[-82.73001989712601,27.87125906963431],[-82.73002756724574,27.870948862510367],[-82.72965437886447,27.871281598508702],[-82.72964107654786,27.871794701494395],[-82.7297775324339,27.87179748257604],[-82.73048905024497,27.87182924383288],[-82.73059889931694,27.87183148372266],[-82.7305958334449,27.871270472534487]]]}}]}
