{
  "type": "FeatureCollection",
  "name": "Seville official INSPIRE cadastral parcel samples",
  "crs": {
    "type": "name",
    "properties": {
      "name": "EPSG:4326"
    }
  },
  "features": [
    {
      "type": "Feature",
      "geometry": {
        "type": "Polygon",
        "coordinates": [
          [
            [
              -5.9687164509,
              37.3881874143
            ],
            [
              -5.968679381,
              37.3881895172
            ],
            [
              -5.9685959174,
              37.3881262872
            ],
            [
              -5.9686131453,
              37.3881107164
            ],
            [
              -5.9686486626,
              37.3880807197
            ],
            [
              -5.9686750089,
              37.3880587025
            ],
            [
              -5.9687047671,
              37.388057324
            ],
            [
              -5.9687109856,
              37.3881261892
            ],
            [
              -5.9687164509,
              37.3881874143
            ]
          ]
        ]
      },
      "properties": {
        "nativeParcelReference": "7122301TG3472S",
        "areaM2": 96.0
      }
    },
    {
      "type": "Feature",
      "geometry": {
        "type": "Polygon",
        "coordinates": [
          [
            [
              -5.9686131453,
              37.3881107164
            ],
            [
              -5.9685959174,
              37.3881262872
            ],
            [
              -5.9685216469,
              37.3880699446
            ],
            [
              -5.9685757387,
              37.388024163
            ],
            [
              -5.9686010138,
              37.3880036145
            ],
            [
              -5.968619167,
              37.388017215
            ],
            [
              -5.9686423036,
              37.3880369076
            ],
            [
              -5.9686580762,
              37.3880474141
            ],
            [
              -5.9686750089,
              37.3880587025
            ],
            [
              -5.9686486626,
              37.3880807197
            ],
            [
              -5.9686131453,
              37.3881107164
            ]
          ]
        ]
      },
      "properties": {
        "nativeParcelReference": "7122302TG3472S",
        "areaM2": 91.0
      }
    },
    {
      "type": "Feature",
      "geometry": {
        "type": "Polygon",
        "coordinates": [
          [
            [
              -5.9684834796,
              37.3877723812
            ],
            [
              -5.9684944476,
              37.3879272687
            ],
            [
              -5.9684228161,
              37.3879950263
            ],
            [
              -5.9683077036,
              37.387928176
            ],
            [
              -5.9682287583,
              37.3878821327
            ],
            [
              -5.9682225171,
              37.387878505
            ],
            [
              -5.9681511988,
              37.3878368654
            ],
            [
              -5.9680843184,
              37.3877932221
            ],
            [
              -5.9680445809,
              37.3877620524
            ],
            [
              -5.9680350247,
              37.3877545433
            ],
            [
              -5.9680323568,
              37.3877212709
            ],
            [
              -5.9680410898,
              37.3877107794
            ],
            [
              -5.9680797432,
              37.3877116105
            ],
            [
              -5.968079977,
              37.3877032248
            ],
            [
              -5.968210819,
              37.3876965137
            ],
            [
              -5.9682096014,
              37.3876799648
            ],
            [
              -5.9682407025,
              37.3876782823
            ],
            [
              -5.9682403162,
              37.3876713539
            ],
            [
              -5.9682399947,
              37.3876689291
            ],
            [
              -5.9683069386,
              37.3876655352
            ],
            [
              -5.9683540416,
              37.3876630002
            ],
            [
              -5.9684705668,
              37.3876569189
            ],
            [
              -5.9684771029,
              37.3876565745
            ],
            [
              -5.9684834796,
              37.3877723812
            ]
          ]
        ]
      },
      "properties": {
        "nativeParcelReference": "7122305TG3472S",
        "areaM2": 944.0
      }
    }
  ]
}
