{
  "type": "FeatureCollection",
  "name": "Krakow exact WUP locator parcel sample",
  "crs": {
    "type": "name",
    "properties": {
      "name": "EPSG:4326"
    }
  },
  "features": [
    {
      "type": "Feature",
      "geometry": {
        "type": "Polygon",
        "coordinates": [
          [
            [
              19.96530496746416,
              50.055563290133556
            ],
            [
              19.965143324407496,
              50.05541690895515
            ],
            [
              19.96522748524924,
              50.05530886437736
            ],
            [
              19.964946180725118,
              50.05510962601292
            ],
            [
              19.96491015381861,
              50.05508349963656
            ],
            [
              19.96472127445968,
              50.054963399337026
            ],
            [
              19.96464115960589,
              50.054610854377074
            ],
            [
              19.96469744304114,
              50.05459768964152
            ],
            [
              19.964722820871867,
              50.05469034677424
            ],
            [
              19.964798654553068,
              50.05476160503429
            ],
            [
              19.96490089113945,
              50.054832469324985
            ],
            [
              19.965247805506777,
              50.05501988474865
            ],
            [
              19.965270722357136,
              50.055032227338494
            ],
            [
              19.965296067839706,
              50.055055021504195
            ],
            [
              19.965337991014383,
              50.05509270921073
            ],
            [
              19.965451428474392,
              50.055194782819655
            ],
            [
              19.96554137880206,
              50.05527857443138
            ],
            [
              19.96530496746416,
              50.055563290133556
            ]
          ]
        ]
      },
      "properties": {
        "id_dzialki": "126105_9.0017.270/57",
        "numer_dzialki": "270/57",
        "pow_graf": 2022.92004
      }
    }
  ]
}
