{"type":"FeatureCollection","name":"Morelia cadastral parcels in bounded WUP-neighborhood query","crs":{"type":"name","properties":{"name":"EPSG:6369"}},"features":[{"type":"Feature","properties":{"clave_catastro":"16-001-053-01-0001-005-021-00012-01-0011"},"geometry":{"type":"Polygon","coordinates":[[[269208.37518146,2180403.15120376],[269211.28153149,2180396.79746067],[269203.79752872,2180393.60639758],[269205.8367561,2180388.823796],[269213.16733233,2180391.82407193],[269215.90763525,2180385.480503],[269198.55453086,2180377.98428705],[269195.76681627,2180384.43760997],[269203.07546714,2180387.67431944],[269202.63356142,2180388.62716179],[269204.08864689,2180389.2689789],[269202.96145208,2180391.82448071],[269201.55192696,2180391.20275961],[269200.96355944,2180392.55452071],[269193.60595328,2180389.35204914],[269190.87119583,2180395.63509265],[269208.37518146,2180403.15120376]]]}},{"type":"Feature","properties":{"clave_catastro":"16-001-053-01-0001-005-008-00022-00-0000"},"geometry":{"type":"Polygon","coordinates":[[[269392.68206025,2180264.8660665],[269396.59955209,2180264.72025363],[269400.09119243,2180264.59029136],[269402.92137812,2180264.48494909],[269403.84038186,2180264.45074287],[269403.90134848,2180260.9210905],[269403.93729547,2180258.83994592],[269400.77642105,2180258.39710841],[269397.33877203,2180257.91549488],[269392.4540723,2180257.23115],[269392.67241474,2180264.53324974],[269392.68206025,2180264.8660665]]]}},{"type":"Feature","properties":{"clave_catastro":"16-001-053-01-0001-005-030-00041-00-0000"},"geometry":{"type":"Polygon","coordinates":[[[269221.25902449,2180649.09967574],[269228.24113851,2180653.32528614],[269229.40894024,2180651.3456145],[269230.53809605,2180649.43145589],[269233.55847607,2180644.31127111],[269234.91957885,2180642.00391319],[269235.67721205,2180640.71956421],[269238.08318315,2180636.64093285],[269237.91772103,2180636.55224904],[269237.35025729,2180636.19085263],[269234.19854729,2180634.18364655],[269231.35200688,2180632.37079156],[269228.02397944,2180637.88691984],[269227.26260161,2180639.14888593],[269226.66939264,2180640.13211604],[269221.25902449,2180649.09967574]]]}}]}
