{
  "type": "FeatureCollection",
  "features": [
    {
      "type": "Feature",
      "id": "AR-CORDOBA-MUNI-35451",
      "geometry": {
        "type": "MultiPolygon",
        "coordinates": [
          [
            [
              [
                -64.2058,
                -31.4004
              ],
              [
                -64.2061,
                -31.4011
              ],
              [
                -64.2061,
                -31.4011
              ],
              [
                -64.2061,
                -31.4011
              ],
              [
                -64.2064,
                -31.401
              ],
              [
                -64.2065,
                -31.401
              ],
              [
                -64.2066,
                -31.4009
              ],
              [
                -64.2067,
                -31.4009
              ],
              [
                -64.2068,
                -31.4009
              ],
              [
                -64.2068,
                -31.4009
              ],
              [
                -64.2069,
                -31.4008
              ],
              [
                -64.207,
                -31.4008
              ],
              [
                -64.2071,
                -31.4008
              ],
              [
                -64.2071,
                -31.4008
              ],
              [
                -64.2072,
                -31.4008
              ],
              [
                -64.2072,
                -31.4008
              ],
              [
                -64.2073,
                -31.4007
              ],
              [
                -64.2074,
                -31.4007
              ],
              [
                -64.2075,
                -31.4007
              ],
              [
                -64.2076,
                -31.4006
              ],
              [
                -64.2077,
                -31.4006
              ],
              [
                -64.2078,
                -31.4006
              ],
              [
                -64.2078,
                -31.4006
              ],
              [
                -64.2079,
                -31.4005
              ],
              [
                -64.2079,
                -31.4005
              ],
              [
                -64.208,
                -31.4005
              ],
              [
                -64.2081,
                -31.4005
              ],
              [
                -64.2082,
                -31.4005
              ],
              [
                -64.2082,
                -31.4001
              ],
              [
                -64.2078,
                -31.3999
              ],
              [
                -64.2075,
                -31.3998
              ],
              [
                -64.2058,
                -31.4004
              ]
            ]
          ]
        ]
      },
      "properties": {
        "parcelId": "AR-CORDOBA-MUNI-35451",
        "sourceId": "AR-CORDOBA-MUNI-CATASTRO-WFS",
        "sourceParcelId": "35451"
      }
    },
    {
      "type": "Feature",
      "id": "AR-CORDOBA-MUNI-36418",
      "geometry": {
        "type": "MultiPolygon",
        "coordinates": [
          [
            [
              [
                -64.2079,
                -31.4005
              ],
              [
                -64.2079,
                -31.4007
              ],
              [
                -64.208,
                -31.4007
              ],
              [
                -64.208,
                -31.4007
              ],
              [
                -64.208,
                -31.4005
              ],
              [
                -64.2079,
                -31.4005
              ]
            ]
          ]
        ]
      },
      "properties": {
        "parcelId": "AR-CORDOBA-MUNI-36418",
        "sourceId": "AR-CORDOBA-MUNI-CATASTRO-WFS",
        "sourceParcelId": "36418"
      }
    },
    {
      "type": "Feature",
      "id": "AR-CORDOBA-MUNI-36419",
      "geometry": {
        "type": "MultiPolygon",
        "coordinates": [
          [
            [
              [
                -64.2073,
                -31.4007
              ],
              [
                -64.2073,
                -31.4009
              ],
              [
                -64.2074,
                -31.4008
              ],
              [
                -64.2074,
                -31.4007
              ],
              [
                -64.2073,
                -31.4007
              ]
            ]
          ]
        ]
      },
      "properties": {
        "parcelId": "AR-CORDOBA-MUNI-36419",
        "sourceId": "AR-CORDOBA-MUNI-CATASTRO-WFS",
        "sourceParcelId": "36419"
      }
    }
  ]
}
