{
  "type": "FeatureCollection",
  "features": [
    {
      "type": "Feature",
      "id": "US-TX-DALLAS-00000792553000000",
      "geometry": {
        "type": "Polygon",
        "coordinates": [
          [
            [
              -96.7272852102122,
              32.87278695841203
            ],
            [
              -96.72747064938214,
              32.87286338549273
            ],
            [
              -96.72750722953012,
              32.8728325334875
            ],
            [
              -96.72754835118599,
              32.87279910707827
            ],
            [
              -96.72757374131275,
              32.8727794050745
            ],
            [
              -96.72759953535562,
              32.87276008131582
            ],
            [
              -96.72762572471255,
              32.87274113838527
            ],
            [
              -96.72765230281043,
              32.87272258430643
            ],
            [
              -96.72767925990662,
              32.8727044252539
            ],
            [
              -96.72770658736312,
              32.87268666561409
            ],
            [
              -96.72773427972936,
              32.87266931072074
            ],
            [
              -96.7277623261763,
              32.87265236763503
            ],
            [
              -96.72779071812008,
              32.87263583803818
            ],
            [
              -96.72781944790113,
              32.87261973084042
            ],
            [
              -96.72784850689962,
              32.87260404952651
            ],
            [
              -96.72787788540907,
              32.87258879846757
            ],
            [
              -96.72790757480965,
              32.87257398114851
            ],
            [
              -96.7279375664095,
              32.87255960466091
            ],
            [
              -96.72796784950593,
              32.872545669754004
            ],
            [
              -96.72799841750788,
              32.8725321853531
            ],
            [
              -96.72802925971277,
              32.87251915220764
            ],
            [
              -96.7280603653278,
              32.872506575575265
            ],
            [
              -96.72809172895673,
              32.87249445808492
            ],
            [
              -96.72812333660139,
              32.87248280494862
            ],
            [
              -96.728155179624,
              32.872471620553014
            ],
            [
              -96.72818725054552,
              32.87246090479135
            ],
            [
              -96.7282195374687,
              32.8724506647097
            ],
            [
              -96.72825203184604,
              32.87244090018612
            ],
            [
              -96.72828472290281,
              32.872431615576865
            ],
            [
              -96.72831760093298,
              32.87242281525315
            ],
            [
              -96.72835065523401,
              32.87241449996455
            ],
            [
              -96.72838387722237,
              32.8724066713926
            ],
            [
              -96.72841725610544,
              32.87239933479514
            ],
            [
              -96.72845078333576,
              32.87239249005043
            ],
            [
              -96.72848444495126,
              32.872386140567336
            ],
            [
              -96.72851823131806,
              32.872380287110616
            ],
            [
              -96.72855213595365,
              32.8723749331956
            ],
            [
              -96.72858614601849,
              32.87237007954142
            ],
            [
              -96.72862025187868,
              32.87236572691285
            ],
            [
              -96.72865443960838,
              32.872361876915505
            ],
            [
              -96.72868870487996,
              32.87235853219347
            ],
            [
              -96.72855093428966,
              32.870827309390066
            ],
            [
              -96.72831667592055,
              32.8710034260671
            ],
            [
              -96.72815613221708,
              32.87112413232231
            ],
            [
              -96.72799576179165,
              32.871244702845864
            ],
            [
              -96.72784418064519,
              32.871358697828065
            ],
            [
              -96.72768363987493,
              32.87147940623525
            ],
            [
              -96.7275563292009,
              32.87158051505924
            ],
            [
              -96.72754772072095,
              32.871589088934535
            ],
            [
              -96.72754335833707,
              32.87159366456498
            ],
            [
              -96.72753909194115,
              32.8715983037956
            ],
            [
              -96.72753492265578,
              32.871603003936535
            ],
            [
              -96.72753085048095,
              32.871607764987836
            ],
            [
              -96.72752687757166,
              32.87161258607819
            ],
            [
              -96.72752300396401,
              32.87161746540438
            ],
            [
              -96.72751923186709,
              32.87162239938996
            ],
            [
              -96.72751556339983,
              32.871627388967134
            ],
            [
              -96.7275119996668,
              32.871632432347845
            ],
            [
              -96.72750853965364,
              32.871637526811675
            ],
            [
              -96.72750518553337,
              32.8716426705859
            ],
            [
              -96.727501937288,
              32.871647864572054
            ],
            [
              -96.7274987981951,
              32.8716531052092
            ],
            [
              -96.72749576935925,
              32.87165839070914
            ],
            [
              -96.72749284757502,
              32.871663721026174
            ],
            [
              -96.72749003825693,
              32.871669092629794
            ],
            [
              -96.72748733819955,
              32.87167450547433
            ],
            [
              -96.72748475386791,
              32.87167995694599
            ],
            [
              -96.7274822799557,
              32.87168544516538
            ],
            [
              -96.72747992073687,
              32.871690970193406
            ],
            [
              -96.72747767521503,
              32.87169652840812
            ],
            [
              -96.72747554768216,
              32.871702118968734
            ],
            [
              -96.72747353391854,
              32.87170773910923
            ],
            [
              -96.72747163711153,
              32.871713389777085
            ],
            [
              -96.72746985736931,
              32.87171906556222
            ],
            [
              -96.72746819465596,
              32.871724768268
            ],
            [
              -96.72746665119848,
              32.87173049341638
            ],
            [
              -96.72746522697898,
              32.8717362419091
            ],
            [
              -96.72746392101908,
              32.87174200922261
            ],
            [
              -96.7274627333188,
              32.87174779535684
            ],
            [
              -96.72746166606925,
              32.87175359763717
            ],
            [
              -96.72746072037506,
              32.87175941427552
            ],
            [
              -96.72745989408114,
              32.871765246143205
            ],
            [
              -96.72745918943272,
              32.871771087860424
            ],
            [
              -96.72745860429282,
              32.87177693939688
            ],
            [
              -96.72745814087062,
              32.87178279717623
            ],
            [
              -96.72745779806158,
              32.871788662986646
            ],
            [
              -96.72745757809281,
              32.87179453235014
            ],
            [
              -96.72745747886344,
              32.871800403432985
            ],
            [
              -96.72745750039152,
              32.87180627533344
            ],
            [
              -96.72745764483214,
              32.87181214718033
            ],
            [
              -96.7274579090699,
              32.87181801441953
            ],
            [
              -96.72745829524189,
              32.87182387708152
            ],
            [
              -96.72745880336606,
              32.871829734264615
            ],
            [
              -96.72745943030922,
              32.871835582316464
            ],
            [
              -96.72746018038134,
              32.87184141949458
            ],
            [
              -96.72746105142741,
              32.871847246670185
            ],
            [
              -96.72746204035025,
              32.87185305838754
            ],
            [
              -96.72746315140571,
              32.871858855609254
            ],
            [
              -96.72743040544125,
              32.87235343230529
            ],
            [
              -96.72741318188272,
              32.87245283817493
            ],
            [
              -96.72740433375559,
              32.872491991423026
            ],
            [
              -96.72739883076372,
              32.872513463881816
            ],
            [
              -96.72739288589264,
              32.87253485248142
            ],
            [
              -96.72738649819965,
              32.872556150894965
            ],
            [
              -96.72737967212089,
              32.87257735106801
            ],
            [
              -96.7273724066956,
              32.87259844757531
            ],
            [
              -96.7273647073923,
              32.87261943418104
            ],
            [
              -96.72735657435494,
              32.872640303671695
            ],
            [
              -96.72734801194746,
              32.87266105159979
            ],
            [
              -96.72733902034977,
              32.87268166894833
            ],
            [
              -96.72732960499441,
              32.872702151284976
            ],
            [
              -96.72731976707581,
              32.87272249231309
            ],
            [
              -96.72730950996149,
              32.872742683963125
            ],
            [
              -96.72729883799737,
              32.87276272268908
            ],
            [
              -96.72728775241401,
              32.872782600391055
            ],
            [
              -96.7272852102122,
              32.87278695841203
            ]
          ]
        ]
      },
      "properties": {
        "parcelId": "US-TX-DALLAS-00000792553000000",
        "id": "US-TX-DALLAS-00000792553000000",
        "sourceId": "us-tx-dallas-taxparcels",
        "sourceParcelId": "00000792553000000",
        "parcelNumber": "00000792553000000",
        "cadMunicipalityName": null,
        "ownershipType": "unknown",
        "sourceProperties": {
          "OBJECTID": 179437,
          "COUNTY": "DALLAS COUNTY",
          "GIS_ACCT": "00000792553000000",
          "APPRAISALYEAR": 2026
        }
      }
    },
    {
      "type": "Feature",
      "id": "US-TX-DALLAS-008124000C0200000",
      "geometry": {
        "type": "Polygon",
        "coordinates": [
          [
            [
              -96.72888532765931,
              32.87235672919843
            ],
            [
              -96.7293723585704,
              32.87231699361588
            ],
            [
              -96.72938151512095,
              32.8724446573603
            ],
            [
              -96.7308270458115,
              32.87262328363834
            ],
            [
              -96.7308536601634,
              32.87255933867148
            ],
            [
              -96.73134112310632,
              32.871504384651836
            ],
            [
              -96.73149464338194,
              32.871360851235195
            ],
            [
              -96.7318018011204,
              32.87069608621673
            ],
            [
              -96.73169390384342,
              32.87075360850293
            ],
            [
              -96.73051270150924,
              32.871181624163796
            ],
            [
              -96.72935882458489,
              32.87159971376006
            ],
            [
              -96.7288348748429,
              32.871739117111275
            ],
            [
              -96.72888532765931,
              32.87235672919843
            ]
          ]
        ]
      },
      "properties": {
        "parcelId": "US-TX-DALLAS-008124000C0200000",
        "id": "US-TX-DALLAS-008124000C0200000",
        "sourceId": "us-tx-dallas-taxparcels",
        "sourceParcelId": "008124000C0200000",
        "parcelNumber": "008124000C0200000",
        "cadMunicipalityName": null,
        "ownershipType": "unknown",
        "sourceProperties": {
          "OBJECTID": 179485,
          "COUNTY": "DALLAS COUNTY",
          "GIS_ACCT": "008124000C0200000",
          "APPRAISALYEAR": 2026
        }
      }
    },
    {
      "type": "Feature",
      "id": "US-TX-DALLAS-00000429343000000",
      "geometry": {
        "type": "Polygon",
        "coordinates": [
          [
            [
              -96.72812363120731,
              32.87109334754904
            ],
            [
              -96.7278568072902,
              32.870841827371414
            ],
            [
              -96.72769512794525,
              32.87096249251871
            ],
            [
              -96.72796325644734,
              32.871213921577024
            ],
            [
              -96.72812363120731,
              32.87109334754904
            ]
          ]
        ]
      },
      "properties": {
        "parcelId": "US-TX-DALLAS-00000429343000000",
        "id": "US-TX-DALLAS-00000429343000000",
        "sourceId": "us-tx-dallas-taxparcels",
        "sourceParcelId": "00000429343000000",
        "parcelNumber": "00000429343000000",
        "cadMunicipalityName": null,
        "ownershipType": "unknown",
        "sourceProperties": {
          "OBJECTID": 179585,
          "COUNTY": "DALLAS COUNTY",
          "GIS_ACCT": "00000429343000000",
          "APPRAISALYEAR": 2026
        }
      }
    }
  ]
}
