{
  "type": "FeatureCollection",
  "features": [
    {
      "type": "Feature",
      "properties": {
        "sourceLayer": "GAZA",
        "FID": 947,
        "OBJECTID": 3089,
        "nativeCrs": "EPSG:3857",
        "distanceToWupPointM": 142.10119140332046
      },
      "geometry": {
        "type": "Polygon",
        "coordinates": [
          [
            [
              34.46942734516942,
              31.52066789696858
            ],
            [
              34.469399497395614,
              31.52063803192094
            ],
            [
              34.46937254793709,
              31.520609698405384
            ],
            [
              34.469072510632195,
              31.520821816678062
            ],
            [
              34.46904556117367,
              31.520831771675407
            ],
            [
              34.46898537404964,
              31.520880015109103
            ],
            [
              34.468796727839965,
              31.52109443006854
            ],
            [
              34.46849040232809,
              31.521341006663512
            ],
            [
              34.46802507501091,
              31.52160596091284
            ],
            [
              34.46804214300131,
              31.52176983397417
            ],
            [
              34.46808885539609,
              31.52175068993978
            ],
            [
              34.46807538066682,
              31.521650375135437
            ],
            [
              34.468368231449446,
              31.521472718118382
            ],
            [
              34.46856586081195,
              31.521381592189748
            ],
            [
              34.46857394564951,
              31.52132186254124
            ],
            [
              34.468698811474006,
              31.52123686259099
            ],
            [
              34.46886499980156,
              31.52115722292778
            ],
            [
              34.46899076394134,
              31.520978033437334
            ],
            [
              34.46942734516942,
              31.52066789696858
            ]
          ]
        ]
      }
    },
    {
      "type": "Feature",
      "properties": {
        "sourceLayer": "GAZA",
        "FID": 968,
        "OBJECTID": 3110,
        "nativeCrs": "EPSG:3857",
        "distanceToWupPointM": 159.75640570045766
      },
      "geometry": {
        "type": "Polygon",
        "coordinates": [
          [
            [
              34.469764213400964,
              31.52031487617958
            ],
            [
              34.469763315085686,
              31.5203156419528
            ],
            [
              34.46998789390671,
              31.52045501257436
            ],
            [
              34.47016486201769,
              31.520494832713755
            ],
            [
              34.47029332110331,
              31.520646455396886
            ],
            [
              34.47050622182565,
              31.520899159321914
            ],
            [
              34.47079997092356,
              31.521236096825323
            ],
            [
              34.47105060088782,
              31.521559249380097
            ],
            [
              34.47118714481102,
              31.521698618146388
            ],
            [
              34.471197026279135,
              31.52171087033568
            ],
            [
              34.47121499258483,
              31.521698618146388
            ],
            [
              34.47106946550879,
              31.52154393411837
            ],
            [
              34.47081883554452,
              31.52122461033953
            ],
            [
              34.47053227296889,
              31.520896862016585
            ],
            [
              34.47036967790247,
              31.520712311637144
            ],
            [
              34.4702825413199,
              31.520566049459205
            ],
            [
              34.47018193000808,
              31.52046037297872
            ],
            [
              34.470110963100645,
              31.52046037297872
            ],
            [
              34.46997891075387,
              31.52041442664558
            ],
            [
              34.46980014601233,
              31.520287308339466
            ],
            [
              34.469764213400964,
              31.52031487617958
            ]
          ]
        ]
      }
    },
    {
      "type": "Feature",
      "properties": {
        "sourceLayer": "GAZA",
        "FID": 967,
        "OBJECTID": 3109,
        "nativeCrs": "EPSG:3857",
        "distanceToWupPointM": 226.92627756864238
      },
      "geometry": {
        "type": "Polygon",
        "coordinates": [
          [
            [
              34.47167223506444,
              31.520870060116888
            ],
            [
              34.47178362615967,
              31.520790420140994
            ],
            [
              34.471771948060976,
              31.5207643839803
            ],
            [
              34.471738710395464,
              31.52065181579027
            ],
            [
              34.47164079402949,
              31.52046649915477
            ],
            [
              34.4719740689999,
              31.520294200300263
            ],
            [
              34.47201089992655,
              31.5203340205082
            ],
            [
              34.4720594089519,
              31.520337083600417
            ],
            [
              34.47208635841042,
              31.52032483123096
            ],
            [
              34.47219415624451,
              31.520260506264897
            ],
            [
              34.47218607140696,
              31.52025131698042
            ],
            [
              34.47210162977024,
              31.5203026238072
            ],
            [
              34.472056714006044,
              31.520271992869226
            ],
            [
              34.47202257802524,
              31.520311813086636
            ],
            [
              34.47196059427064,
              31.520245190790263
            ],
            [
              34.47163630245307,
              31.520418255507543
            ],
            [
              34.47147370738665,
              31.52050785083257
            ],
            [
              34.47121409426954,
              31.520647986937885
            ],
            [
              34.47104161773498,
              31.52070082508695
            ],
            [
              34.47105060088782,
              31.520719969336483
            ],
            [
              34.471228467314084,
              31.52066559965756
            ],
            [
              34.47160306478756,
              31.520464967610796
            ],
            [
              34.47165965865046,
              31.52056911254381
            ],
            [
              34.47171715082864,
              31.52065947349457
            ],
            [
              34.47174859186359,
              31.520780465139232
            ],
            [
              34.4716569637046,
              31.520855510510973
            ],
            [
              34.47167223506444,
              31.520870060116888
            ]
          ]
        ]
      }
    }
  ]
}
