{"type":"FeatureCollection","features":[{"type":"Feature","id":"TR-TKGM-131507-2388-2","properties":{"parcelId":"TR-TKGM-131507-2388-2","sourceId":"tr-tkgm-parselsorgu-api"},"geometry":{"type":"Polygon","coordinates":[[[37.37719,37.05149],[37.37687,37.05137],[37.37633,37.05139],[37.37504,37.05144],[37.37493,37.05144],[37.37487,37.0508],[37.37479,37.05019],[37.37474,37.04988],[37.3747,37.04958],[37.37461,37.04928],[37.37473,37.04935],[37.37501,37.04939],[37.37513,37.04943],[37.37528,37.04947],[37.37552,37.04957],[37.37577,37.04971],[37.37603,37.04977],[37.3767,37.04989],[37.37705,37.05001],[37.37741,37.05002],[37.37777,37.05011],[37.37811,37.05028],[37.37823,37.05032],[37.37827,37.05034],[37.37848,37.05054],[37.37853,37.05051],[37.37865,37.05062],[37.37885,37.05079],[37.37895,37.05066],[37.37897,37.05062],[37.37903,37.05056],[37.37903,37.05053],[37.37896,37.0505],[37.37888,37.05048],[37.37885,37.05047],[37.37887,37.05037],[37.37877,37.05036],[37.37857,37.05036],[37.37859,37.0503],[37.37862,37.0502],[37.37863,37.05016],[37.37865,37.05008],[37.37868,37.04999],[37.37869,37.04994],[37.37875,37.04994],[37.37896,37.04995],[37.37909,37.04996],[37.37953,37.05061],[37.37951,37.05078],[37.37945,37.05072],[37.37896,37.05107],[37.37851,37.05067],[37.37719,37.05149]]]}}]}
