{
  "type": "FeatureCollection",
  "features": [
    {
      "type": "Feature",
      "id": "MY-PENANG-07040100010579",
      "properties": {
        "sourceId": "my-penang-pegis-cadastral-lots",
        "mukim": "01",
        "pa": "PA42785",
        "lot": "10579",
        "upi": "07040100010579",
        "areaSquareMetres": 623.852
      },
      "geometry": {
        "type": "Polygon",
        "coordinates": [
          [
            [
              100.29553211025666,
              5.372966396429473
            ],
            [
              100.29557411036811,
              5.372851799419915
            ],
            [
              100.29584056463085,
              5.372949889869976
            ],
            [
              100.2958697440757,
              5.372936355256005
            ],
            [
              100.2959039010733,
              5.37284314363067
            ],
            [
              100.2959547325852,
              5.37286185764584
            ],
            [
              100.29587067942876,
              5.373091015300386
            ],
            [
              100.29553211025666,
              5.372966396429473
            ]
          ]
        ]
      }
    }
  ]
}
