{
  "type": "FeatureCollection",
  "features": [
    {
      "type": "Feature",
      "id": "KR-GWANGJU-METRO-1224011800100180003",
      "geometry": {
        "type": "MultiPolygon",
        "coordinates": [
          [
            [
              [
                126.86652706,
                35.16614233
              ],
              [
                126.86675893,
                35.16608787
              ],
              [
                126.86689709,
                35.1660176
              ],
              [
                126.86707587,
                35.16598365
              ],
              [
                126.86700161,
                35.16588789
              ],
              [
                126.86683569,
                35.1658071
              ],
              [
                126.86683045,
                35.16578448
              ],
              [
                126.86683562,
                35.16574276
              ],
              [
                126.86686786,
                35.1656494
              ],
              [
                126.86695337,
                35.16561864
              ],
              [
                126.86703008,
                35.16556232
              ],
              [
                126.86703211,
                35.16554825
              ],
              [
                126.86702768,
                35.16548304
              ],
              [
                126.86688736,
                35.16540285
              ],
              [
                126.86671143,
                35.16525606
              ],
              [
                126.86673808,
                35.16522293
              ],
              [
                126.86667192,
                35.16516286
              ],
              [
                126.86665355,
                35.16513455
              ],
              [
                126.86667296,
                35.16508657
              ],
              [
                126.8667311,
                35.1650129
              ],
              [
                126.86674673,
                35.16497577
              ],
              [
                126.86674987,
                35.16494911
              ],
              [
                126.86677166,
                35.16495547
              ],
              [
                126.86672162,
                35.16507066
              ],
              [
                126.86689893,
                35.16509473
              ],
              [
                126.86692106,
                35.16507826
              ],
              [
                126.86694643,
                35.16506752
              ],
              [
                126.86692866,
                35.16502661
              ],
              [
                126.86693292,
                35.16496953
              ],
              [
                126.86695666,
                35.16491679
              ],
              [
                126.86698431,
                35.16488052
              ],
              [
                126.86706671,
                35.16477132
              ],
              [
                126.86713017,
                35.16468737
              ],
              [
                126.86709704,
                35.16466783
              ],
              [
                126.86710059,
                35.16460483
              ],
              [
                126.86711307,
                35.16458012
              ],
              [
                126.86713437,
                35.16455751
              ],
              [
                126.86718086,
                35.1644509
              ],
              [
                126.86723319,
                35.16434045
              ],
              [
                126.86723331,
                35.16425884
              ],
              [
                126.86725234,
                35.16423705
              ],
              [
                126.86727684,
                35.16420571
              ],
              [
                126.8673124,
                35.16411783
              ],
              [
                126.86737326,
                35.16391565
              ],
              [
                126.8673926,
                35.1639031
              ],
              [
                126.86742557,
                35.16386918
              ],
              [
                126.86745555,
                35.16383139
              ],
              [
                126.86752215,
                35.16365894
              ],
              [
                126.86755457,
                35.16357412
              ],
              [
                126.86760006,
                35.16345688
              ],
              [
                126.86761715,
                35.16336458
              ],
              [
                126.86765135,
                35.16333636
              ],
              [
                126.86769355,
                35.16318375
              ],
              [
                126.86771846,
                35.16309364
              ],
              [
                126.86775765,
                35.16284244
              ],
              [
                126.86778661,
                35.1626589
              ],
              [
                126.86779296,
                35.1626082
              ],
              [
                126.86784542,
                35.16249437
              ],
              [
                126.86785326,
                35.16244772
              ],
              [
                126.86781894,
                35.16242211
              ],
              [
                126.86762911,
                35.16244918
              ],
              [
                126.86754004,
                35.16247259
              ],
              [
                126.86749125,
                35.16246979
              ],
              [
                126.86745851,
                35.16246244
              ],
              [
                126.86742165,
                35.16244434
              ],
              [
                126.8673974,
                35.16243744
              ],
              [
                126.8673394,
                35.16242267
              ],
              [
                126.86715248,
                35.1623546
              ],
              [
                126.86707908,
                35.16232837
              ],
              [
                126.86704732,
                35.16233065
              ],
              [
                126.86699563,
                35.16235825
              ],
              [
                126.86699339,
                35.16235945
              ],
              [
                126.86696329,
                35.16238668
              ],
              [
                126.86695807,
                35.16243309
              ],
              [
                126.86692304,
                35.16255353
              ],
              [
                126.8669021,
                35.16255151
              ],
              [
                126.86686723,
                35.16257626
              ],
              [
                126.8668362,
                35.16258299
              ],
              [
                126.86679731,
                35.16257809
              ],
              [
                126.86667405,
                35.16253614
              ],
              [
                126.86656738,
                35.16249988
              ],
              [
                126.86644315,
                35.16246927
              ],
              [
                126.86641016,
                35.1624518
              ],
              [
                126.86637767,
                35.16245297
              ],
              [
                126.86633807,
                35.16246636
              ],
              [
                126.86627364,
                35.16263305
              ],
              [
                126.86626102,
                35.16264142
              ],
              [
                126.86624751,
                35.16267534
              ],
              [
                126.86621018,
                35.1627123
              ],
              [
                126.86615633,
                35.16273182
              ],
              [
                126.86610319,
                35.16273072
              ],
              [
                126.86606028,
                35.16272163
              ],
              [
                126.86601626,
                35.16272488
              ],
              [
                126.86590579,
                35.16269762
              ],
              [
                126.86586651,
                35.16271125
              ],
              [
                126.86577411,
                35.16277191
              ],
              [
                126.8657632,
                35.16279559
              ],
              [
                126.86577068,
                35.1628277
              ],
              [
                126.86577257,
                35.1628635
              ],
              [
                126.86577174,
                35.16290941
              ],
              [
                126.86575585,
                35.16294012
              ],
              [
                126.86574526,
                35.16293244
              ],
              [
                126.86574732,
                35.16291307
              ],
              [
                126.86574367,
                35.16283853
              ],
              [
                126.86574335,
                35.16280205
              ],
              [
                126.86574862,
                35.16278121
              ],
              [
                126.86575823,
                35.16276222
              ],
              [
                126.86585356,
                35.16269581
              ],
              [
                126.86588532,
                35.16269199
              ],
              [
                126.86588448,
                35.162667
              ],
              [
                126.86601307,
                35.1627052
              ],
              [
                126.8660726,
                35.16271396
              ],
              [
                126.86613908,
                35.16271212
              ],
              [
                126.86616696,
                35.16270601
              ],
              [
                126.86621094,
                35.16268424
              ],
              [
                126.86624902,
                35.16263248
              ],
              [
                126.86627693,
                35.16250212
              ],
              [
                126.86629824,
                35.16246717
              ],
              [
                126.86632274,
                35.16243494
              ],
              [
                126.86636618,
                35.1624318
              ],
              [
                126.86641965,
                35.16242956
              ],
              [
                126.8664503,
                35.16243566
              ],
              [
                126.86652763,
                35.16247322
              ],
              [
                126.86660114,
                35.16249916
              ],
              [
                126.86664141,
                35.16249801
              ],
              [
                126.86669185,
                35.16252464
              ],
              [
                126.86683402,
                35.16256035
              ],
              [
                126.86685587,
                35.16256151
              ],
              [
                126.86687477,
                35.16255315
              ],
              [
                126.86689659,
                35.1625359
              ],
              [
                126.86692137,
                35.16252101
              ],
              [
                126.86694594,
                35.16242056
              ],
              [
                126.86695153,
                35.16236378
              ],
              [
                126.86695652,
                35.16235911
              ],
              [
                126.86696974,
                35.16234677
              ],
              [
                126.86705488,
                35.16230693
              ],
              [
                126.86715845,
                35.16233737
              ],
              [
                126.86718686,
                35.16234833
              ],
              [
                126.86747001,
                35.16233913
              ],
              [
                126.86775517,
                35.16232978
              ],
              [
                126.8677322,
                35.16230266
              ],
              [
                126.86772414,
                35.16228328
              ],
              [
                126.86772004,
                35.16227342
              ],
              [
                126.86745902,
                35.16228277
              ],
              [
                126.86745297,
                35.16228298
              ],
              [
                126.8668194,
                35.16230512
              ],
              [
                126.86571221,
                35.16234377
              ],
              [
                126.86491449,
                35.1623718
              ],
              [
                126.86388648,
                35.16240839
              ],
              [
                126.86380351,
                35.16247386
              ],
              [
                126.86364347,
                35.16245163
              ],
              [
                126.86360885,
                35.1624777
              ],
              [
                126.86349004,
                35.16256719
              ],
              [
                126.86350173,
                35.16281842
              ],
              [
                126.86350517,
                35.16293692
              ],
              [
                126.86351747,
                35.16321644
              ],
              [
                126.8635308,
                35.16345997
              ],
              [
                126.86353941,
                35.16347538
              ],
              [
                126.86353126,
                35.16347686
              ],
              [
                126.86353772,
                35.16359666
              ],
              [
                126.86353684,
                35.16364336
              ],
              [
                126.86353731,
                35.16364551
              ],
              [
                126.86354425,
                35.16376878
              ],
              [
                126.86357198,
                35.1643008
              ],
              [
                126.86357806,
                35.16433836
              ],
              [
                126.86358014,
                35.16437232
              ],
              [
                126.86360488,
                35.1648313
              ],
              [
                126.86360683,
                35.16486745
              ],
              [
                126.86364437,
                35.16549726
              ],
              [
                126.8636473,
                35.16556208
              ],
              [
                126.86366267,
                35.16590703
              ],
              [
                126.86382005,
                35.16602702
              ],
              [
                126.86404188,
                35.16613084
              ],
              [
                126.86415845,
                35.16617677
              ],
              [
                126.8642442,
                35.16618587
              ],
              [
                126.8643202,
                35.16617545
              ],
              [
                126.86434906,
                35.16618418
              ],
              [
                126.86440424,
                35.16619117
              ],
              [
                126.864421,
                35.16620735
              ],
              [
                126.86652706,
                35.16614233
              ]
            ]
          ]
        ]
      },
      "properties": {
        "parcelId": "KR-GWANGJU-METRO-1224011800100180003",
        "id": "KR-GWANGJU-METRO-1224011800100180003",
        "sourceId": "kr-gwangju-city-wfs-cadastral-parcels",
        "sourceParcelId": "1224011800100180003",
        "parcelNumber": "1224011800100180003",
        "cadMunicipalityName": null,
        "ownershipType": "unknown",
        "sourceProperties": {
          "pnu": "1224011800100180003"
        }
      }
    },
    {
      "type": "Feature",
      "id": "KR-GWANGJU-METRO-1224011800109200000",
      "geometry": {
        "type": "MultiPolygon",
        "coordinates": [
          [
            [
              [
                126.86709899,
                35.16547645
              ],
              [
                126.86706093,
                35.16544346
              ],
              [
                126.86703516,
                35.16544037
              ],
              [
                126.86695597,
                35.16540413
              ],
              [
                126.86684361,
                35.16529191
              ],
              [
                126.86675104,
                35.16519756
              ],
              [
                126.86669378,
                35.16515241
              ],
              [
                126.8666813,
                35.16513448
              ],
              [
                126.86670411,
                35.1650888
              ],
              [
                126.86671786,
                35.16508365
              ],
              [
                126.86690969,
                35.1651062
              ],
              [
                126.86693487,
                35.16508527
              ],
              [
                126.86696617,
                35.16507078
              ],
              [
                126.86696409,
                35.16503609
              ],
              [
                126.86694666,
                35.16502199
              ],
              [
                126.86693601,
                35.16501101
              ],
              [
                126.86694769,
                35.16496637
              ],
              [
                126.86696856,
                35.16492356
              ],
              [
                126.86699147,
                35.16488693
              ],
              [
                126.86701073,
                35.16486227
              ],
              [
                126.86708538,
                35.16476503
              ],
              [
                126.86714081,
                35.16469283
              ],
              [
                126.86711668,
                35.16464496
              ],
              [
                126.86711183,
                35.16462544
              ],
              [
                126.86712407,
                35.16458508
              ],
              [
                126.86714404,
                35.16455527
              ],
              [
                126.86716671,
                35.16451932
              ],
              [
                126.86724792,
                35.16435025
              ],
              [
                126.86729187,
                35.16420532
              ],
              [
                126.86735328,
                35.16406024
              ],
              [
                126.86739965,
                35.16393391
              ],
              [
                126.86745441,
                35.16385158
              ],
              [
                126.86751176,
                35.16372301
              ],
              [
                126.86757133,
                35.16358949
              ],
              [
                126.86759974,
                35.16351496
              ],
              [
                126.86764181,
                35.16340271
              ],
              [
                126.86766713,
                35.16333623
              ],
              [
                126.86771223,
                35.16316215
              ],
              [
                126.86774559,
                35.16306598
              ],
              [
                126.86777312,
                35.16284508
              ],
              [
                126.86777826,
                35.16280901
              ],
              [
                126.86781363,
                35.16260624
              ],
              [
                126.86783131,
                35.16255205
              ],
              [
                126.86785566,
                35.16249428
              ],
              [
                126.86786883,
                35.16243696
              ],
              [
                126.86785354,
                35.16242341
              ],
              [
                126.86781894,
                35.16242211
              ],
              [
                126.86785326,
                35.16244772
              ],
              [
                126.86784542,
                35.16249437
              ],
              [
                126.86779296,
                35.1626082
              ],
              [
                126.86778661,
                35.1626589
              ],
              [
                126.86775765,
                35.16284244
              ],
              [
                126.86771846,
                35.16309364
              ],
              [
                126.86769355,
                35.16318375
              ],
              [
                126.86765135,
                35.16333636
              ],
              [
                126.86761715,
                35.16336458
              ],
              [
                126.86760006,
                35.16345688
              ],
              [
                126.86755457,
                35.16357412
              ],
              [
                126.86752215,
                35.16365894
              ],
              [
                126.86745555,
                35.16383139
              ],
              [
                126.86742557,
                35.16386918
              ],
              [
                126.8673926,
                35.1639031
              ],
              [
                126.86737326,
                35.16391565
              ],
              [
                126.8673124,
                35.16411783
              ],
              [
                126.86727684,
                35.16420571
              ],
              [
                126.86725234,
                35.16423705
              ],
              [
                126.86723331,
                35.16425884
              ],
              [
                126.86723319,
                35.16434045
              ],
              [
                126.86718086,
                35.1644509
              ],
              [
                126.86713437,
                35.16455751
              ],
              [
                126.86711307,
                35.16458012
              ],
              [
                126.86710059,
                35.16460483
              ],
              [
                126.86709704,
                35.16466783
              ],
              [
                126.86713017,
                35.16468737
              ],
              [
                126.86706671,
                35.16477132
              ],
              [
                126.86698431,
                35.16488052
              ],
              [
                126.86695666,
                35.16491679
              ],
              [
                126.86693292,
                35.16496953
              ],
              [
                126.86692866,
                35.16502661
              ],
              [
                126.86694643,
                35.16506752
              ],
              [
                126.86692106,
                35.16507826
              ],
              [
                126.86689893,
                35.16509473
              ],
              [
                126.86672162,
                35.16507066
              ],
              [
                126.86669721,
                35.16508282
              ],
              [
                126.86667532,
                35.16512041
              ],
              [
                126.86667163,
                35.16513681
              ],
              [
                126.86669029,
                35.16516452
              ],
              [
                126.86675615,
                35.1652242
              ],
              [
                126.86690211,
                35.16536009
              ],
              [
                126.86694053,
                35.1654092
              ],
              [
                126.86709899,
                35.16547645
              ]
            ]
          ]
        ]
      },
      "properties": {
        "parcelId": "KR-GWANGJU-METRO-1224011800109200000",
        "id": "KR-GWANGJU-METRO-1224011800109200000",
        "sourceId": "kr-gwangju-city-wfs-cadastral-parcels",
        "sourceParcelId": "1224011800109200000",
        "parcelNumber": "1224011800109200000",
        "cadMunicipalityName": null,
        "ownershipType": "unknown",
        "sourceProperties": {
          "pnu": "1224011800109200000"
        }
      }
    },
    {
      "type": "Feature",
      "id": "KR-GWANGJU-METRO-1224012100108230001",
      "geometry": {
        "type": "MultiPolygon",
        "coordinates": [
          [
            [
              [
                126.86785354,
                35.16242341
              ],
              [
                126.86788995,
                35.16242881
              ],
              [
                126.86787983,
                35.16248058
              ],
              [
                126.86793663,
                35.16247764
              ],
              [
                126.86801167,
                35.16248241
              ],
              [
                126.86814568,
                35.16253293
              ],
              [
                126.86820452,
                35.16255156
              ],
              [
                126.86828065,
                35.16258015
              ],
              [
                126.86832253,
                35.16263639
              ],
              [
                126.86835559,
                35.16265364
              ],
              [
                126.86840228,
                35.16263963
              ],
              [
                126.86843036,
                35.16261897
              ],
              [
                126.86847106,
                35.16261873
              ],
              [
                126.86850703,
                35.16265735
              ],
              [
                126.8685163,
                35.16266214
              ],
              [
                126.86855825,
                35.16267427
              ],
              [
                126.86857983,
                35.16267594
              ],
              [
                126.86861764,
                35.16267634
              ],
              [
                126.86862222,
                35.16269108
              ],
              [
                126.86858112,
                35.1627035
              ],
              [
                126.86854421,
                35.16272675
              ],
              [
                126.8685276,
                35.16276199
              ],
              [
                126.86852106,
                35.16283822
              ],
              [
                126.86850336,
                35.1629751
              ],
              [
                126.86847839,
                35.16309607
              ],
              [
                126.86847224,
                35.1631493
              ],
              [
                126.8684639,
                35.16317753
              ],
              [
                126.86840361,
                35.1631941
              ],
              [
                126.86827855,
                35.1631847
              ],
              [
                126.86827745,
                35.16320312
              ],
              [
                126.86839449,
                35.16321456
              ],
              [
                126.86844904,
                35.16320699
              ],
              [
                126.86849429,
                35.16317967
              ],
              [
                126.86849873,
                35.16309608
              ],
              [
                126.86852259,
                35.16297952
              ],
              [
                126.86854859,
                35.16276835
              ],
              [
                126.86855856,
                35.16273738
              ],
              [
                126.86858926,
                35.16271406
              ],
              [
                126.86863742,
                35.16269761
              ],
              [
                126.8687582,
                35.16268751
              ],
              [
                126.86883963,
                35.16266096
              ],
              [
                126.86890442,
                35.16265389
              ],
              [
                126.86893131,
                35.16265418
              ],
              [
                126.86895889,
                35.16264389
              ],
              [
                126.86918677,
                35.16260982
              ],
              [
                126.86931244,
                35.16260627
              ],
              [
                126.86942231,
                35.16256703
              ],
              [
                126.8695935,
                35.16248015
              ],
              [
                126.86963725,
                35.1624546
              ],
              [
                126.8696536,
                35.16247218
              ],
              [
                126.86964481,
                35.16248944
              ],
              [
                126.86954888,
                35.16252078
              ],
              [
                126.86947409,
                35.16256784
              ],
              [
                126.86941244,
                35.16263262
              ],
              [
                126.86934328,
                35.16266334
              ],
              [
                126.86919447,
                35.16268789
              ],
              [
                126.86912422,
                35.16272349
              ],
              [
                126.86910714,
                35.16276216
              ],
              [
                126.86910464,
                35.16310606
              ],
              [
                126.86910153,
                35.1631876
              ],
              [
                126.86909559,
                35.16324967
              ],
              [
                126.86909533,
                35.16341204
              ],
              [
                126.8691213,
                35.16346422
              ],
              [
                126.86918697,
                35.16356234
              ],
              [
                126.86929886,
                35.16367616
              ],
              [
                126.8693945,
                35.16373164
              ],
              [
                126.86945288,
                35.16377131
              ],
              [
                126.86950883,
                35.16380878
              ],
              [
                126.86957177,
                35.16383115
              ],
              [
                126.86957296,
                35.16382051
              ],
              [
                126.8695261,
                35.16379494
              ],
              [
                126.86949075,
                35.163779
              ],
              [
                126.86937217,
                35.1636969
              ],
              [
                126.86931731,
                35.16365646
              ],
              [
                126.86920592,
                35.16354374
              ],
              [
                126.8691646,
                35.16347887
              ],
              [
                126.86914293,
                35.16344737
              ],
              [
                126.86912281,
                35.16339751
              ],
              [
                126.8691116,
                35.16333729
              ],
              [
                126.86910643,
                35.163269
              ],
              [
                126.8691339,
                35.1631013
              ],
              [
                126.8691368,
                35.16295072
              ],
              [
                126.86913443,
                35.16277067
              ],
              [
                126.86915824,
                35.16272385
              ],
              [
                126.86920446,
                35.16270792
              ],
              [
                126.86929502,
                35.16269324
              ],
              [
                126.86934549,
                35.16268357
              ],
              [
                126.86944399,
                35.16264376
              ],
              [
                126.86948762,
                35.16259265
              ],
              [
                126.86956643,
                35.16253206
              ],
              [
                126.86965369,
                35.16250034
              ],
              [
                126.86969517,
                35.16247554
              ],
              [
                126.86971017,
                35.16243428
              ],
              [
                126.86977372,
                35.16238431
              ],
              [
                126.86992575,
                35.16228569
              ],
              [
                126.86997537,
                35.16225717
              ],
              [
                126.86989661,
                35.16226082
              ],
              [
                126.86985887,
                35.16228562
              ],
              [
                126.86977108,
                35.16234297
              ],
              [
                126.86969632,
                35.16239409
              ],
              [
                126.86962407,
                35.16244583
              ],
              [
                126.8695826,
                35.16246658
              ],
              [
                126.86938197,
                35.16255083
              ],
              [
                126.8692996,
                35.16256965
              ],
              [
                126.86922038,
                35.16256531
              ],
              [
                126.86912007,
                35.16256465
              ],
              [
                126.86911154,
                35.16259336
              ],
              [
                126.86906833,
                35.16259468
              ],
              [
                126.86889993,
                35.16263955
              ],
              [
                126.86882509,
                35.16264579
              ],
              [
                126.86874051,
                35.16266759
              ],
              [
                126.86861438,
                35.16266604
              ],
              [
                126.86850683,
                35.16264107
              ],
              [
                126.86847932,
                35.16259998
              ],
              [
                126.86844805,
                35.16259999
              ],
              [
                126.8684146,
                35.16260835
              ],
              [
                126.86840588,
                35.16260945
              ],
              [
                126.86837256,
                35.16263128
              ],
              [
                126.86833884,
                35.16262611
              ],
              [
                126.86829381,
                35.16256888
              ],
              [
                126.86823367,
                35.1625401
              ],
              [
                126.86801155,
                35.16247113
              ],
              [
                126.86790486,
                35.16242149
              ],
              [
                126.86789657,
                35.16241299
              ],
              [
                126.86784221,
                35.16239497
              ],
              [
                126.86784856,
                35.16240641
              ],
              [
                126.86785354,
                35.16242341
              ]
            ]
          ]
        ]
      },
      "properties": {
        "parcelId": "KR-GWANGJU-METRO-1224012100108230001",
        "id": "KR-GWANGJU-METRO-1224012100108230001",
        "sourceId": "kr-gwangju-city-wfs-cadastral-parcels",
        "sourceParcelId": "1224012100108230001",
        "parcelNumber": "1224012100108230001",
        "cadMunicipalityName": null,
        "ownershipType": "unknown",
        "sourceProperties": {
          "pnu": "1224012100108230001"
        }
      }
    }
  ]
}
