{
  "type": "FeatureCollection",
  "features": [
    {
      "type": "Feature",
      "id": "DE-HH-ALKIS-020301___01581______",
      "geometry": {
        "type": "MultiPolygon",
        "coordinates": [
          [
            [
              [
                9.992990509462121,
                53.57389462210208
              ],
              [
                9.99302832214445,
                53.57381176594766
              ],
              [
                9.993070135417465,
                53.57372959362665
              ],
              [
                9.993115914444743,
                53.573648173554744
              ],
              [
                9.993286222594797,
                53.57335942752454
              ],
              [
                9.99317980932737,
                53.57332066076543
              ],
              [
                9.993165956317972,
                53.573279237803256
              ],
              [
                9.993171146550088,
                53.57326291570925
              ],
              [
                9.99317320935826,
                53.57325942884527
              ],
              [
                9.993273635027414,
                53.57308912620222
              ],
              [
                9.99333527612439,
                53.57296773085238
              ],
              [
                9.992838360649106,
                53.572864860511174
              ],
              [
                9.99284384825498,
                53.572834153629046
              ],
              [
                9.992416941728697,
                53.572822558637554
              ],
              [
                9.992396273445065,
                53.573172391571596
              ],
              [
                9.992372167413254,
                53.57330383931752
              ],
              [
                9.9923410125462,
                53.57383663053919
              ],
              [
                9.992245062236421,
                53.57383451402098
              ],
              [
                9.992243512446718,
                53.57385862626802
              ],
              [
                9.992177996162503,
                53.57385726401881
              ],
              [
                9.991989712318398,
                53.573995286838425
              ],
              [
                9.991971850633078,
                53.5740141949046
              ],
              [
                9.99195026984844,
                53.57426973211179
              ],
              [
                9.99290038465647,
                53.57429650236312
              ],
              [
                9.992923842917545,
                53.5742766847657
              ],
              [
                9.992925848755464,
                53.57426882974691
              ],
              [
                9.992996100724259,
                53.57399466772523
              ],
              [
                9.992990509462121,
                53.57389462210208
              ]
            ]
          ]
        ]
      },
      "properties": {
        "parcelId": "DE-HH-ALKIS-020301___01581______",
        "id": "DE-HH-ALKIS-020301___01581______",
        "sourceId": "de-hh-alkis-flurstueck",
        "sourceParcelId": "020301___01581______",
        "parcelNumber": "020301___01581______",
        "cadMunicipalityName": null,
        "ownershipType": "unknown",
        "sourceProperties": {
          "flstkennz": "020301___01581______",
          "oid": "DEHHALKAV000094xFL"
        }
      }
    },
    {
      "type": "Feature",
      "id": "DE-HH-ALKIS-020301___01582______",
      "geometry": {
        "type": "MultiPolygon",
        "coordinates": [
          [
            [
              [
                9.98921070752268,
                53.57279692497113
              ],
              [
                9.989224206575505,
                53.57307956992303
              ],
              [
                9.989225315917388,
                53.57310315675674
              ],
              [
                9.989249109686014,
                53.57360231441081
              ],
              [
                9.989250565993395,
                53.57381480124655
              ],
              [
                9.989845843397854,
                53.57380051061565
              ],
              [
                9.989875750563959,
                53.5742112651036
              ],
              [
                9.99195026984844,
                53.57426973211179
              ],
              [
                9.991971850633078,
                53.5740141949046
              ],
              [
                9.991989712318398,
                53.573995286838425
              ],
              [
                9.992177996162503,
                53.57385726401881
              ],
              [
                9.992243512446718,
                53.57385862626802
              ],
              [
                9.992245062236421,
                53.57383451402098
              ],
              [
                9.9923410125462,
                53.57383663053919
              ],
              [
                9.992372167413254,
                53.57330383931752
              ],
              [
                9.992396273445065,
                53.573172391571596
              ],
              [
                9.992416941728697,
                53.572822558637554
              ],
              [
                9.991206795038398,
                53.57278967871231
              ],
              [
                9.991215580314297,
                53.57285278030816
              ],
              [
                9.98921070752268,
                53.57279692497113
              ]
            ]
          ]
        ]
      },
      "properties": {
        "parcelId": "DE-HH-ALKIS-020301___01582______",
        "id": "DE-HH-ALKIS-020301___01582______",
        "sourceId": "de-hh-alkis-flurstueck",
        "sourceParcelId": "020301___01582______",
        "parcelNumber": "020301___01582______",
        "cadMunicipalityName": null,
        "ownershipType": "unknown",
        "sourceProperties": {
          "flstkennz": "020301___01582______",
          "oid": "DEHHALKAV00008yeFL"
        }
      }
    },
    {
      "type": "Feature",
      "id": "DE-HH-ALKIS-020301___01558______",
      "geometry": {
        "type": "MultiPolygon",
        "coordinates": [
          [
            [
              [
                9.992990509462121,
                53.57389462210208
              ],
              [
                9.992996100724259,
                53.57399466772523
              ],
              [
                9.993021006055436,
                53.57389739823109
              ],
              [
                9.99329750981202,
                53.57336354063516
              ],
              [
                9.993286222594797,
                53.57335942752454
              ],
              [
                9.993115914444743,
                53.573648173554744
              ],
              [
                9.993070135417465,
                53.57372959362665
              ],
              [
                9.99302832214445,
                53.57381176594766
              ],
              [
                9.992990509462121,
                53.57389462210208
              ]
            ]
          ]
        ]
      },
      "properties": {
        "parcelId": "DE-HH-ALKIS-020301___01558______",
        "id": "DE-HH-ALKIS-020301___01558______",
        "sourceId": "de-hh-alkis-flurstueck",
        "sourceParcelId": "020301___01558______",
        "parcelNumber": "020301___01558______",
        "cadMunicipalityName": null,
        "ownershipType": "unknown",
        "sourceProperties": {
          "flstkennz": "020301___01558______",
          "oid": "DEHHALKAV00001TOFL"
        }
      }
    }
  ]
}
