{"type":"FeatureCollection","features":[{"type":"Feature","id":"TR-TKGM-128083-2088-4","properties":{"parcelId":"TR-TKGM-128083-2088-4","sourceId":"tr-tkgm-parselsorgu-api"},"geometry":{"type":"Polygon","coordinates":[[[32.48692,37.86506],[32.48584,37.86465],[32.48599,37.8644],[32.48604,37.86433],[32.4861,37.86424],[32.48627,37.86402],[32.48631,37.86397],[32.48651,37.86376],[32.48669,37.86357],[32.48753,37.86438],[32.48753,37.86439],[32.48714,37.8648],[32.48693,37.86505],[32.48692,37.86506]]]}}]}
