{
  "type": "FeatureCollection",
  "features": [
    {
      "type": "Feature",
      "id": "US-NV-CLARK-16204311032",
      "geometry": {
        "type": "Polygon",
        "coordinates": [
          [
            [
              -115.16595222995062,
              36.15067595940401
            ],
            [
              -115.16623037776401,
              36.15083769050848
            ],
            [
              -115.16624549103513,
              36.15083361161506
            ],
            [
              -115.16625942161464,
              36.15083104908366
            ],
            [
              -115.16627568776767,
              36.150827304976445
            ],
            [
              -115.1662892807814,
              36.15082175167391
            ],
            [
              -115.16630267312314,
              36.15081337932474
            ],
            [
              -115.16631337436183,
              36.15080344196953
            ],
            [
              -115.16640334848525,
              36.15070165396456
            ],
            [
              -115.16609012138312,
              36.15051952282928
            ],
            [
              -115.16595222995062,
              36.15067595940401
            ]
          ]
        ]
      },
      "properties": {
        "parcelId": "US-NV-CLARK-16204311032",
        "id": "US-NV-CLARK-16204311032",
        "sourceId": "us-nv-clark-assessor-parcels",
        "sourceParcelId": "16204311032",
        "parcelNumber": "16204311032",
        "cadMunicipalityName": null,
        "ownershipType": "unknown",
        "sourceProperties": {
          "OID": 475239,
          "APN": "16204311032"
        }
      }
    },
    {
      "type": "Feature",
      "id": "US-NV-CLARK-16204311033",
      "geometry": {
        "type": "Polygon",
        "coordinates": [
          [
            [
              -115.16595222995062,
              36.15067595940401
            ],
            [
              -115.16571911890428,
              36.150940420059285
            ],
            [
              -115.16567053434161,
              36.15099553779494
            ],
            [
              -115.166132913986,
              36.15096446679986
            ],
            [
              -115.16613289732102,
              36.15094390372058
            ],
            [
              -115.16613663736138,
              36.150924933697034
            ],
            [
              -115.16614391885105,
              36.15090665288244
            ],
            [
              -115.16615545139422,
              36.15088832108191
            ],
            [
              -115.1661694283376,
              36.15087280983232
            ],
            [
              -115.16618746277496,
              36.15085833207821
            ],
            [
              -115.16620817952068,
              36.1508464485753
            ],
            [
              -115.16623037776401,
              36.15083769050848
            ],
            [
              -115.16595222995062,
              36.15067595940401
            ]
          ]
        ]
      },
      "properties": {
        "parcelId": "US-NV-CLARK-16204311033",
        "id": "US-NV-CLARK-16204311033",
        "sourceId": "us-nv-clark-assessor-parcels",
        "sourceParcelId": "16204311033",
        "parcelNumber": "16204311033",
        "cadMunicipalityName": null,
        "ownershipType": "unknown",
        "sourceProperties": {
          "OID": 533450,
          "APN": "16204311033"
        }
      }
    },
    {
      "type": "Feature",
      "id": "US-NV-CLARK-16204301004",
      "geometry": {
        "type": "Polygon",
        "coordinates": [
          [
            [
              -115.16511145624408,
              36.14983188266838
            ],
            [
              -115.16547364195061,
              36.15004866981731
            ],
            [
              -115.1656665783727,
              36.149828288778174
            ],
            [
              -115.1655896140533,
              36.14978072041586
            ],
            [
              -115.16530708114666,
              36.14960609931968
            ],
            [
              -115.16511145624408,
              36.14983188266838
            ]
          ]
        ]
      },
      "properties": {
        "parcelId": "US-NV-CLARK-16204301004",
        "id": "US-NV-CLARK-16204301004",
        "sourceId": "us-nv-clark-assessor-parcels",
        "sourceParcelId": "16204301004",
        "parcelNumber": "16204301004",
        "cadMunicipalityName": null,
        "ownershipType": "unknown",
        "sourceProperties": {
          "OID": 567868,
          "APN": "16204301004"
        }
      }
    }
  ]
}
