{
  "type": "FeatureCollection",
  "features": [
    {
      "type": "Feature",
      "id": "MO-DSCC-CAD-87",
      "geometry": {
        "type": "Polygon",
        "coordinates": [
          [
            [
              113.54476949955031,
              22.19339139397113
            ],
            [
              113.54490871824784,
              22.193073672683703
            ],
            [
              113.54517357507774,
              22.193174322706497
            ],
            [
              113.54503435687688,
              22.19349204421621
            ],
            [
              113.54476949955031,
              22.19339139397113
            ]
          ]
        ]
      },
      "properties": {
        "parcelId": "MO-DSCC-CAD-87",
        "id": "MO-DSCC-CAD-87",
        "sourceId": "mo-dscc-cad-lote",
        "sourceParcelId": "87",
        "parcelNumber": "87",
        "cadMunicipalityName": null,
        "ownershipType": "unknown",
        "sourceProperties": {
          "OBJECTID": 87
        }
      }
    },
    {
      "type": "Feature",
      "id": "MO-DSCC-CAD-88",
      "geometry": {
        "type": "Polygon",
        "coordinates": [
          [
            [
              113.54455408627724,
              22.192938891087405
            ],
            [
              113.54477405479578,
              22.193022485203137
            ],
            [
              113.54454503497654,
              22.193545151004866
            ],
            [
              113.5443437784101,
              22.193418841003457
            ],
            [
              113.54455408627724,
              22.192938891087405
            ]
          ]
        ]
      },
      "properties": {
        "parcelId": "MO-DSCC-CAD-88",
        "id": "MO-DSCC-CAD-88",
        "sourceId": "mo-dscc-cad-lote",
        "sourceParcelId": "88",
        "parcelNumber": "88",
        "cadMunicipalityName": null,
        "ownershipType": "unknown",
        "sourceProperties": {
          "OBJECTID": 88
        }
      }
    },
    {
      "type": "Feature",
      "id": "MO-DSCC-CAD-150",
      "geometry": {
        "type": "Polygon",
        "coordinates": [
          [
            [
              113.5442338954532,
              22.194341844504876
            ],
            [
              113.54455862105536,
              22.19389634986201
            ],
            [
              113.54508078189959,
              22.19422615623952
            ],
            [
              113.54494715902688,
              22.194405971255613
            ],
            [
              113.54483090176952,
              22.194563389413997
            ],
            [
              113.54482400794072,
              22.194575544936686
            ],
            [
              113.54474963781811,
              22.19467220309731
            ],
            [
              113.54468041649277,
              22.194765402248954
            ],
            [
              113.54467168988693,
              22.194777151480945
            ],
            [
              113.54461744197489,
              22.19472577920058
            ],
            [
              113.54434726030233,
              22.19447476929151
            ],
            [
              113.54423583608605,
              22.194364420878287
            ],
            [
              113.54423560528569,
              22.194364189706288
            ],
            [
              113.54423538030333,
              22.194363954921766
            ],
            [
              113.54423515919957,
              22.19436371652483
            ],
            [
              113.54423494197438,
              22.194363474515463
            ],
            [
              113.54423472862777,
              22.1943632288937
            ],
            [
              113.54423452109914,
              22.194362979659395
            ],
            [
              113.5442343174491,
              22.194362726812695
            ],
            [
              113.54423411961713,
              22.19436247215959
            ],
            [
              113.54423392566366,
              22.19436221208795
            ],
            [
              113.54423373558888,
              22.194361950210002
            ],
            [
              113.54423355327144,
              22.194361684719468
            ],
            [
              113.5442333748327,
              22.194361417422616
            ],
            [
              113.54423320027254,
              22.194361146513337
            ],
            [
              113.54423303153047,
              22.194360873797677
            ],
            [
              113.54423286860639,
              22.1943605974695
            ],
            [
              113.54423270956086,
              22.194360317528908
            ],
            [
              113.54423255633343,
              22.19436003578191
            ],
            [
              113.54423240892406,
              22.194359752228515
            ],
            [
              113.54423226539339,
              22.194359466868843
            ],
            [
              113.54423212962008,
              22.194359177896533
            ],
            [
              113.54423199772546,
              22.194358887117946
            ],
            [
              113.54423187164892,
              22.19435859453295
            ],
            [
              113.54423174945106,
              22.194358300141673
            ],
            [
              113.54423163501066,
              22.19435800394389
            ],
            [
              113.54423152638824,
              22.194357704133605
            ],
            [
              113.54423142164462,
              22.194357404323117
            ],
            [
              113.54423132271907,
              22.194357102706253
            ],
            [
              113.54423123155098,
              22.194356799282893
            ],
            [
              113.54423114426157,
              22.194356494053228
            ],
            [
              113.54423106279025,
              22.194356187017174
            ],
            [
              113.54423098713711,
              22.194355879980844
            ],
            [
              113.54423091730203,
              22.194355571138118
            ],
            [
              113.54423085328514,
              22.19435526229512
            ],
            [
              113.54423079508632,
              22.194354951645728
            ],
            [
              113.54423074270558,
              22.19435463918993
            ],
            [
              113.5442306980824,
              22.19435432673376
            ],
            [
              113.5442306573379,
              22.194354012471308
            ],
            [
              113.54423062241158,
              22.194353698208566
            ],
            [
              113.54423059330354,
              22.19435338575165
            ],
            [
              113.54423057001347,
              22.19435306968225
            ],
            [
              113.54423055254168,
              22.194352755418677
            ],
            [
              113.54423054282736,
              22.194352439348616
            ],
            [
              113.5442305369919,
              22.194352125084485
            ],
            [
              113.54423053891394,
              22.19435180901387
            ],
            [
              113.54423054471475,
              22.194351492943067
            ],
            [
              113.54423055633383,
              22.19435117867812
            ],
            [
              113.54423057571039,
              22.194350862606672
            ],
            [
              113.54423060090521,
              22.194350548341056
            ],
            [
              113.54423062997881,
              22.194350234075266
            ],
            [
              113.54423066680998,
              22.194349919809095
            ],
            [
              113.54423070945944,
              22.194349607348787
            ],
            [
              113.54423075598767,
              22.194349294888273
            ],
            [
              113.54423081027356,
              22.19434898423352
            ],
            [
              113.54423087037763,
              22.194348673578492
            ],
            [
              113.54423093629987,
              22.19434836292317
            ],
            [
              113.544231006101,
              22.194348054073796
            ],
            [
              113.54423108365981,
              22.19434774703016
            ],
            [
              113.54423116703687,
              22.194347441792363
            ],
            [
              113.54423125429273,
              22.19434713655438
            ],
            [
              113.54423134930633,
              22.194346834928275
            ],
            [
              113.54423144819873,
              22.194346533301967
            ],
            [
              113.5442315548488,
              22.194346233481422
            ],
            [
              113.54423166537775,
              22.194345935466806
            ],
            [
              113.54423178172496,
              22.194345639258028
            ],
            [
              113.54423190389045,
              22.19434534485508
            ],
            [
              113.5442320318742,
              22.194345052257994
            ],
            [
              113.54423216567626,
              22.194344761466724
            ],
            [
              113.54423230335729,
              22.194344474287515
            ],
            [
              113.54423244685657,
              22.194344188914158
            ],
            [
              113.54423259617414,
              22.19434390534662
            ],
            [
              113.54423275130998,
              22.194343623584942
            ],
            [
              113.5442329103248,
              22.194343345435286
            ],
            [
              113.54423307515799,
              22.19434307089761
            ],
            [
              113.54423324580947,
              22.194342798165763
            ],
            [
              113.54423342033981,
              22.194342527239858
            ],
            [
              113.54423360068853,
              22.194342259925904
            ],
            [
              113.54423378685561,
              22.194341996223898
            ],
            [
              113.5442338954532,
              22.194341844504876
            ]
          ]
        ]
      },
      "properties": {
        "parcelId": "MO-DSCC-CAD-150",
        "id": "MO-DSCC-CAD-150",
        "sourceId": "mo-dscc-cad-lote",
        "sourceParcelId": "150",
        "parcelNumber": "150",
        "cadMunicipalityName": null,
        "ownershipType": "unknown",
        "sourceProperties": {
          "OBJECTID": 150
        }
      }
    }
  ]
}
