{
  "features": [
    {
      "geometry": {
        "type": "Polygon",
        "coordinates": [
          [
            [
              -68.82710965870699,
              -32.90435513964513
            ],
            [
              -68.82720053617979,
              -32.90434435574048
            ],
            [
              -68.82721227713712,
              -32.904408120487666
            ],
            [
              -68.82722042185104,
              -32.90445231451091
            ],
            [
              -68.82720661204434,
              -32.904463115695755
            ],
            [
              -68.82713508134381,
              -32.90447401742529
            ],
            [
              -68.82712946733564,
              -32.90444768124234
            ],
            [
              -68.82712417067486,
              -32.90442305690378
            ],
            [
              -68.8271145314819,
              -32.90437786894952
            ],
            [
              -68.82710965870699,
              -32.90435513964513
            ]
          ]
        ],
        "crs": null
      },
      "id": 27623,
      "type": "Feature",
      "properties": {
        "fid": 27623,
        "globalid": "{A93CDAC9-6DFE-44AA-8711-642FA9E16341}",
        "nomenclatu": "040102005300003800008"
      }
    },
    {
      "geometry": {
        "type": "Polygon",
        "coordinates": [
          [
            [
              -68.82766655937237,
              -32.904794761485874
            ],
            [
              -68.82766714028364,
              -32.90477077645497
            ],
            [
              -68.82766808133343,
              -32.9047264155501
            ],
            [
              -68.82766982563182,
              -32.90465365074155
            ],
            [
              -68.82767111372277,
              -32.904595673906705
            ],
            [
              -68.82769404337284,
              -32.90456721213255
            ],
            [
              -68.82789558283527,
              -32.90454070955058
            ],
            [
              -68.82801190893278,
              -32.90452545073724
            ],
            [
              -68.82800782767028,
              -32.904646091128555
            ],
            [
              -68.82800636527521,
              -32.90473905326457
            ],
            [
              -68.82800646279044,
              -32.904799196061866
            ],
            [
              -68.8279423233885,
              -32.90480181288023
            ],
            [
              -68.82786770786231,
              -32.90480486608769
            ],
            [
              -68.82771345242557,
              -32.9048112368539
            ],
            [
              -68.82768416204094,
              -32.90481245795195
            ],
            [
              -68.82766609618317,
              -32.90481315440327
            ],
            [
              -68.82766655937237,
              -32.904794761485874
            ]
          ]
        ],
        "crs": null
      },
      "id": 30822,
      "type": "Feature",
      "properties": {
        "fid": 30822,
        "globalid": "{EAA6B690-F1E2-4ACA-AAF6-951BC14FAEE5}",
        "nomenclatu": "040102005500032500007"
      }
    },
    {
      "geometry": {
        "type": "Polygon",
        "coordinates": [
          [
            [
              -68.82726181126127,
              -32.90368734522963
            ],
            [
              -68.8274018454529,
              -32.90366547067543
            ],
            [
              -68.82740879006498,
              -32.903721665420555
            ],
            [
              -68.82741468000107,
              -32.90377108612114
            ],
            [
              -68.82741678385106,
              -32.903788581796356
            ],
            [
              -68.82741741486629,
              -32.903793902633836
            ],
            [
              -68.82742088658823,
              -32.90382258114343
            ],
            [
              -68.82742793447946,
              -32.90388120067101
            ],
            [
              -68.82751004319738,
              -32.903872117645776
            ],
            [
              -68.82751446139918,
              -32.903908821590576
            ],
            [
              -68.82755754771307,
              -32.90390374139445
            ],
            [
              -68.8275541042321,
              -32.904025915533175
            ],
            [
              -68.82754674214077,
              -32.904294789994744
            ],
            [
              -68.82754341705419,
              -32.904411012238725
            ],
            [
              -68.82739885864292,
              -32.90443317465185
            ],
            [
              -68.82738246250752,
              -32.904344607043605
            ],
            [
              -68.82735876555795,
              -32.90421761558933
            ],
            [
              -68.8273364438873,
              -32.9040980207804
            ],
            [
              -68.82732142343735,
              -32.90401666767134
            ],
            [
              -68.82732078752457,
              -32.904013872458236
            ],
            [
              -68.8273000577431,
              -32.90390023008483
            ],
            [
              -68.8272740406241,
              -32.90375718623444
            ],
            [
              -68.82726181126127,
              -32.90368734522963
            ]
          ]
        ],
        "crs": null
      },
      "id": 44290,
      "type": "Feature",
      "properties": {
        "fid": 44290,
        "globalid": "{ADF4B986-3142-4B94-93E3-B845C1712347}",
        "nomenclatu": "040102005400000200009"
      }
    }
  ],
  "type": "FeatureCollection",
  "properties": {
    "exceededTransferLimit": true
  }
}
