{
  "type": "FeatureCollection",
  "features": [
    {
      "type": "Feature",
      "id": "US-MESA-CITY-30212519A",
      "geometry": {
        "type": "Polygon",
        "coordinates": [
          [
            [
              -111.808272618881,
              33.3766491371793
            ],
            [
              -111.808273666619,
              33.3767462894359
            ],
            [
              -111.809863091378,
              33.3767342145056
            ],
            [
              -111.809866798327,
              33.3771157274846
            ],
            [
              -111.809662715164,
              33.3772859175582
            ],
            [
              -111.809428835601,
              33.3772871205968
            ],
            [
              -111.809429587367,
              33.3777131764628
            ],
            [
              -111.809348917067,
              33.3777137631916
            ],
            [
              -111.809353939848,
              33.3779812044167
            ],
            [
              -111.809366071675,
              33.3786271957398
            ],
            [
              -111.809407389418,
              33.3786270429913
            ],
            [
              -111.809410148485,
              33.3787372606853
            ],
            [
              -111.808837395646,
              33.3787411467838
            ],
            [
              -111.808343480414,
              33.3787280044146
            ],
            [
              -111.808144136861,
              33.378729355089
            ],
            [
              -111.808139885416,
              33.3781406653183
            ],
            [
              -111.808285163911,
              33.3781407552795
            ],
            [
              -111.808280204891,
              33.3777188409378
            ],
            [
              -111.807443073661,
              33.3777259204979
            ],
            [
              -111.807431435452,
              33.3765787560833
            ],
            [
              -111.807559415953,
              33.3765766873969
            ],
            [
              -111.807628088963,
              33.376585444523
            ],
            [
              -111.807696061626,
              33.3765974467104
            ],
            [
              -111.807746956877,
              33.3766109669734
            ],
            [
              -111.807798526444,
              33.3766225497998
            ],
            [
              -111.80785066561,
              33.3766321716694
            ],
            [
              -111.807903268499,
              33.3766398130438
            ],
            [
              -111.807956228295,
              33.3766454584062
            ],
            [
              -111.808009437458,
              33.376649096293
            ],
            [
              -111.808062787939,
              33.3766507193171
            ],
            [
              -111.808116171403,
              33.3766503241828
            ],
            [
              -111.808272618881,
              33.3766491371793
            ]
          ]
        ]
      },
      "properties": {
        "parcelId": "US-MESA-CITY-30212519A",
        "id": "US-MESA-CITY-30212519A",
        "sourceId": "us-az-mesa-city-parcels",
        "sourceParcelId": "30212519A",
        "parcelNumber": "30212519A",
        "cadMunicipalityName": null,
        "ownershipType": "unknown",
        "sourceProperties": {
          "OBJECTID": 175163,
          "APN": "30212519A"
        }
      }
    },
    {
      "type": "Feature",
      "id": "US-MESA-CITY-30212002V",
      "geometry": {
        "type": "Polygon",
        "coordinates": [
          [
            [
              -111.807447326049,
              33.3781450082818
            ],
            [
              -111.808139885416,
              33.3781406653183
            ],
            [
              -111.808144136861,
              33.378729355089
            ],
            [
              -111.808144219557,
              33.3787458456631
            ],
            [
              -111.807453470269,
              33.3787505247723
            ],
            [
              -111.807447326049,
              33.3781450082818
            ]
          ]
        ]
      },
      "properties": {
        "parcelId": "US-MESA-CITY-30212002V",
        "id": "US-MESA-CITY-30212002V",
        "sourceId": "us-az-mesa-city-parcels",
        "sourceParcelId": "30212002V",
        "parcelNumber": "30212002V",
        "cadMunicipalityName": null,
        "ownershipType": "unknown",
        "sourceProperties": {
          "OBJECTID": 175174,
          "APN": "30212002V"
        }
      }
    },
    {
      "type": "Feature",
      "id": "US-MESA-CITY-30212520",
      "geometry": {
        "type": "Polygon",
        "coordinates": [
          [
            [
              -111.807443073661,
              33.3777259204979
            ],
            [
              -111.808280204891,
              33.3777188409378
            ],
            [
              -111.808285163911,
              33.3781407552795
            ],
            [
              -111.808139885416,
              33.3781406653183
            ],
            [
              -111.807447326049,
              33.3781450082818
            ],
            [
              -111.807443073661,
              33.3777259204979
            ]
          ]
        ]
      },
      "properties": {
        "parcelId": "US-MESA-CITY-30212520",
        "id": "US-MESA-CITY-30212520",
        "sourceId": "us-az-mesa-city-parcels",
        "sourceParcelId": "30212520",
        "parcelNumber": "30212520",
        "cadMunicipalityName": null,
        "ownershipType": "unknown",
        "sourceProperties": {
          "OBJECTID": 175178,
          "APN": "30212520"
        }
      }
    }
  ]
}
