{
  "type": "FeatureCollection",
  "source": "Naha public converted Ministry of Justice cadastral snapshot, 2026; original full rings reprojected without simplification or repair.",
  "features": [
    {
      "type": "Feature",
      "properties": {
        "sourceID": "H000000314",
        "municipalityCode": "47201",
        "safeNativeCompositeID": {
          "市区町村C": "47201",
          "大字コード": "006",
          "丁目コード": "001",
          "小字コード": "0000",
          "予備コード": "00",
          "地番": "1-4"
        },
        "sourceRecordNumber": 94228,
        "distanceToOfficialCityHallPoint_m": 0.0,
        "sourceGeometrySHA256": "8518eff33a1d68cacf1769338a8bc9e6bf65694e211355c481be48839107ad96",
        "sourceCrs": "EPSG:6683"
      },
      "geometry": {
        "type": "Polygon",
        "coordinates": [
          [
            [
              127.679705501,
              26.212236517999994
            ],
            [
              127.679839147,
              26.212099495000004
            ],
            [
              127.679615456,
              26.212021502000002
            ],
            [
              127.67937441200002,
              26.211937465
            ],
            [
              127.67922620599998,
              26.211885791
            ],
            [
              127.679024243,
              26.211815380000004
            ],
            [
              127.67897153100002,
              26.211937732000003
            ],
            [
              127.678822881,
              26.212282698
            ],
            [
              127.67872577400001,
              26.212508039
            ],
            [
              127.67867346099999,
              26.212629389
            ],
            [
              127.67862057,
              26.21275213
            ],
            [
              127.67860837400002,
              26.212780453
            ],
            [
              127.678721926,
              26.212851534
            ],
            [
              127.67873251199998,
              26.212857361
            ],
            [
              127.678743868,
              26.21286196
            ],
            [
              127.67880526500001,
              26.212883512000005
            ],
            [
              127.678904601,
              26.212918241
            ],
            [
              127.67893847400002,
              26.21293006
            ],
            [
              127.679001844,
              26.212952296000005
            ],
            [
              127.67902793,
              26.212891404
            ],
            [
              127.679107371,
              26.212919098999993
            ],
            [
              127.67911414900001,
              26.212921464
            ],
            [
              127.67914486800001,
              26.212866976000004
            ],
            [
              127.679174238,
              26.212819711
            ],
            [
              127.67920608,
              26.21277321
            ],
            [
              127.679239515,
              26.212728124000005
            ],
            [
              127.679274844,
              26.212684255000003
            ],
            [
              127.67930869800001,
              26.212645054
            ],
            [
              127.67934086900001,
              26.212610495000003
            ],
            [
              127.67935123000001,
              26.212599776999998
            ],
            [
              127.67924032499998,
              26.212511786000004
            ],
            [
              127.67936048299998,
              26.212388527999998
            ],
            [
              127.67947140900002,
              26.212476544999998
            ],
            [
              127.679705501,
              26.212236517999994
            ]
          ]
        ]
      }
    },
    {
      "type": "Feature",
      "properties": {
        "sourceID": "H000000379",
        "municipalityCode": "47201",
        "safeNativeCompositeID": {
          "市区町村C": "47201",
          "大字コード": "006",
          "丁目コード": "001",
          "小字コード": "0000",
          "予備コード": "00",
          "地番": "筆界未定地-1"
        },
        "sourceRecordNumber": 94280,
        "distanceToOfficialCityHallPoint_m": 3.722153549312054,
        "sourceGeometrySHA256": "de4037502c6709b14856b3eb79cd798ea59e787598f8efa1e3f7b03b941239f2",
        "sourceCrs": "EPSG:6683"
      },
      "geometry": {
        "type": "Polygon",
        "coordinates": [
          [
            [
              127.680740903,
              26.211226378000003
            ],
            [
              127.680745202,
              26.211178773999997
            ],
            [
              127.680745077,
              26.211136529000004
            ],
            [
              127.68074369,
              26.211087054
            ],
            [
              127.680739585,
              26.210930543
            ],
            [
              127.68073659700002,
              26.210816691
            ],
            [
              127.680734364,
              26.210731354000004
            ],
            [
              127.679390904,
              26.210494456000003
            ],
            [
              127.678693843,
              26.210373019
            ],
            [
              127.678273207,
              26.210315679
            ],
            [
              127.67829442800002,
              26.210299828
            ],
            [
              127.678122347,
              26.210267897
            ],
            [
              127.678093878,
              26.210288152
            ],
            [
              127.67739489500002,
              26.210573597000003
            ],
            [
              127.67740864599999,
              26.210568199999997
            ],
            [
              127.677422759,
              26.210563281
            ],
            [
              127.677436852,
              26.210558714
            ],
            [
              127.677451337,
              26.210555004
            ],
            [
              127.67746607400001,
              26.210552928000006
            ],
            [
              127.67748098399998,
              26.210552331999995
            ],
            [
              127.677496025,
              26.210552791999998
            ],
            [
              127.677510848,
              26.210554597000005
            ],
            [
              127.677525373,
              26.210557621
            ],
            [
              127.67753956,
              26.210562170999996
            ],
            [
              127.67755231800001,
              26.210567796999992
            ],
            [
              127.677566308,
              26.21057446
            ],
            [
              127.677578868,
              26.210581693
            ],
            [
              127.67759064900001,
              26.210590254
            ],
            [
              127.677601601,
              26.210599393
            ],
            [
              127.67761140300001,
              26.210609591000004
            ],
            [
              127.677619857,
              26.210621171000003
            ],
            [
              127.67762667,
              26.210633105000003
            ],
            [
              127.677632103,
              26.210645681999996
            ],
            [
              127.677636626,
              26.210658575
            ],
            [
              127.67763981800002,
              26.210671733000005
            ],
            [
              127.67764265,
              26.210685044
            ],
            [
              127.67764376100001,
              26.210698483
            ],
            [
              127.677643422,
              26.210712015
            ],
            [
              127.67764324100001,
              26.21071857800001
            ],
            [
              127.67759878499999,
              26.210867421999996
            ],
            [
              127.67737256800001,
              26.211160551000003
            ],
            [
              127.677127786,
              26.211479853000007
            ],
            [
              127.67699337400002,
              26.211655121
            ],
            [
              127.67687559999999,
              26.211808001000005
            ],
            [
              127.67683733700001,
              26.211857660000003
            ],
            [
              127.67677023,
              26.211944761
            ],
            [
              127.67617172400001,
              26.211570339000005
            ],
            [
              127.675857643,
              26.211373848
            ],
            [
              127.675841416,
              26.211363487
            ],
            [
              127.675833902,
              26.211357719000002
            ],
            [
              127.67582649699999,
              26.211351463
            ],
            [
              127.675820372,
              26.211344601
            ],
            [
              127.67581457700001,
              26.211337224
            ],
            [
              127.675809441,
              26.211329431
            ],
            [
              127.675805016,
              26.211321447999996
            ],
            [
              127.67580132100001,
              26.21131294
            ],
            [
              127.675798326,
              26.211304403999996
            ],
            [
              127.675795961,
              26.211295361999998
            ],
            [
              127.675794575,
              26.211285659999998
            ],
            [
              127.67579357200002,
              26.211277591000005
            ],
            [
              127.675794079,
              26.211268771000004
            ],
            [
              127.675795676,
              26.211259418000004
            ],
            [
              127.675797925,
              26.211250676999995
            ],
            [
              127.675799764,
              26.211242360999993
            ],
            [
              127.67580389500002,
              26.21123471
            ],
            [
              127.675808506,
              26.211226517000004
            ],
            [
              127.67581308700001,
              26.211218243
            ],
            [
              127.67581478500001,
              26.211215731
            ],
            [
              127.67581809900001,
              26.211210636000004
            ],
            [
              127.675823461,
              26.211202432999997
            ],
            [
              127.675829985,
              26.211195753999995
            ],
            [
              127.675837482,
              26.211189517
            ],
            [
              127.67584418000001,
              26.211185184999998
            ],
            [
              127.67570715100001,
              26.211238006
            ],
            [
              127.675635643,
              26.211300594999997
            ],
            [
              127.67562545899999,
              26.211315863000003
            ],
            [
              127.675621177,
              26.211329949999993
            ],
            [
              127.67562803599999,
              26.211365769000004
            ],
            [
              127.67581716300002,
              26.212339257
            ],
            [
              127.67586326999998,
              26.212527761999997
            ],
            [
              127.67588669,
              26.212602837
            ],
            [
              127.675909509,
              26.212671323
            ],
            [
              127.67593522199999,
              26.212740799000002
            ],
            [
              127.675962943,
              26.212807834
            ],
            [
              127.67602307499999,
              26.212939553000002
            ],
            [
              127.676053284,
              26.213003787000005
            ],
            [
              127.67609322200002,
              26.213076043
            ],
            [
              127.67614969399999,
              26.213169853000004
            ],
            [
              127.676209286,
              26.213267893
            ],
            [
              127.676371156,
              26.213514670000002
            ],
            [
              127.676477284,
              26.213487721000003
            ],
            [
              127.676379292,
              26.213341886
            ],
            [
              127.676330487,
              26.213269279000002
            ],
            [
              127.67630305500002,
              26.213228593
            ],
            [
              127.67632137600002,
              26.213186604
            ],
            [
              127.676456403,
              26.213152606
            ],
            [
              127.67670522099999,
              26.213089871000005
            ],
            [
              127.676875221,
              26.213047082000003
            ],
            [
              127.677170035,
              26.212972734999997
            ],
            [
              127.677171255,
              26.212972426999997
            ],
            [
              127.67724317,
              26.212954292999996
            ],
            [
              127.677284995,
              26.212943753
            ],
            [
              127.67732862100002,
              26.212965967999995
            ],
            [
              127.677367842,
              26.213093189
            ],
            [
              127.67741701799999,
              26.213251224999997
            ],
            [
              127.67748600099999,
              26.213233456000005
            ],
            [
              127.677393068,
              26.212933013000004
            ],
            [
              127.67737656499999,
              26.21287952200001
            ],
            [
              127.677388477,
              26.212815994
            ],
            [
              127.677391148,
              26.212801918000007
            ],
            [
              127.67745047399998,
              26.212724801
            ],
            [
              127.677486709,
              26.21267778
            ],
            [
              127.677507214,
              26.212651161999997
            ],
            [
              127.67763467600001,
              26.212485569
            ],
            [
              127.67757568700002,
              26.212448623000004
            ],
            [
              127.67752356200002,
              26.212516316000002
            ],
            [
              127.677471876,
              26.212583423000005
            ],
            [
              127.677388219,
              26.212692101
            ],
            [
              127.67733895600001,
              26.212700132000002
            ],
            [
              127.67724748200001,
              26.212642988
            ],
            [
              127.67716952200001,
              26.212594267
            ],
            [
              127.677051895,
              26.212520698
            ],
            [
              127.67697745,
              26.212474130000004
            ],
            [
              127.67693360699998,
              26.212446742
            ],
            [
              127.67686168699998,
              26.212401777999997
            ],
            [
              127.67678974599998,
              26.212356795
            ],
            [
              127.67666752200002,
              26.212280352
            ],
            [
              127.67677233300002,
              26.212144595000005
            ],
            [
              127.67687481500002,
              26.212010537
            ],
            [
              127.676978756,
              26.211875484999997
            ],
            [
              127.67709831799999,
              26.21171995
            ],
            [
              127.677201878,
              26.211585286
            ],
            [
              127.677253655,
              26.211617655
            ],
            [
              127.677347822,
              26.211676521
            ],
            [
              127.677522754,
              26.211785846000005
            ],
            [
              127.67757809600002,
              26.211820440999997
            ],
            [
              127.67766932799998,
              26.21187745
            ],
            [
              127.677751275,
              26.211928675
            ],
            [
              127.677873109,
              26.212004811000003
            ],
            [
              127.67788205300002,
              26.212049220999997
            ],
            [
              127.677798878,
              26.212157709000003
            ],
            [
              127.677679507,
              26.212313399
            ],
            [
              127.677739046,
              26.212350209000004
            ],
            [
              127.677858307,
              26.212194726999996
            ],
            [
              127.677913148,
              26.212123212000005
            ],
            [
              127.67794166199998,
              26.212086058000004
            ],
            [
              127.677990896,
              26.21207799
            ],
            [
              127.678104556,
              26.21214908
            ],
            [
              127.67821286800002,
              26.212216828000003
            ],
            [
              127.678272718,
              26.212254251999997
            ],
            [
              127.678346722,
              26.212300522
            ],
            [
              127.67843013200002,
              26.212352693
            ],
            [
              127.67849837699998,
              26.212395385999997
            ],
            [
              127.67861247899998,
              26.212466765
            ],
            [
              127.67862711499998,
              26.212509868
            ],
            [
              127.67857351600001,
              26.212634215999998
            ],
            [
              127.67854405900002,
              26.212702532
            ],
            [
              127.678493032,
              26.212820900999997
            ],
            [
              127.678569862,
              26.212869813000008
            ],
            [
              127.67860837400002,
              26.212780453
            ],
            [
              127.67862057,
              26.21275213
            ],
            [
              127.67867346099999,
              26.212629389
            ],
            [
              127.67872577400001,
              26.212508039
            ],
            [
              127.678822881,
              26.212282698
            ],
            [
              127.67897153100002,
              26.211937732000003
            ],
            [
              127.679024243,
              26.211815380000004
            ],
            [
              127.679053021,
              26.211748572
            ],
            [
              127.679061866,
              26.211708563000002
            ],
            [
              127.67918502700002,
              26.211154585
            ],
            [
              127.67924206500001,
              26.210897898
            ],
            [
              127.67926709,
              26.210882856
            ],
            [
              127.680598977,
              26.211119959000005
            ],
            [
              127.68061726,
              26.211139388
            ],
            [
              127.680617508,
              26.21115737
            ],
            [
              127.680617376,
              26.211175468999997
            ],
            [
              127.68061630299998,
              26.211193451999996
            ],
            [
              127.68061413899999,
              26.2112114
            ],
            [
              127.680611074,
              26.211229295000003
            ],
            [
              127.68060705900001,
              26.211246982999995
            ],
            [
              127.680601972,
              26.211264421
            ],
            [
              127.68059609400001,
              26.211281696000007
            ],
            [
              127.68058924599998,
              26.211298684999996
            ],
            [
              127.68058133499999,
              26.211315222999996
            ],
            [
              127.680572584,
              26.211331509000004
            ],
            [
              127.68056312200001,
              26.211347444
            ],
            [
              127.680552528,
              26.211362885
            ],
            [
              127.68052302100001,
              26.211385001000004
            ],
            [
              127.680518839,
              26.211392156
            ],
            [
              127.68051453699998,
              26.211399473
            ],
            [
              127.680499259,
              26.211414143
            ],
            [
              127.68046713,
              26.211455643000004
            ],
            [
              127.679926393,
              26.212010047000003
            ],
            [
              127.679839147,
              26.212099495000004
            ],
            [
              127.679705501,
              26.212236517999994
            ],
            [
              127.67947140900002,
              26.212476544999998
            ],
            [
              127.679354467,
              26.212596442000002
            ],
            [
              127.67935123000001,
              26.212599776999998
            ],
            [
              127.67934086900001,
              26.212610495000003
            ],
            [
              127.67930869800001,
              26.212645054
            ],
            [
              127.679274844,
              26.212684255000003
            ],
            [
              127.679239515,
              26.212728124000005
            ],
            [
              127.67920608,
              26.21277321
            ],
            [
              127.679174238,
              26.212819711
            ],
            [
              127.67914486800001,
              26.212866976000004
            ],
            [
              127.67911414900001,
              26.212921464
            ],
            [
              127.67909208800002,
              26.212964053000004
            ],
            [
              127.679084158,
              26.212980952999995
            ],
            [
              127.67906864699998,
              26.213013911
            ],
            [
              127.679043789,
              26.213072787999998
            ],
            [
              127.67916262,
              26.213114046
            ],
            [
              127.679171783,
              26.213092443
            ],
            [
              127.67918678000001,
              26.213057119999995
            ],
            [
              127.679204491,
              26.213023021
            ],
            [
              127.679216661,
              26.212997478
            ],
            [
              127.679232896,
              26.212966947
            ],
            [
              127.67924425300001,
              26.212946262000003
            ],
            [
              127.67925833599999,
              26.212922159999994
            ],
            [
              127.679268927,
              26.212904977999997
            ],
            [
              127.67928604000001,
              26.212878851
            ],
            [
              127.679314936,
              26.212836271000008
            ],
            [
              127.679336276,
              26.21280633
            ],
            [
              127.679345274,
              26.21279443
            ],
            [
              127.67937812599999,
              26.212754219999997
            ],
            [
              127.679409084,
              26.21271812799999
            ],
            [
              127.67943842599999,
              26.212686317
            ],
            [
              127.679451405,
              26.212672986
            ],
            [
              127.67968771600002,
              26.212431050999996
            ],
            [
              127.679807713,
              26.212306600999998
            ],
            [
              127.679825517,
              26.212288173000005
            ],
            [
              127.67984520000002,
              26.212267766
            ],
            [
              127.67995511400001,
              26.212153484000005
            ],
            [
              127.680499901,
              26.211596566
            ],
            [
              127.680507212,
              26.211593957000005
            ],
            [
              127.680530419,
              26.211568436000004
            ],
            [
              127.680525519,
              26.211570292
            ],
            [
              127.680562625,
              26.211531349
            ],
            [
              127.68059593700002,
              26.211497321
            ],
            [
              127.680627846,
              26.211462329000003
            ],
            [
              127.68065897299999,
              26.211426679
            ],
            [
              127.68067387,
              26.211404987
            ],
            [
              127.680697523,
              26.211363253
            ],
            [
              127.680717328,
              26.211318238
            ],
            [
              127.68072413900002,
              26.211296692
            ],
            [
              127.68072837200002,
              26.211296659
            ],
            [
              127.68073638499999,
              26.211268873999998
            ],
            [
              127.68073999,
              26.211250634999995
            ],
            [
              127.680736027,
              26.211250757
            ],
            [
              127.680740903,
              26.211226378000003
            ]
          ],
          [
            [
              127.67852937599999,
              26.210510576
            ],
            [
              127.67859435,
              26.210522283999996
            ],
            [
              127.67855861,
              26.210683169
            ],
            [
              127.678529727,
              26.210813011
            ],
            [
              127.67848805599999,
              26.210838003999996
            ],
            [
              127.678174576,
              26.210781605
            ],
            [
              127.67810054300001,
              26.210768292
            ],
            [
              127.67802645000002,
              26.210754933
            ],
            [
              127.677946101,
              26.210740481999995
            ],
            [
              127.67798173100002,
              26.210579561000003
            ],
            [
              127.67806210000002,
              26.210593976
            ],
            [
              127.67808347199998,
              26.210597822999997
            ],
            [
              127.678117859,
              26.210442184
            ],
            [
              127.678119002,
              26.210436901999998
            ],
            [
              127.67821895,
              26.210454841000004
            ],
            [
              127.678440138,
              26.210494564000008
            ],
            [
              127.67852937599999,
              26.210510576
            ]
          ],
          [
            [
              127.67904084,
              26.210602619
            ],
            [
              127.679208355,
              26.210632649999997
            ],
            [
              127.679172506,
              26.210793770000002
            ],
            [
              127.67914357500001,
              26.210924027000004
            ],
            [
              127.679101814,
              26.210949129000003
            ],
            [
              127.67903519799998,
              26.210937134
            ],
            [
              127.678965639,
              26.210924583000004
            ],
            [
              127.678867632,
              26.210906841
            ],
            [
              127.678764119,
              26.210888158
            ],
            [
              127.678628285,
              26.210863602
            ],
            [
              127.678600547,
              26.210825958
            ],
            [
              127.67861255400001,
              26.210771963000003
            ],
            [
              127.67862937,
              26.210696297
            ],
            [
              127.67866519000002,
              26.210535168000003
            ],
            [
              127.678743457,
              26.210549261
            ],
            [
              127.67881607900001,
              26.210562259
            ],
            [
              127.678923154,
              26.21058148
            ],
            [
              127.67904084,
              26.210602619
            ]
          ],
          [
            [
              127.680613422,
              26.210987074
            ],
            [
              127.68061540900001,
              26.211067970000006
            ],
            [
              127.680592469,
              26.211085403
            ],
            [
              127.68047019800001,
              26.211063692999996
            ],
            [
              127.680155907,
              26.211007688
            ],
            [
              127.680093135,
              26.210996528
            ],
            [
              127.680020773,
              26.210983629
            ],
            [
              127.67985512,
              26.21095412
            ],
            [
              127.679709906,
              26.210928259
            ],
            [
              127.679638676,
              26.21091556600001
            ],
            [
              127.67927422600002,
              26.21085063
            ],
            [
              127.67925759,
              26.210828118999995
            ],
            [
              127.679297533,
              26.210648444
            ],
            [
              127.67968376400002,
              26.210717784999996
            ],
            [
              127.679753313,
              26.210730299
            ],
            [
              127.679898417,
              26.210756403999998
            ],
            [
              127.680064021,
              26.210786166
            ],
            [
              127.68013652199998,
              26.210799191
            ],
            [
              127.68019900400002,
              26.210810397
            ],
            [
              127.680610832,
              26.210884361
            ],
            [
              127.680613422,
              26.210987074
            ]
          ],
          [
            [
              127.67660480600001,
              26.211901771000004
            ],
            [
              127.67673926000002,
              26.211986115000002
            ],
            [
              127.67665086000001,
              26.212101108000006
            ],
            [
              127.676562719,
              26.212215695
            ],
            [
              127.676486271,
              26.212167893000004
            ],
            [
              127.676423667,
              26.212128612
            ],
            [
              127.67626230700002,
              26.212027547
            ],
            [
              127.676111496,
              26.21193304
            ],
            [
              127.67601966300002,
              26.211875471
            ],
            [
              127.67592791,
              26.211817937
            ],
            [
              127.67582329599999,
              26.21175235
            ],
            [
              127.67580175500001,
              26.211721874
            ],
            [
              127.67576803900002,
              26.211547490000005
            ],
            [
              127.67574275400001,
              26.211422751
            ],
            [
              127.67579282599999,
              26.21139356
            ],
            [
              127.67610135699998,
              26.211586258
            ],
            [
              127.67616113700001,
              26.211623628999998
            ],
            [
              127.67620096300001,
              26.211648575
            ],
            [
              127.676231534,
              26.211667783000003
            ],
            [
              127.676310425,
              26.211717244000003
            ],
            [
              127.676410622,
              26.21178002
            ],
            [
              127.67660480600001,
              26.211901771000004
            ]
          ],
          [
            [
              127.678473423,
              26.210902294000004
            ],
            [
              127.67850128,
              26.21093979300001
            ],
            [
              127.67847651199999,
              26.211051061
            ],
            [
              127.67842613100001,
              26.211277166
            ],
            [
              127.67837070200001,
              26.211297924
            ],
            [
              127.67817160999999,
              26.211173519000003
            ],
            [
              127.67806612399998,
              26.211107618
            ],
            [
              127.677980171,
              26.211053906000004
            ],
            [
              127.67793944300001,
              26.211028447
            ],
            [
              127.677903914,
              26.211006267000002
            ],
            [
              127.67781087900002,
              26.210948139999996
            ],
            [
              127.67772324400002,
              26.210893373999998
            ],
            [
              127.677739741,
              26.210837802999997
            ],
            [
              127.677758797,
              26.210773714999995
            ],
            [
              127.677885452,
              26.210796505000005
            ],
            [
              127.67803527,
              26.210823463000004
            ],
            [
              127.678067983,
              26.210829335999996
            ],
            [
              127.67828013200001,
              26.210867499999996
            ],
            [
              127.67834057200001,
              26.210878374999997
            ],
            [
              127.678411132,
              26.210891069
            ],
            [
              127.678473423,
              26.210902294000004
            ]
          ],
          [
            [
              127.67908750100001,
              26.211013292
            ],
            [
              127.67911526900001,
              26.211050908
            ],
            [
              127.679093623,
              26.211148416
            ],
            [
              127.67907191599998,
              26.211246132
            ],
            [
              127.67903029500002,
              26.211271242000002
            ],
            [
              127.67889406999998,
              26.211247020999995
            ],
            [
              127.67872762600001,
              26.211217439999995
            ],
            [
              127.67855637599999,
              26.211186988000005
            ],
            [
              127.67852858900001,
              26.211149516
            ],
            [
              127.678550634,
              26.211050265
            ],
            [
              127.67857236100001,
              26.210952613000003
            ],
            [
              127.67861397199998,
              26.210927629
            ],
            [
              127.67869562300001,
              26.210942404
            ],
            [
              127.678784821,
              26.210958514
            ],
            [
              127.678858344,
              26.210971819
            ],
            [
              127.67886705299999,
              26.210973397000004
            ],
            [
              127.67898135600001,
              26.210994097
            ],
            [
              127.67908750100001,
              26.211013292
            ]
          ],
          [
            [
              127.67626330699999,
              26.212106612
            ],
            [
              127.676443067,
              26.212219263
            ],
            [
              127.67643636600002,
              26.212254855000005
            ],
            [
              127.676238047,
              26.212304584
            ],
            [
              127.676159199,
              26.212324368
            ],
            [
              127.676041728,
              26.212353849000003
            ],
            [
              127.675929249,
              26.212381808
            ],
            [
              127.675898964,
              26.212220354
            ],
            [
              127.67587819800002,
              26.212113204000005
            ],
            [
              127.67585928700001,
              26.212014816000003
            ],
            [
              127.675837239,
              26.211900435999997
            ],
            [
              127.67588789200002,
              26.211871299
            ],
            [
              127.67599357799999,
              26.211937499000005
            ],
            [
              127.67600014900002,
              26.211941616000004
            ],
            [
              127.67607545400001,
              26.211988852000005
            ],
            [
              127.67615723,
              26.212040106
            ],
            [
              127.67626330699999,
              26.212106612
            ]
          ],
          [
            [
              127.678359787,
              26.211371741000004
            ],
            [
              127.678368671,
              26.211416168999996
            ],
            [
              127.678284986,
              26.211524865999998
            ],
            [
              127.678238844,
              26.211584844
            ],
            [
              127.678201412,
              26.211633491
            ],
            [
              127.678152158,
              26.211641504000003
            ],
            [
              127.678093661,
              26.211604991
            ],
            [
              127.67800395099998,
              26.211548919000002
            ],
            [
              127.677858929,
              26.211458324000002
            ],
            [
              127.677750278,
              26.21139045
            ],
            [
              127.67768350599998,
              26.211348702
            ],
            [
              127.677576328,
              26.211281729000007
            ],
            [
              127.67748115900001,
              26.211222259999996
            ],
            [
              127.67758491899998,
              26.211087280000005
            ],
            [
              127.67762414000002,
              26.211036293
            ],
            [
              127.677688689,
              26.210952353000003
            ],
            [
              127.677760278,
              26.210997083
            ],
            [
              127.67782762,
              26.211039174
            ],
            [
              127.67794869100001,
              26.211114830999996
            ],
            [
              127.678074361,
              26.211193372000004
            ],
            [
              127.678134912,
              26.211231200999997
            ],
            [
              127.678195463,
              26.211269057000003
            ],
            [
              127.678242912,
              26.211298696000007
            ],
            [
              127.67828846800002,
              26.211327183000005
            ],
            [
              127.678359787,
              26.211371741000004
            ]
          ],
          [
            [
              127.679019471,
              26.211319342000003
            ],
            [
              127.679047248,
              26.211356859
            ],
            [
              127.67902576000002,
              26.211453518
            ],
            [
              127.67899928299998,
              26.211572579000002
            ],
            [
              127.678986939,
              26.211628136999998
            ],
            [
              127.67893130000002,
              26.211648472000004
            ],
            [
              127.678816748,
              26.211576886999996
            ],
            [
              127.678499728,
              26.211378771000003
            ],
            [
              127.678484786,
              26.2113453
            ],
            [
              127.67850374,
              26.21126027
            ],
            [
              127.678545352,
              26.211235214000006
            ],
            [
              127.67893986199998,
              26.211305197000005
            ],
            [
              127.679019471,
              26.211319342000003
            ]
          ],
          [
            [
              127.67812154599999,
              26.211681098000003
            ],
            [
              127.678130531,
              26.211725553000004
            ],
            [
              127.67804700600001,
              26.211834385000007
            ],
            [
              127.67796377,
              26.211942792000002
            ],
            [
              127.67791452699998,
              26.211950859999998
            ],
            [
              127.677728967,
              26.211834923
            ],
            [
              127.67756153700002,
              26.211730310000007
            ],
            [
              127.677476936,
              26.211677463
            ],
            [
              127.677448419,
              26.211659634
            ],
            [
              127.677412609,
              26.211637282
            ],
            [
              127.67724333700001,
              26.211531434
            ],
            [
              127.677346847,
              26.211396815999997
            ],
            [
              127.67745058700001,
              26.211261908
            ],
            [
              127.67750949599998,
              26.21129871
            ],
            [
              127.677521756,
              26.211306385
            ],
            [
              127.677565238,
              26.21133353
            ],
            [
              127.677673899,
              26.211401413000004
            ],
            [
              127.677808013,
              26.211485224
            ],
            [
              127.67789021000002,
              26.211536566
            ],
            [
              127.677966427,
              26.211584170000002
            ],
            [
              127.678052371,
              26.211637864000004
            ],
            [
              127.678100211,
              26.211667764999994
            ],
            [
              127.67812154599999,
              26.211681098000003
            ]
          ],
          [
            [
              127.678931072,
              26.211728079999993
            ],
            [
              127.67894569799999,
              26.211771164999995
            ],
            [
              127.678889497,
              26.211901619
            ],
            [
              127.678836437,
              26.212024811
            ],
            [
              127.678788532,
              26.212038059
            ],
            [
              127.678737747,
              26.21200632
            ],
            [
              127.67864952900001,
              26.211951267000003
            ],
            [
              127.678556864,
              26.211893410999995
            ],
            [
              127.678474616,
              26.211842060000002
            ],
            [
              127.67839865899998,
              26.211794646000005
            ],
            [
              127.67839085600001,
              26.211789754000005
            ],
            [
              127.678314759,
              26.211742258999998
            ],
            [
              127.678270415,
              26.211714557
            ],
            [
              127.67826151099999,
              26.211670128
            ],
            [
              127.67834496599998,
              26.211561676
            ],
            [
              127.67842876999998,
              26.211452933000004
            ],
            [
              127.678477973,
              26.211444893000003
            ],
            [
              127.678561343,
              26.211496964
            ],
            [
              127.67862372700002,
              26.211535991
            ],
            [
              127.678698492,
              26.211582720999996
            ],
            [
              127.678931072,
              26.211728079999993
            ]
          ],
          [
            [
              127.676747846,
              26.212833754
            ],
            [
              127.67679021800001,
              26.212966866
            ],
            [
              127.67676581,
              26.213006334000003
            ],
            [
              127.67665017899999,
              26.213035534
            ],
            [
              127.67656445900002,
              26.213057132
            ],
            [
              127.676476518,
              26.213079229
            ],
            [
              127.676418857,
              26.213093715999996
            ],
            [
              127.676350913,
              26.21311086
            ],
            [
              127.67627655699998,
              26.213129673000005
            ],
            [
              127.676230885,
              26.213110979999996
            ],
            [
              127.67616547099999,
              26.212987158
            ],
            [
              127.676102637,
              26.212868522000004
            ],
            [
              127.67612318000002,
              26.212827299
            ],
            [
              127.676161683,
              26.212817304000005
            ],
            [
              127.676327919,
              26.212773888000005
            ],
            [
              127.676485282,
              26.212732921000004
            ],
            [
              127.676554996,
              26.212714817999995
            ],
            [
              127.676695259,
              26.212801294000002
            ],
            [
              127.676747846,
              26.212833754
            ]
          ],
          [
            [
              127.67731189000001,
              26.212762216
            ],
            [
              127.677323272,
              26.212791404
            ],
            [
              127.677304188,
              26.212850861000003
            ],
            [
              127.67727452700001,
              26.212877698000003
            ],
            [
              127.67714232199998,
              26.212911268999996
            ],
            [
              127.676922915,
              26.212966603000005
            ],
            [
              127.676886842,
              26.212975747
            ],
            [
              127.67684316699999,
              26.212953784
            ],
            [
              127.67680668700001,
              26.212839179
            ],
            [
              127.676794984,
              26.212803067000003
            ],
            [
              127.67678905399998,
              26.212799356
            ],
            [
              127.676710804,
              26.212751202999996
            ],
            [
              127.67663555000001,
              26.212705141000004
            ],
            [
              127.676624912,
              26.212698366
            ],
            [
              127.676564592,
              26.212661223
            ],
            [
              127.676508733,
              26.212675879000003
            ],
            [
              127.676449263,
              26.212691406000005
            ],
            [
              127.67630083299998,
              26.21273015
            ],
            [
              127.676099005,
              26.212782825999998
            ],
            [
              127.67605446199998,
              26.212762155000007
            ],
            [
              127.67601175500002,
              26.212651944000008
            ],
            [
              127.675951628,
              26.212496673999997
            ],
            [
              127.67607606100002,
              26.212465199
            ],
            [
              127.676207466,
              26.212432007999997
            ],
            [
              127.67630728100002,
              26.212406809000004
            ],
            [
              127.676442188,
              26.212372685
            ],
            [
              127.676596091,
              26.212333744
            ],
            [
              127.67663556900001,
              26.212339707
            ],
            [
              127.67675531900001,
              26.212414573000004
            ],
            [
              127.67679522500002,
              26.212439547
            ],
            [
              127.676824064,
              26.212457583000003
            ],
            [
              127.676883893,
              26.212494907999996
            ],
            [
              127.676946066,
              26.21253305100001
            ],
            [
              127.67701500300001,
              26.212576791
            ],
            [
              127.677098763,
              26.212629062
            ],
            [
              127.67720645300001,
              26.212696324
            ],
            [
              127.67731189000001,
              26.212762216
            ]
          ],
          [
            [
              127.678775151,
              26.212089249000005
            ],
            [
              127.678789817,
              26.212132460000007
            ],
            [
              127.678733386,
              26.212263429000007
            ],
            [
              127.67868026600001,
              26.212386766
            ],
            [
              127.678632331,
              26.212399986000005
            ],
            [
              127.678538464,
              26.212341257000002
            ],
            [
              127.678460092,
              26.212292229999996
            ],
            [
              127.67838178999999,
              26.212243239000003
            ],
            [
              127.678276323,
              26.212177302
            ],
            [
              127.67823148799998,
              26.212149247999996
            ],
            [
              127.678186633,
              26.212121203
            ],
            [
              127.67814171800002,
              26.212093095000007
            ],
            [
              127.67809690300001,
              26.212065068
            ],
            [
              127.67805207800001,
              26.212037023
            ],
            [
              127.678032224,
              26.21202459
            ],
            [
              127.67802327,
              26.211980063000002
            ],
            [
              127.67810663500002,
              26.211871421000005
            ],
            [
              127.678157861,
              26.211804675999996
            ],
            [
              127.67818997,
              26.211762887000003
            ],
            [
              127.678239404,
              26.211754774
            ],
            [
              127.67828996800002,
              26.21178635
            ],
            [
              127.67836621599999,
              26.211833962
            ],
            [
              127.678512801,
              26.211925456999996
            ],
            [
              127.678529219,
              26.211935691000004
            ],
            [
              127.67860853100001,
              26.211985223
            ],
            [
              127.678713097,
              26.212050473999994
            ],
            [
              127.678775151,
              26.212089249000005
            ]
          ]
        ]
      }
    },
    {
      "type": "Feature",
      "properties": {
        "sourceID": "H000000038",
        "municipalityCode": "47201",
        "safeNativeCompositeID": {
          "市区町村C": "47201",
          "大字コード": "006",
          "丁目コード": "001",
          "小字コード": "0000",
          "予備コード": "00",
          "地番": "8-11"
        },
        "sourceRecordNumber": 94266,
        "distanceToOfficialCityHallPoint_m": 12.831295666489982,
        "sourceGeometrySHA256": "0db37795175347c7c9a2753531b2d30c310c0bf636834967aad92d9c7c12b1b4",
        "sourceCrs": "EPSG:6683"
      },
      "geometry": {
        "type": "Polygon",
        "coordinates": [
          [
            [
              127.678733386,
              26.212263429000007
            ],
            [
              127.678789817,
              26.212132460000007
            ],
            [
              127.678775151,
              26.212089249000005
            ],
            [
              127.678713097,
              26.212050473999994
            ],
            [
              127.678635535,
              26.212151527000003
            ],
            [
              127.678609258,
              26.212185781
            ],
            [
              127.67864216300002,
              26.212206357
            ],
            [
              127.678733386,
              26.212263429000007
            ]
          ]
        ]
      }
    }
  ]
}
