{"type":"FeatureCollection","name":"Nara public parcel boundary sample","crs":{"type":"name","properties":{"name":"urn:ogc:def:crs:OGC:1.3:CRS84"}},"features":[{"type":"Feature","id":"2020005882","properties":{"nativeId":"2020005882","nativeIdField":"土地key","shapefileRecord":227437,"distanceFromWupM":3835.4253,"containsWupPoint":false,"vertexCount":1336,"partCount":1},"geometry":{"type":"Polygon","coordinates":[[[135.75747055822,34.6572195938],[135.75726291838,34.65733905594],[135.7572732818,34.65752656602],[135.75727854751,34.6575915131],[135.75730139916,34.65761945166],[135.75730787353,34.65764030773],[135.7573219566,34.65767090636],[135.75732848219,34.65768542483],[135.75733717307,34.65769445734],[135.75736878602,34.65770353547],[135.75746694802,34.65771359341],[135.75758362782,34.65773002578],[135.75760108732,34.65773639819],[135.75761625556,34.65776530408],[135.7576270947,34.65778969375],[135.75764339956,34.65781043411],[135.75766190801,34.65782751867],[135.75768807159,34.65783841597],[135.75773056227,34.6578511758],[135.75779054445,34.65785932752],[135.75786470719,34.65787215022],[135.75788538395,34.65789022171],[135.757900601,34.65791363739],[135.75790270904,34.65793533218],[135.7579201599,34.65793719692],[135.75791150579,34.65791548913],[135.75790284544,34.65788842629],[135.75788325124,34.65786950952],[135.75786909991,34.65786229629],[135.75782657181,34.65785489148],[135.75776659741,34.65784406227],[135.75772297546,34.6578376379],[135.75769136527,34.65782757721],[135.75767065635,34.65781682598],[135.75765107378,34.65780143415],[135.7576423826,34.65778874148],[135.75763372326,34.65776886375],[135.75761307504,34.65773726945],[135.7576011189,34.65772555295],[135.75756621418,34.65771914585],[135.75751822516,34.65771003521],[135.75735574425,34.65768998669],[135.75733938733,34.65768714139],[135.75732959923,34.65767275166],[135.75732420209,34.65765288039],[135.75730794743,34.65761495709],[135.75730033889,34.65760141912],[135.75729386413,34.65758069828],[135.75728871134,34.65747701305],[135.75728147101,34.65734092296],[135.75748144731,34.65722680059],[135.75763306811,34.65724062489],[135.7580311766,34.65727832387],[135.75841401604,34.65731063626],[135.75851110253,34.65731899636],[135.75857324303,34.65733897994],[135.75861791629,34.65735526873],[135.75867245871,34.65735805421],[135.75892560012,34.65734869233],[135.75900197812,34.65734616579],[135.75905215092,34.65734711238],[135.75911762173,34.65734358156],[135.7591221407,34.65734282419],[135.75919731501,34.65733021615],[135.75922460313,34.65732576243],[135.7594156146,34.6572964163],[135.75944398841,34.65729379476],[135.75947998093,34.65729752594],[135.75950070014,34.65730475194],[135.75953772563,34.65732102531],[135.75956932601,34.65733827062],[135.75959873422,34.65735903656],[135.75961828085,34.65738696818],[135.75966279535,34.65745833023],[135.7597019478,34.65750883852],[135.75973564627,34.65754764331],[135.75976175517,34.65757755315],[135.75976494736,34.65760179234],[135.75975833628,34.65762431736],[135.75975498975,34.65764600138],[135.75975269385,34.65768924284],[135.75974572099,34.65783713274],[135.75974441447,34.65791558959],[135.75973987568,34.65797234946],[135.75972108095,34.65805429679],[135.75969576154,34.65813636649],[135.75967602731,34.65816957571],[135.7596496938,34.65821741263],[135.75961356333,34.658265095],[135.75959607121,34.65828126085],[135.75955122416,34.65831357311],[135.75947801977,34.65835399719],[135.75943976377,34.65837828985],[135.75939060815,34.6583989008],[135.75929014894,34.65843208586],[135.75919843754,34.65845091786],[135.75913620762,34.65846150502],[135.75909579584,34.65848043827],[135.75903019651,34.65852806224],[135.75901269861,34.65854239791],[135.75899413753,34.65854334388],[135.75898705823,34.65854284306],[135.75896567224,34.65858117856],[135.75893596956,34.65866578172],[135.75890856595,34.65870995618],[135.75887351464,34.65875398028],[135.75884397371,34.65878645776],[135.75880022834,34.65882243209],[135.75877290583,34.65883857838],[135.7586996953,34.65888083207],[135.75863082982,34.65892211165],[135.75855103811,34.65896885983],[135.7584921209,34.65897691093],[135.75849207921,34.6589912811],[135.75848112727,34.65900562966],[135.75844831518,34.65903359296],[135.75843409232,34.65904342742],[135.75842971229,34.65904890901],[135.75838495161,34.65905868296],[135.75831511817,34.65906122208],[135.75821143675,34.65907270925],[135.75814595145,34.65908074716],[135.75811211901,34.65908434022],[135.75808156753,34.65908146686],[135.75804014033,34.65907419953],[135.75797254601,34.65905335743],[135.75791479562,34.65903155218],[135.75789191057,34.6590261517],[135.75783954355,34.6590215401],[135.75778064129,34.65901691549],[135.75773484446,34.65900780929],[135.75761055946,34.65897600903],[135.757464475,34.65893698016],[135.75734554778,34.65893491345],[135.75727246253,34.65893392055],[135.75719284382,34.65892108663],[135.75716450373,34.65891567516],[135.75707186698,34.65888112463],[135.7568974875,34.65881767058],[135.75679284932,34.65878323114],[135.75672959082,34.65877225964],[135.75667505537,34.65876679578],[135.75651470706,34.65875929055],[135.75639143458,34.65875087654],[135.75630530527,34.65873718161],[135.7562213517,34.65871447575],[135.75605892927,34.65866273714],[135.75594229597,34.65863010306],[135.75587144327,34.65860827061],[135.75580715492,34.6585802488],[135.75572216963,34.65854486514],[135.75567201097,34.65852771687],[135.75562839668,34.65851861425],[135.75555422907,34.65851480541],[135.75544512433,34.65851556928],[135.7553719837,34.65852613263],[135.75495160981,34.65863797868],[135.7547714056,34.65870072287],[135.75475942566,34.65869717383],[135.75460784546,34.65866884056],[135.75451627183,34.65865160845],[135.75446500705,34.65864333745],[135.75445090118,34.65862077101],[135.75442479597,34.65859014784],[135.75438994972,34.65856387944],[135.75436708913,34.65855031057],[135.75431805979,34.65852767375],[135.75425811489,34.65850684501],[135.75417854261,34.65848597666],[135.75409131732,34.65846678769],[135.75396153108,34.65844764801],[135.75375654268,34.65840568308],[135.75353410819,34.65835663264],[135.75337275009,34.6583220756],[135.75333131819,34.65831297657],[135.75327247007,34.65828665929],[135.7532736042,34.65827947646],[135.75329556351,34.65823261474],[135.75332184082,34.65819392953],[135.75334271997,34.65814706561],[135.75336249718,34.65810019946],[135.75336584194,34.65807231315],[135.75336159861,34.65803892123],[135.75335726371,34.65802538964],[135.75334208303,34.65799380568],[135.753311644,34.65795317564],[135.75326919906,34.65792519669],[135.75322018917,34.65789622177],[135.75318205184,34.65787994424],[135.75316023998,34.65787708734],[135.75313841435,34.65787887324],[135.75309579766,34.65789780003],[135.75303136954,34.65791739484],[135.75298006535,34.65792996631],[135.75292004889,34.65793350488],[135.75286876883,34.65793058821],[135.75279678889,34.65792142708],[135.75276077171,34.65792233671],[135.75273786597,34.65792412035],[135.75272257296,34.65792676686],[135.75268978656,34.65794557822],[135.75266463978,34.65796721782],[135.75263507781,34.6579987111],[135.75260664206,34.65802569905],[135.75258150903,34.65804269582],[135.75253890845,34.65805613219],[135.75250288328,34.65806337942],[135.75247154139,34.65806234215],[135.75247123593,34.65806233252],[135.75240798697,34.65805586641],[135.75231527775,34.6580466629],[135.75230783997,34.65804566513],[135.75224657081,34.6580375081],[135.75214452766,34.65802657261],[135.75211788256,34.65802372372],[135.75206441459,34.65802276758],[135.75203167334,34.65802636118],[135.75200001804,34.65803165183],[135.75194651018,34.65804774333],[135.75188861685,34.65807467118],[135.75181759061,34.65811157014],[135.75177166853,34.65814119982],[135.75170716138,34.65818346703],[135.75163610847,34.65822924581],[135.7515716772,34.65825700762],[135.75151490914,34.65826505973],[135.75146143597,34.65826579817],[135.75138945841,34.65825944897],[135.75132945259,34.6582593266],[135.75129016553,34.65826277142],[135.75124652199,34.65826366505],[135.75108497349,34.65828587339],[135.75082282248,34.65838803023],[135.75074446914,34.65832476359],[135.75078642441,34.65816257551],[135.75124715501,34.65805180882],[135.75150479533,34.65799824289],[135.75170130133,34.65795709209],[135.7519688676,34.65786748453],[135.7522178807,34.65777966877],[135.75249094109,34.6576765484],[135.75265474202,34.65762644968],[135.75278797617,34.65758249124],[135.75297365578,34.65751257593],[135.75309380798,34.65746506571],[135.75312438575,34.65745512975],[135.7532149896,34.65743460521],[135.75336020839,34.65739968562],[135.75347265652,34.65737835764],[135.75385689499,34.65730602953],[135.75391328813,34.65741713869],[135.75392531641,34.65741533288],[135.75434010826,34.65734489499],[135.7543597487,34.65734042695],[135.75456049577,34.65733998378],[135.75478730796,34.65738368612],[135.7549072147,34.65741914063],[135.75513207824,34.6573762112],[135.75517354909,34.65736826192],[135.75553681661,34.65738519113],[135.75554437118,34.65740957441],[135.75555842493,34.65745735618],[135.75557030688,34.65749794847],[135.755571108,34.65750006865],[135.75558438159,34.65753488497],[135.75559633221,34.65755209193],[135.75561375399,34.65756381958],[135.75564751383,34.65758107024],[135.75571073449,34.65760458239],[135.7557510615,34.65761466105],[135.75580995,34.65762731917],[135.75585586788,34.65759853539],[135.75588866416,34.65757606301],[135.75595099738,34.65754131694],[135.75595311742,34.65754013117],[135.75603177033,34.65750971798],[135.75606817029,34.65750097392],[135.75607653333,34.65749896223],[135.7561332811,34.65749006052],[135.75621404208,34.65748486698],[135.75627730718,34.65748950107],[135.75633727289,34.65750314374],[135.75638192001,34.65753197346],[135.75644399589,34.65756646347],[135.75649843578,34.65760432793],[135.75652676034,34.6576260751],[135.75654196237,34.65764328845],[135.75657348892,34.65768561473],[135.75658761643,34.65770465602],[135.75659089172,34.65770015495],[135.75658221698,34.65768563215],[135.75656917452,34.65766489816],[135.75654095105,34.65761976574],[135.7565159372,34.65759633032],[135.75647890086,34.65757273566],[135.75643205849,34.6575484092],[135.75637867278,34.65751942681],[135.75634928218,34.65750035499],[135.75633076951,34.65749228544],[135.75627952382,34.65747767753],[135.75624243193,34.65747309578],[135.7561627966,34.65747391921],[135.75610714769,34.65748014561],[135.75604490987,34.65749354392],[135.75599251041,34.65750780933],[135.75595644883,34.6575239375],[135.7558865241,34.6575580283],[135.75580128574,34.65760927139],[135.75579581748,34.65761376804],[135.7557085977,34.65759288538],[135.75563558734,34.65755935573],[135.75561162739,34.65754493746],[135.75559858271,34.65752505079],[135.75559103349,34.65749883745],[135.75557371761,34.65745104914],[135.75555424371,34.65739508872],[135.75554560849,34.65736717833],[135.75517251165,34.65735375436],[135.75509172133,34.65736894502],[135.75492472909,34.65739565514],[135.75490836404,34.65739562224],[135.75485929541,34.65738650839],[135.7547742635,34.65736379936],[135.75468159712,34.65734022749],[135.75459654964,34.65732653352],[135.75454089747,34.65732276133],[135.75434889187,34.65732237465],[135.75416223721,34.65735355171],[135.75392754871,34.65739462943],[135.753868941,34.65729083617],[135.75332643236,34.65738439961],[135.75312338586,34.65742808208],[135.75305785082,34.65745316493],[135.75283611426,34.65753751276],[135.75274544531,34.65757254236],[135.75265153345,34.65760475257],[135.75256962759,34.65763163203],[135.75240143281,34.65768805941],[135.75232280275,34.65771762287],[135.75220702176,34.6577624637],[135.75194053871,34.65785488674],[135.75180619125,34.65790236693],[135.7516686084,34.65794448535],[135.75149939157,34.65798104888],[135.75131487311,34.65802307123],[135.75124720382,34.65803547336],[135.75066202699,34.65816598137],[135.75044812365,34.65819075931],[135.74994402117,34.65820409678],[135.74979124111,34.65821645875],[135.74956003296,34.65818710835],[135.74946635234,34.65814183983],[135.74919853876,34.65794295456],[135.74912448576,34.65790138632],[135.74861678312,34.65766947005],[135.74861015529,34.6576893169],[135.74871693229,34.65774010334],[135.7490023743,34.6578704292],[135.74909827435,34.6579103476],[135.74916363182,34.65794471284],[135.74929208886,34.65804231429],[135.74942051336,34.65814357572],[135.74949895261,34.65818515279],[135.74958615746,34.65821068269],[135.74969522116,34.6582234468],[135.74977373619,34.65823262316],[135.75003125324,34.65822061121],[135.7500464843,34.65823501269],[135.75007153187,34.65825394189],[135.75041069394,34.65829886526],[135.75057865115,34.65832259441],[135.75071604326,34.65834456599],[135.75071826832,34.65833020029],[135.75007374613,34.65823957618],[135.75005526646,34.65822066044],[135.75048298212,34.6582052009],[135.75075149011,34.65816616428],[135.7507667643,34.6581661955],[135.75072697494,34.65833740321],[135.75082059191,34.65840788618],[135.75108712894,34.65829841795],[135.75124648706,34.65827535771],[135.75129559367,34.65827179771],[135.75133487821,34.65826920031],[135.75135560749,34.65826924258],[135.75138288287,34.6582692982],[135.75141888928,34.65827204913],[135.75147449869,34.65827934762],[135.75151594888,34.65827858467],[135.75157710244,34.65826701655],[135.75162406443,34.65824725171],[135.75168963035,34.65821217183],[135.75173555795,34.6581807121],[135.75176396969,34.65816189209],[135.75186889761,34.65809815174],[135.75193773382,34.65806758599],[135.75198688057,34.65805050297],[135.75203709357,34.65803806493],[135.75206982938,34.65803630141],[135.75212001048,34.65803823353],[135.75219964389,34.65804558052],[135.75229014423,34.65806013466],[135.75233376587,34.65806656097],[135.75240357978,34.65807036294],[135.75248648333,34.65807503886],[135.75249847356,34.6580750632],[135.75252467169,34.65807413372],[135.75255304302,34.65806883626],[135.75259891916,34.65805455911],[135.75262624553,34.65803743155],[135.75264814612,34.65801043034],[135.7526787798,34.6579780918],[135.75269957891,34.65795827347],[135.75271894003,34.6579450784],[135.75272472321,34.65794114147],[135.75274436096,34.65793765634],[135.75277056156,34.65793587938],[135.75282292756,34.65793683298],[135.75287745929,34.65794328121],[135.75293526653,34.65794522845],[135.75300293097,34.65794170536],[135.75304332763,34.65793192454],[135.75308592509,34.65791581047],[135.75311540906,34.65790319478],[135.75313507695,34.65789689691],[135.75314382639,34.65789338967],[135.75315799861,34.65789341837],[135.75317654625,34.65789698086],[135.75320378935,34.65790788131],[135.75324736548,34.65792966011],[135.75327240774,34.65794323361],[135.75330069924,34.65796484623],[135.75332787019,34.65800011463],[135.7533441473,34.65802987072],[135.75335062965,34.65805875956],[135.75334946631,34.65807580498],[135.7533428723,34.65809565215],[135.75333626487,34.65811634673],[135.75333073469,34.65814168633],[135.75332413268,34.65816055083],[135.75331319834,34.65816869649],[135.75330879421,34.6581822104],[135.75329890579,34.65820557586],[135.75327371399,34.65824243317],[135.75325617164,34.65826408828],[135.75325505397,34.65827676141],[135.7532583003,34.65828578319],[135.75326154405,34.65829199222],[135.75326916535,34.65830102286],[135.75326043722,34.6583010052],[135.75324733168,34.65830548628],[135.7532320224,34.65831728326],[135.75320793743,34.65834878776],[135.75318052044,34.65839648585],[135.75314217989,34.65844866942],[135.75310277198,34.65848549792],[135.75307109789,34.65850444686],[135.75304596139,34.65851524125],[135.75297935074,34.65853483161],[135.75295531067,34.65854379811],[135.75291382524,34.65855638944],[135.75287669841,34.6585671595],[135.75281440621,34.6586057716],[135.75280236184,34.65861293231],[135.75276848673,34.65863455423],[135.75275209757,34.65864255355],[135.75274770376,34.65864888234],[135.75274877644,34.65866240733],[135.75275525519,34.65868143355],[135.75276935014,34.65870752512],[135.75278674255,34.65873643611],[135.75280190385,34.65876717266],[135.75280948248,34.65879057349],[135.75280939966,34.65881846639],[135.75282248649,34.65882032301],[135.75282692293,34.65879596388],[135.75281826666,34.65876805326],[135.75279875421,34.65872927534],[135.75278355228,34.65870487639],[135.75276515221,34.65865891559],[135.75276406614,34.65864989818],[135.75281107958,34.65862013511],[135.75287336092,34.65858518316],[135.75288211336,34.6585806933],[135.75294435492,34.65855912882],[135.7529836856,34.65854836321],[135.75301424705,34.65854039256],[135.75305574044,34.65852878388],[135.75309508144,34.65850717295],[135.75312571021,34.6584838495],[135.75315961441,34.6584523649],[135.75319139846,34.65840735317],[135.75323523162,34.65834250531],[135.75325276004,34.65831451248],[135.7532625926,34.65831368495],[135.75327894699,34.65831737822],[135.75345665694,34.65835647605],[135.75373577578,34.65841465635],[135.75396149112,34.65846117075],[135.75408582229,34.65848029943],[135.75418611849,34.6585030397],[135.75426571511,34.65852306066],[135.75430602118,34.65854032489],[135.75434631686,34.65856111402],[135.75436922348,34.65857017539],[135.75439425822,34.65858642616],[135.75441821587,34.65860535227],[135.75443124651,34.65862256151],[135.75444754533,34.65864513237],[135.75445407276,34.65865148321],[135.75475176196,34.65870617363],[135.75477029893,34.65870973586],[135.7550924365,34.65861304607],[135.75519289,34.65858986234],[135.75541559508,34.658536218],[135.75544399414,34.65853261478],[135.75553454028,34.65853194893],[135.75562616726,34.6585384703],[135.75569592633,34.65856114813],[135.75578964571,34.65859824416],[135.75582779423,34.65861099595],[135.75592589351,34.65864274561],[135.75615588754,34.6587153275],[135.75623763783,34.65874155395],[135.75629760979,34.65875336656],[135.75634667938,34.65876247984],[135.75643612483,34.65877265643],[135.75647538289,34.65877541236],[135.75651356083,34.65877816612],[135.75656264612,34.65878192431],[135.75665429259,34.6587856322],[135.75669680746,34.65879022465],[135.75673389461,34.65879663635],[135.75677339485,34.65880612703],[135.75678295646,34.65880842696],[135.75686034232,34.65883111933],[135.75700637638,34.658890992],[135.75701182616,34.65889283295],[135.75702162727,34.65889905495],[135.75704775101,34.65891995018],[135.75711424059,34.65894163802],[135.75716983805,34.65895710167],[135.75728324956,34.65897620534],[135.75744684008,34.65899822149],[135.75745361311,34.65899900126],[135.75775113647,34.65903305722],[135.75777948469,34.65903945123],[135.75780891836,34.65904401731],[135.75801827765,34.65908866162],[135.75809353825,34.65909952104],[135.75825723149,34.65908632288],[135.75831613817,34.65908193205],[135.75834998427,34.6590811517],[135.75836959874,34.65908569818],[135.75837938936,34.65909558023],[135.75838044113,34.65910910513],[135.75838028906,34.65916150125],[135.75838110753,34.65925165501],[135.75838309117,34.65932378065],[135.7584024547,34.65941481858],[135.75843167738,34.65949967358],[135.75843165407,34.65950770609],[135.75844575832,34.65953125472],[135.75844792268,34.65954112165],[135.75844790183,34.65954830674],[135.75844242297,34.65955646366],[135.75843804045,34.65956279268],[135.75843365832,34.65956898646],[135.75850230961,34.65959799818],[135.75851640614,34.65962422431],[135.75853815121,34.65965033036],[135.75855443827,34.65967740825],[135.75857067797,34.65972082161],[135.75857393584,34.65972984328],[135.7585782297,34.65975408467],[135.75857488062,34.65978027625],[135.75857042959,34.65980646564],[135.75854299435,34.65986135002],[135.75836635648,34.66020273073],[135.75834547471,34.66025129035],[135.75832309117,34.66044507304],[135.75831855782,34.66051084805],[135.75831616321,34.66058028748],[135.75832572335,34.66066961112],[135.75833421401,34.66075527246],[135.75834377077,34.66083825839],[135.75835758587,34.66096900633],[135.75835863766,34.66098253123],[135.75837672297,34.66114568829],[135.75838408245,34.66123768507],[135.75838889133,34.66146039735],[135.75838700218,34.66173535751],[135.75838552706,34.66187143016],[135.75838913435,34.6621247106],[135.75839091649,34.66226627996],[135.75838542436,34.66227894446],[135.75836684198,34.66228694019],[135.75828491492,34.66232016111],[135.75818231327,34.66234164825],[135.75813537615,34.6623450801],[135.75775888359,34.66236968342],[135.7576443295,34.66236664302],[135.75752763253,34.66235387084],[135.75743599276,34.66234650344],[135.75734105638,34.66234716196],[135.75727342102,34.66234702732],[135.75725922374,34.66234784649],[135.75713047536,34.6623520977],[135.75696682817,34.662347264],[135.75691666308,34.66234265639],[135.75689592433,34.66234176761],[135.7568686686,34.66233452814],[135.75676942642,34.66232263747],[135.75675306574,34.66232077474],[135.75670942052,34.66232153509],[135.75669958999,34.66232151547],[135.75669192308,34.66232783786],[135.75657848942,34.66232225641],[135.75652827061,34.66232483365],[135.7564846122,34.6623301015],[135.75645405713,34.66233553073],[135.75644205597,34.6623390317],[135.75642128837,34.66234800542],[135.7563907067,34.66235878962],[135.75636992342,34.66237311833],[135.75635683862,34.66237407484],[135.75632888735,34.66240690646],[135.756334456,34.66247257536],[135.75633474031,34.66248727071],[135.75634092143,34.66258971386],[135.75633382296,34.66261428415],[135.75633278961,34.66262065583],[135.75633196979,34.66262862364],[135.75633136309,34.66263460853],[135.75633009368,34.66264707402],[135.75632265402,34.66267637661],[135.75630789326,34.66271684342],[135.75630230895,34.66272733498],[135.75628143413,34.66275425774],[135.75626865055,34.66276783613],[135.75625546971,34.66277921402],[135.75623743874,34.66279254752],[135.75622465369,34.66280289846],[135.75613292524,34.66285546301],[135.75606342956,34.66289428771],[135.75603798582,34.66290907583],[135.75601825881,34.6629203234],[135.75600344949,34.66292890328],[135.75596672453,34.66295464934],[135.75594428536,34.66297175135],[135.75592507942,34.66298761572],[135.75589439319,34.66301534817],[135.75586614002,34.6630430945],[135.75583956009,34.66307323321],[135.75581189044,34.6631066152],[135.75578996926,34.66313308501],[135.75577141169,34.66315478351],[135.75573892183,34.66318733544],[135.75569280293,34.66322406114],[135.75565044893,34.66323453307],[135.75560763249,34.6632427142],[135.75557633045,34.66324600511],[135.75540197736,34.66317085627],[135.75538264963,34.66316870794],[135.75535289451,34.66316540276],[135.75527210232,34.66319045615],[135.75524150928,34.66320124003],[135.75520983895,34.66321103909],[135.755199024,34.66321552497],[135.75515775343,34.66322116676],[135.75512701051,34.66321612862],[135.75510235752,34.66320682049],[135.75509003104,34.66320216191],[135.75505295791,34.66318294815],[135.75498198849,34.66313652148],[135.75493655997,34.66310912311],[135.75491559491,34.66309240284],[135.75474993441,34.6630298107],[135.75465620275,34.66299905155],[135.75435533125,34.66290097332],[135.75416131703,34.66283747582],[135.7539738169,34.66277765133],[135.75386373594,34.66274136832],[135.7536642696,34.6626770116],[135.75332524218,34.66256899109],[135.75301894537,34.66247286389],[135.75294155171,34.66244833898],[135.75259703109,34.66236101325],[135.75257961422,34.66235111527],[135.75256004195,34.66232487736],[135.75255896136,34.66232135022],[135.75255133977,34.66231231954],[135.75255137997,34.66229879681],[135.75257114818,34.66225911593],[135.75254494624,34.66226455301],[135.75250894396,34.66226715745],[135.75210197578,34.6622626705],[135.75194153514,34.66228403477],[135.75182144797,34.66230717583],[135.75171005401,34.66233850226],[135.75154947567,34.66240226426],[135.75123380389,34.6625196657],[135.75117477574,34.66255645351],[135.75110482298,34.66259420164],[135.7510796988,34.66260767316],[135.75094737982,34.66271107782],[135.75084128099,34.66279565807],[135.75081940005,34.66281547386],[135.75070229351,34.66293595709],[135.75042319862,34.66322570277],[135.75020320454,34.6634578175],[135.75015722735,34.6635046294],[135.75009376045,34.66356943585],[135.74999855443,34.66365939272],[135.749954765,34.66370790389],[135.74998749759,34.66370797101],[135.7501304676,34.66369206378],[135.75024651227,34.66356974886],[135.75039206165,34.66342129604],[135.75049055634,34.66332233038],[135.75051134641,34.66330251243],[135.75080672897,34.66303899803],[135.75093798492,34.6629301011],[135.75112601098,34.66280610225],[135.75123317074,34.66273152177],[135.75136763151,34.6626488291],[135.75147695115,34.66257791298],[135.75154140765,34.66254283095],[135.75164410028,34.66250247175],[135.75175551592,34.66246396031],[135.75183195256,34.66244340798],[135.75197168755,34.66241383396],[135.75198366749,34.6624175185],[135.75199128651,34.66242739664],[135.75201635929,34.66243110781],[135.75202000582,34.66242666172],[135.75202075043,34.66242576171],[135.75219210245,34.66241160463],[135.75250960321,34.66240872459],[135.75252053819,34.66240057901],[135.75254894075,34.66238894394],[135.75257623883,34.66238181422],[135.75260242449,34.66238186735],[135.75273106599,34.66241368154],[135.75292949934,34.66246536232],[135.75325978873,34.66256519847],[135.75338406411,34.66260517091],[135.75350071294,34.66264146763],[135.7537732169,34.66273132291],[135.75429642667,34.66290366737],[135.7545961856,34.66300160828],[135.75484577364,34.66308592477],[135.75490789099,34.66311492537],[135.75498193287,34.66316282774],[135.75491105253,34.66314916247],[135.75485542917,34.66314539046],[135.75476917777,34.66316056991],[135.75462062914,34.66321886987],[135.75454527763,34.66323773127],[135.75450272073,34.66324666079],[135.75421126363,34.66328931952],[135.75415888683,34.66329456895],[135.75409667098,34.66329895109],[135.75369191989,34.66328461127],[135.75354024339,34.66328979501],[135.75334597258,34.66331278759],[135.75313861367,34.66333039833],[135.75296290348,34.66333821021],[135.75287125061,34.66334605702],[135.75272937525,34.66335746208],[135.75272390645,34.66336195859],[135.75269551902,34.66336105359],[135.75261697456,34.66336004681],[135.7524402168,34.66336419564],[135.75241292927,34.66336766518],[135.75222190398,34.66339615281],[135.75218369723,34.66340241285],[135.75203741959,34.66342282337],[135.75195993677,34.66343168096],[135.75191190731,34.66343524342],[135.75173724542,34.66346461102],[135.75159424666,34.66349038271],[135.75136510273,34.66349540589],[135.7513181727,34.66349615761],[135.75123086161,34.66350414727],[135.75111295975,34.66352193705],[135.75111285993,34.66355532015],[135.7512307673,34.66353570029],[135.75128750917,34.6635303258],[135.75135081348,34.66352692997],[135.75153742121,34.66351646511],[135.75158544235,34.66351205536],[135.75161818578,34.6635084619],[135.75166293872,34.6635023506],[135.75176117657,34.66348902785],[135.75178579052,34.663650369],[135.75178457592,34.66369544256],[135.75178455702,34.66370178021],[135.75177772236,34.66379107092],[135.75176547589,34.66387669043],[135.75175322141,34.66396132727],[135.75175092369,34.6640037211],[135.75181192227,34.66403455108],[135.75179780278,34.66401283175],[135.75178147675,34.66399927571],[135.75177170232,34.66398037797],[135.75177289337,34.66395418221],[135.75180184903,34.66372068424],[135.75180814677,34.66365776191],[135.75180869786,34.66365224572],[135.75178409732,34.66348273682],[135.75185071554,34.66346934962],[135.75191093798,34.66346394586],[135.7519489399,34.6634605343],[135.75197403187,34.66345790783],[135.75211265899,34.66344185421],[135.75220106857,34.66342766369],[135.75227202667,34.66341513251],[135.75235607733,34.66340276311],[135.75244884363,34.66339478372],[135.75254486935,34.66339145371],[135.75265724535,34.66338985165],[135.75277509606,34.66338910802],[135.75282093737,34.66338018576],[135.75288096531,34.66337410498],[135.75310687031,34.66336103985],[135.7532203859,34.66335042437],[135.7535652665,34.66331407847],[135.75364819912,34.66331072112],[135.753714763,34.66330817809],[135.7539329526,34.66331763385],[135.75403987066,34.6633205271],[135.75410533845,34.6633196765],[135.75419372396,34.66331717721],[135.75433562566,34.66329675529],[135.75443715491,34.66328075949],[135.75455178237,34.66325929972],[135.75462709827,34.66324142091],[135.75465986515,34.66322979413],[135.75466970367,34.66322713641],[135.7547494455,34.66319574361],[135.7547996829,34.66317964433],[135.75485862775,34.66317074766],[135.75490880164,34.66317620356],[135.75492298871,34.6631789096],[135.75496760301,34.66321604275],[135.75497741,34.66322409501],[135.75498262118,34.66330707243],[135.7549695119,34.66330887617],[135.7549790928,34.66339003229],[135.75503724183,34.66365159012],[135.75505010686,34.66372909265],[135.75506520675,34.66378870448],[135.75506519099,34.66379405948],[135.75505631334,34.66384094776],[135.75502280583,34.66410415149],[135.75501839984,34.664125698],[135.75502489568,34.66413923386],[135.75504010478,34.6641654626],[135.75502654969,34.66431869386],[135.75499545267,34.66450795068],[135.75497983756,34.6646196267],[135.75497525546,34.66469356922],[135.75497062028,34.66478554203],[135.75490479834,34.66490626756],[135.75479763181,34.66499071386],[135.75476688657,34.66505291102],[135.75471303722,34.66518352315],[135.7546766937,34.6653014951],[135.75466889348,34.66535289311],[135.75466754993,34.66543853484],[135.75473142061,34.66560995222],[135.75472037665,34.66565500601],[135.75470060378,34.66570004225],[135.75457565316,34.66588727996],[135.75447482397,34.66604216547],[135.754336811,34.6662221915],[135.75427549548,34.66629784973],[135.75420542655,34.6663743377],[135.75413208162,34.66645166645],[135.75407943895,34.6665462199],[135.75404530782,34.66665348603],[135.75405729138,34.66665618772],[135.75409580581,34.66654625291],[135.75414296371,34.66646155103],[135.75428526713,34.66630688462],[135.75437286815,34.66620155623],[135.7544890086,34.66604585421],[135.75459313282,34.66588731514],[135.75468849775,34.66573523127],[135.75469397989,34.6657262271],[135.75472357266,34.66567755045],[135.75473272803,34.66564762938],[135.75473516287,34.66563966484],[135.75474231305,34.66561631182],[135.75473691851,34.66559559304],[135.75473259931,34.66558023146],[135.75470122029,34.66549086373],[135.75468604262,34.66545392495],[135.75468178262,34.66542588811],[135.75468184366,34.66540518031],[135.75470959173,34.66524563999],[135.75471179459,34.66523493436],[135.75472171293,34.66520157101],[135.75473930885,34.6651547003],[135.7547469942,34.66513485527],[135.75478982092,34.66504577203],[135.75480190801,34.66501326047],[135.75482159572,34.66500075991],[135.75487519255,34.66495579166],[135.75492440665,34.66491701704],[135.75499464618,34.66478193015],[135.75500505709,34.66457375393],[135.75500932548,34.66454336324],[135.75501176606,34.66452601387],[135.75503959529,34.66433858057],[135.75504061121,34.66432705216],[135.75505537691,34.6641591556],[135.75504126206,34.66413926674],[135.75504128321,34.66413208167],[135.75503584351,34.6641267157],[135.75503586216,34.66412037805],[135.75505224969,34.66411322586],[135.75505338885,34.6640968926],[135.75508264051,34.66379677205],[135.75508266415,34.66378873955],[135.75506446592,34.66366967523],[135.75504947218,34.66357400278],[135.75502265649,34.66341716545],[135.75502164252,34.66339096522],[135.75501970939,34.66330263936],[135.75501869805,34.66327925188],[135.7551169405,34.66326409634],[135.75518242399,34.66325789016],[135.75526763182,34.66322284783],[135.75530258864,34.66320854775],[135.75534299352,34.66320046106],[135.75538552093,34.66320152905],[135.75541388722,34.66320961851],[135.7555587939,34.66327667574],[135.75559799572,34.66329929235],[135.75563071742,34.66330301811],[135.75576271792,34.66331765285],[135.75578125002,34.66331952006],[135.75583906718,34.66332682098],[135.75588813405,34.66333776452],[135.75595570701,34.66335945516],[135.75610064941,34.66342200422],[135.75610826536,34.66342567963],[135.75607758812,34.66346520403],[135.75602491241,34.66357243368],[135.75607365208,34.66369508392],[135.75609859871,34.66374203995],[135.75614308026,34.66383594116],[135.75616234744,34.66395937984],[135.75616334303,34.66398825753],[135.75616002497,34.66400726397],[135.75615015521,34.66402429198],[135.75612716306,34.66405129161],[135.75613914113,34.66405948335],[135.75617311806,34.66400729015],[135.75617752739,34.66399194607],[135.75617544071,34.6639630662],[135.756155061,34.66383949007],[135.75614422399,34.66381425286],[135.75604126835,34.66357599136],[135.75606766057,34.66350941277],[135.75609506976,34.66346439157],[135.75612243681,34.66343374052],[135.75631193889,34.66354497943],[135.75643821492,34.66365171938],[135.7564969774,34.66369776022],[135.75654597617,34.66373208881],[135.75658738248,34.6637547095],[135.75666148438,34.66379007081],[135.75676503769,34.66382450819],[135.75693837262,34.66386809982],[135.75728945908,34.66395627379],[135.75737013962,34.66398080248],[135.75742038455,34.66395836444],[135.75744876603,34.6639539133],[135.75754704291,34.66392706316],[135.75756348556,34.66390089767],[135.75752197919,34.66391250785],[135.75750997746,34.66391614415],[135.75746629694,34.66392873265],[135.7573767857,34.66394292479],[135.75734185458,34.66394468536],[135.75729822699,34.66393910826],[135.75721864341,34.66392007197],[135.7571248942,34.66389466972],[135.75704746054,34.66387550237],[135.756826334,34.66382124976],[135.75681415518,34.66381826848],[135.75675307977,34.66380194632],[135.75663211706,34.6637547988],[135.7565558596,34.66371407813],[135.75648834409,34.66366886727],[135.75639258164,34.66358218407],[135.75633051927,34.66353783145],[135.7562183488,34.66346548556],[135.75614209965,34.66342208713],[135.75611922902,34.66340767114],[135.75611161307,34.66340399574],[135.75599063428,34.66335149252],[135.75589909238,34.66332158614],[135.75585559843,34.6633115102],[135.75583436874,34.66330680683],[135.75580185507,34.66329911484],[135.75572735181,34.66329297048],[135.75571953826,34.66328971837],[135.75570138291,34.66328216331],[135.75570414204,34.66327889632],[135.75573786097,34.66323280602],[135.75579696157,34.66317080062],[135.75583729283,34.66312083798],[135.75592405834,34.66303443867],[135.75598092806,34.66299267686],[135.75605469447,34.66294115833],[135.75607017904,34.6629292712],[135.75620982701,34.66285094692],[135.7562355408,34.66283334656],[135.7562727053,34.66281021571],[135.75629729065,34.66279045845],[135.75632182607,34.66276539112],[135.75634190438,34.66274965463],[135.75635808855,34.6627261122],[135.75636596043,34.66268333274],[135.75637296479,34.66263499818],[135.75637548612,34.66258994521],[135.75637583567,34.66248915588],[135.75637584655,34.66248170934],[135.75639157579,34.66243091302],[135.75641566155,34.66240659304],[135.75645393347,34.66237779378],[135.75649320395,34.66236942497],[135.75649978723,34.66236802273],[135.75656199692,34.66236546944],[135.75668417792,34.66236839085],[135.75675071749,34.66237387865],[135.75686088072,34.66238226617],[135.75701794517,34.66240328722],[135.75701681997,34.6624149777],[135.75708124037,34.66239890574],[135.75717399978,34.66239275283],[135.75728420808,34.66238944732],[135.75741404821,34.66238872307],[135.75752313384,34.66239626042],[135.75765295085,34.66240722859],[135.75774130841,34.66241021694],[135.75790501107,34.66239603663],[135.75810909595,34.66237756385],[135.75821822662,34.66236961253],[135.75826079919,34.66236251183],[135.75830556166,34.66235273793],[135.75840824807,34.66230956027],[135.75851532223,34.66226201882],[135.75855242533,34.66225222967],[135.7587599058,34.66219136399],[135.75893573055,34.66214297554],[135.75894664897,34.66214031961],[135.75903400728,34.66211527675],[135.75908640952,34.66210087483],[135.7590918673,34.66210003819],[135.75909202914,34.66204411716],[135.75893258759,34.6620942331],[135.75870545698,34.66215519541],[135.7586355958,34.66217393498],[135.75861811692,34.66217390038],[135.75848382198,34.66220969526],[135.75845112675,34.66219695511],[135.75845009891,34.66217892265],[135.7584402684,34.66217890318],[135.75844203967,34.66194451124],[135.75844353862,34.66142796973],[135.75865741723,34.66141754798],[135.7595379941,34.66139054736],[135.75953795259,34.66140491752],[135.75952623996,34.66168253586],[135.7595181098,34.66184930121],[135.75951908822,34.66188451655],[135.75953329881,34.66187905431],[135.75955329915,34.66137254712],[135.7592870747,34.66138188445],[135.75890297522,34.66139380092],[135.75865745644,34.66140402524],[135.75846212022,34.66141265364],[135.75845339983,34.66141361902],[135.75844248926,34.66141359741],[135.75843235577,34.66114579853],[135.75837641932,34.6604947624],[135.75837646103,34.66048039223],[135.75838085915,34.66046870822],[135.75840763574,34.66026493635],[135.75842190771,34.66023073387],[135.75842850725,34.66021990165],[135.75843942543,34.66021724576],[135.75855397699,34.66022015018],[135.75867614962,34.66022489965],[135.75875359764,34.66023054318],[135.75898708048,34.66023100493],[135.75958716381,34.66022852947],[135.75958711419,34.66024571237],[135.76006171729,34.66024664726],[135.76054725189,34.66024028142],[135.76062036669,34.66023140978],[135.76072954049,34.66020739118],[135.76079397746,34.66018850453],[135.7608475004,34.66016705415],[135.76093709721,34.66011764619],[135.7610125403,34.66006539767],[135.7611142964,34.65996473487],[135.76115573725,34.65996749358],[135.76122989753,34.65998200908],[135.76132804939,34.65999670673],[135.76143491748,34.66001945391],[135.76145453235,34.66002399989],[135.76146768739,34.6600059952],[135.76144259833,34.66000045585],[135.76134337562,34.6599787063],[135.76118852294,34.65994854471],[135.76117764085,34.65993866076],[135.76115477109,34.65992777066],[135.76114061387,34.65992238789],[135.7612293184,34.65980353377],[135.7612241323,34.6597097113],[135.76116386392,34.65980072805],[135.76113871836,34.65981870922],[135.76112770453,34.6598547485],[135.7610674804,34.65993027715],[135.76101713982,34.65998342234],[135.76094059643,34.6600427186],[135.76083567012,34.66010744941],[135.76078432327,34.66012720919],[135.76071878069,34.66015497365],[135.7606238087,34.66017647783],[135.76056923844,34.66018270838],[135.76053319725,34.66019165281],[135.76023860604,34.66019459882],[135.76023099753,34.66018838139],[135.75999204658,34.66019241886],[135.75996913472,34.66019237376],[135.75967237761,34.66019348404],[135.75965055396,34.66019442368],[135.75965268892,34.66020696805],[135.75923372386,34.66020797154],[135.75896423142,34.66020926917],[135.75864017886,34.66020947555],[135.75843071236,34.66020821329],[135.7584493824,34.66016232679],[135.75854263604,34.65998488477],[135.75855252144,34.65996589126],[135.75862496585,34.65981192865],[135.75863272918,34.659772223],[135.75863286233,34.65972629976],[135.75862528729,34.65970106922],[135.75860251188,34.65965777815],[135.75854055052,34.65957919606],[135.75853077045,34.65956565388],[135.75850471643,34.65952052621],[135.75848522239,34.65947442887],[135.75846030085,34.65941127301],[135.7584419682,34.65934094508],[135.75843128027,34.65926429459],[135.75843142661,34.65921386377],[135.75844804584,34.65912642208],[135.75845025091,34.65911473372],[135.75846674709,34.65906969033],[135.75850288731,34.65902651593],[135.75854552292,34.65898955686],[135.75861108122,34.65895630333],[135.75870068926,34.6589105572],[135.75882092635,34.65883331834],[135.75889199705,34.65878021504],[135.75892813101,34.65873155024],[135.75895120255,34.65868384226],[135.75899397564,34.65859926494],[135.75903447701,34.65855694643],[135.75907167674,34.65852448403],[135.75912194645,34.65849218267],[135.75916562102,34.65848057621],[135.75921800507,34.65847166445],[135.7593140883,34.65845016355],[135.75943094128,34.65840714817],[135.75946809643,34.65839003848],[135.75960690572,34.65830748043],[135.7596528167,34.65827320494],[135.75968463304,34.65821199123],[135.75973292707,34.65811559656],[135.75975938064,34.65801478645],[135.75976836433,34.65793000703],[135.75977640143,34.6577876095],[135.75977992231,34.65770549683],[135.75978888483,34.65762803772],[135.75979327906,34.65761001595],[135.75980969619,34.65759201786],[135.75983593271,34.65757769928],[135.75986541136,34.65757409716],[135.75990906707,34.65756882809],[135.75997017851,34.6575599332],[135.75997672983,34.657558116],[135.76006622325,34.65754378666],[135.76025171744,34.65753611897],[135.76053214286,34.65752765482],[135.76078527204,34.65752266143],[135.76080382723,34.65752368049],[135.76101219847,34.65752408908],[135.7610574116,34.65752353761],[135.76120205211,34.65752178353],[135.76129217562,34.65751972423],[135.76131550298,34.65751919292],[135.76138106404,34.65751844677],[135.76144316645,34.6575177479],[135.76158395867,34.6575035178],[135.76160141152,34.6575008744],[135.76165105405,34.65749654498],[135.76166143217,34.6574956367],[135.76167430604,34.65749566186],[135.76174106468,34.65749579233],[135.76187851978,34.65750775359],[135.7620159603,34.65751337696],[135.76209232026,34.65751718615],[135.7622374389,34.657508454],[135.76225004102,34.65751194943],[135.76226250191,34.65752287312],[135.76226104985,34.65753851169],[135.76225437029,34.65760817728],[135.76224359016,34.65767344446],[135.76223579237,34.65771825291],[135.76221320053,34.65778593117],[135.7621941433,34.65785751989],[135.76218513515,34.6579135319],[135.76217773062,34.65795050689],[135.76215216125,34.65802545459],[135.76212926109,34.65810552815],[135.76211954642,34.65814532039],[135.76211485836,34.65816706496],[135.76210455115,34.65822330881],[135.76210121005,34.65828147748],[135.7621050142,34.65832089041],[135.7621200343,34.65836403949],[135.76213846275,34.65839421331],[135.76214790022,34.65842854363],[135.76214947174,34.65846657288],[135.7621442468,34.65852729819],[135.76212836819,34.65858985985],[135.76211648979,34.65862322002],[135.76209396432,34.65865609964],[135.76207076022,34.65872791464],[135.76203959763,34.65883959742],[135.76202355375,34.65898282689],[135.76201749921,34.65913906677],[135.76201383121,34.6591703424],[135.76199266527,34.65917030109],[135.76205040523,34.65920379713],[135.76229041855,34.6592087729],[135.7623842494,34.65920810836],[135.76261773988,34.65920490299],[135.76304869602,34.65920574126],[135.7634076263,34.65921277596],[135.76341965564,34.65920293666],[135.76321760159,34.65918949942],[135.76288512644,34.65917570011],[135.76263837107,34.65917438158],[135.76252676137,34.65917330781],[135.76249451994,34.65917761739],[135.7623952421,34.65917925405],[135.76219120702,34.65918336388],[135.76207117342,34.65919031483],[135.76206575412,34.65917776409],[135.76206149065,34.65914254235],[135.76207790921,34.65910489079],[135.76208941131,34.65898562391],[135.7620949092,34.65894394829],[135.76211834303,34.65880320339],[135.76212581825,34.65875679864],[135.7621302226,34.65873125811],[135.76215952506,34.65865577678],[135.76218394768,34.65859276299],[135.76219122983,34.65857191598],[135.76219604196,34.65854111136],[135.76220381554,34.65848571901],[135.76220510766,34.65846879095],[135.76220021241,34.65844466571],[135.76217936807,34.65839322029],[135.7621506028,34.65832654174],[135.76214464316,34.65831219592],[135.76213686833,34.65827637232],[135.76213392775,34.65823637508],[135.76213348637,34.65822284238],[135.76213606441,34.65820261727],[135.76214299954,34.65816574955],[135.7621787435,34.65801223605],[135.76223444149,34.65779778252],[135.76226872094,34.65763740555],[135.76228978471,34.6575202488],[135.7623051513,34.65748787806],[135.76209015591,34.65750718405],[135.76168329623,34.65748032652],[135.76165275089,34.65747928416],[135.76159817965,34.65748649783],[135.76157088675,34.65749264693],[135.76144648304,34.6574987413],[135.76055184258,34.65750247795],[135.7600259189,34.65752567691],[135.75999534399,34.65753110699],[135.75997679236,34.65753642552],[135.75992983936,34.65754633095],[135.75985126693,34.6575568863],[135.7598086994,34.65756314015],[135.75978580655,34.65755675736],[135.75976185923,34.65754149249],[135.75973355214,34.65751340841],[135.75970205188,34.65747277786],[135.75966512613,34.65741058122],[135.75965429416,34.65738351422],[135.75963586142,34.65734009667],[135.75962282951,34.6573230232],[135.7595966975,34.65730494125],[135.75958141538,34.65730392846],[135.75953020123,34.65728579703],[135.75947899483,34.65726498808],[135.75944517514,34.6572568888],[135.75940264013,34.6572594824],[135.75935351367,34.65727023076],[135.75923230745,34.65729873199],[135.7591591845,34.65731126298],[135.75907950427,34.65732012078],[135.75895949147,34.65732073102],[135.75872708197,34.65733294675],[135.75861034431,34.65732905552],[135.75858200466,34.65732364438],[135.75850789027,34.657301807],[135.7580573971,34.65726583573],[135.75765709665,34.65723531761],[135.75747055822,34.6572195938]]]}},{"type":"Feature","id":"180797","properties":{"nativeId":"180797","nativeIdField":"土地key","shapefileRecord":226929,"distanceFromWupM":3837.8238,"containsWupPoint":false,"vertexCount":9,"partCount":1},"geometry":{"type":"Polygon","coordinates":[[[135.75748144731,34.65722680059],[135.75728147101,34.65734092296],[135.75728871134,34.65747701305],[135.75740879005,34.65745386654],[135.75754743486,34.65742794409],[135.75755614913,34.65742894408],[135.75761613099,34.65743709588],[135.75763306811,34.65724062489],[135.75748144731,34.65722680059]]]}},{"type":"Feature","id":"180796","properties":{"nativeId":"180796","nativeIdField":"土地key","shapefileRecord":226924,"distanceFromWupM":3838.6118,"containsWupPoint":false,"vertexCount":9,"partCount":1},"geometry":{"type":"Polygon","coordinates":[[[135.75763306811,34.65724062489],[135.75761613099,34.65743709588],[135.75768047116,34.65744722164],[135.7578266031,34.65746906735],[135.75788550739,34.65747636946],[135.75794005233,34.65747830784],[135.75799567736,34.65748024835],[135.7580311766,34.65727832387],[135.75763306811,34.65724062489]]]}}]}