{
  "type": "FeatureCollection",
  "features": [
    {
      "type": "Feature",
      "id": "BR-POA-SMF-69188",
      "geometry": {
        "type": "Polygon",
        "coordinates": [
          [
            [
              -51.1521003,
              -30.0558922
            ],
            [
              -51.1520996,
              -30.0558673
            ],
            [
              -51.1520998,
              -30.0558644
            ],
            [
              -51.1521362,
              -30.0558285
            ],
            [
              -51.1521548,
              -30.0558133
            ],
            [
              -51.1521665,
              -30.0558017
            ],
            [
              -51.152172,
              -30.0558069
            ],
            [
              -51.1522026,
              -30.0558354
            ],
            [
              -51.1522455,
              -30.0558753
            ],
            [
              -51.152239,
              -30.0558817
            ],
            [
              -51.1522354,
              -30.0558851
            ],
            [
              -51.1521777,
              -30.0559394
            ],
            [
              -51.152171,
              -30.0559458
            ],
            [
              -51.1521157,
              -30.0559043
            ],
            [
              -51.1521003,
              -30.0558922
            ]
          ]
        ]
      },
      "properties": {
        "parcelId": "BR-POA-SMF-69188",
        "id": "BR-POA-SMF-69188",
        "sourceId": "br-poa-smf-fiscal-parcels",
        "sourceParcelId": "69188",
        "parcelNumber": "69188",
        "cadMunicipalityName": null,
        "ownershipType": "unknown",
        "sourceProperties": {
          "objectid": 267055,
          "id_lotes": 69188,
          "setor": 21,
          "qtd": 218
        },
        "sourcePartCount": 1
      }
    },
    {
      "type": "Feature",
      "id": "BR-POA-SMF-69189",
      "geometry": {
        "type": "Polygon",
        "coordinates": [
          [
            [
              -51.1520347,
              -30.055994
            ],
            [
              -51.1519401,
              -30.056002
            ],
            [
              -51.1519351,
              -30.0559577
            ],
            [
              -51.1519294,
              -30.055906
            ],
            [
              -51.1519292,
              -30.0559047
            ],
            [
              -51.1519289,
              -30.0559021
            ],
            [
              -51.1519731,
              -30.0558996
            ],
            [
              -51.1520034,
              -30.0558978
            ],
            [
              -51.152022,
              -30.0558968
            ],
            [
              -51.1520345,
              -30.0559928
            ],
            [
              -51.1520347,
              -30.055994
            ]
          ]
        ]
      },
      "properties": {
        "parcelId": "BR-POA-SMF-69189",
        "id": "BR-POA-SMF-69189",
        "sourceId": "br-poa-smf-fiscal-parcels",
        "sourceParcelId": "69189",
        "parcelNumber": "69189",
        "cadMunicipalityName": null,
        "ownershipType": "unknown",
        "sourceProperties": {
          "objectid": 267056,
          "id_lotes": 69189,
          "setor": 21,
          "qtd": 218
        },
        "sourcePartCount": 1
      }
    },
    {
      "type": "Feature",
      "id": "BR-POA-SMF-69190",
      "geometry": {
        "type": "Polygon",
        "coordinates": [
          [
            [
              -51.152022,
              -30.0558968
            ],
            [
              -51.1520297,
              -30.0558963
            ],
            [
              -51.1521003,
              -30.0558922
            ],
            [
              -51.1521157,
              -30.0559043
            ],
            [
              -51.152171,
              -30.0559458
            ],
            [
              -51.1521761,
              -30.0559497
            ],
            [
              -51.1521524,
              -30.0559736
            ],
            [
              -51.1521342,
              -30.0559896
            ],
            [
              -51.1521227,
              -30.0559908
            ],
            [
              -51.1521221,
              -30.0559867
            ],
            [
              -51.1520347,
              -30.055994
            ],
            [
              -51.1520345,
              -30.0559928
            ],
            [
              -51.152022,
              -30.0558968
            ]
          ]
        ]
      },
      "properties": {
        "parcelId": "BR-POA-SMF-69190",
        "id": "BR-POA-SMF-69190",
        "sourceId": "br-poa-smf-fiscal-parcels",
        "sourceParcelId": "69190",
        "parcelNumber": "69190",
        "cadMunicipalityName": null,
        "ownershipType": "unknown",
        "sourceProperties": {
          "objectid": 267057,
          "id_lotes": 69190,
          "setor": 21,
          "qtd": 218
        },
        "sourcePartCount": 1
      }
    }
  ]
}
