{
  "type": "FeatureCollection",
  "features": [
    {
      "type": "Feature",
      "id": "US-CA-SANGIS-PARCEL-5151",
      "geometry": {
        "type": "Polygon",
        "coordinates": [
          [
            [
              -117.08703098488405,
              32.72778847740637,
              0
            ],
            [
              -117.08703233453933,
              32.72758754417431,
              0
            ],
            [
              -117.08670307762574,
              32.72749907771479,
              0
            ],
            [
              -117.08651076272089,
              32.727449754954435,
              0
            ],
            [
              -117.08603486471885,
              32.72732770489748,
              0
            ],
            [
              -117.08601932249695,
              32.727323668560764,
              0
            ],
            [
              -117.08600382816616,
              32.72731950745785,
              0
            ],
            [
              -117.08598838173512,
              32.72731522249048,
              0
            ],
            [
              -117.08597298534586,
              32.72731081454583,
              0
            ],
            [
              -117.08595763687359,
              32.727306284540084,
              0
            ],
            [
              -117.08595385371962,
              32.72730513341248,
              0
            ],
            [
              -117.08595386998732,
              32.72769655283012,
              0
            ],
            [
              -117.08595397204606,
              32.7277762557387,
              0
            ],
            [
              -117.08651392209224,
              32.7277826096243,
              0
            ],
            [
              -117.08703098488405,
              32.72778847740637,
              0
            ]
          ]
        ]
      },
      "properties": {
        "parcelId": "US-CA-SANGIS-PARCEL-5151",
        "id": "US-CA-SANGIS-PARCEL-5151",
        "sourceId": "us-ca-sangis-parcels-reference",
        "sourceParcelId": "5151",
        "parcelNumber": "5151",
        "cadMunicipalityName": null,
        "ownershipType": "unknown",
        "sourceProperties": {
          "OBJECTID": 18250,
          "PARCELID": 5151,
          "SUB_TYPE": 1
        }
      }
    },
    {
      "type": "Feature",
      "id": "US-CA-SANGIS-PARCEL-5152",
      "geometry": {
        "type": "Polygon",
        "coordinates": [
          [
            [
              -117.08697200523004,
              32.7280856220344,
              0
            ],
            [
              -117.0871281258997,
              32.728087121747095,
              0
            ],
            [
              -117.08713181931742,
              32.727789620948414,
              0
            ],
            [
              -117.08703098488405,
              32.72778847740637,
              0
            ],
            [
              -117.08651392209224,
              32.7277826096243,
              0
            ],
            [
              -117.08595397204606,
              32.7277762557387,
              0
            ],
            [
              -117.08595435584088,
              32.72807584521972,
              0
            ],
            [
              -117.0861137668441,
              32.728077378021524,
              0
            ],
            [
              -117.08626642749462,
              32.72807884727159,
              0
            ],
            [
              -117.08643234878006,
              32.72808043742119,
              0
            ],
            [
              -117.08651675674007,
              32.72808125100201,
              0
            ],
            [
              -117.0866013172382,
              32.72808206258871,
              0
            ],
            [
              -117.08676391618174,
              32.728083622524586,
              0
            ],
            [
              -117.08697200523004,
              32.7280856220344,
              0
            ]
          ]
        ]
      },
      "properties": {
        "parcelId": "US-CA-SANGIS-PARCEL-5152",
        "id": "US-CA-SANGIS-PARCEL-5152",
        "sourceId": "us-ca-sangis-parcels-reference",
        "sourceParcelId": "5152",
        "parcelNumber": "5152",
        "cadMunicipalityName": null,
        "ownershipType": "unknown",
        "sourceProperties": {
          "OBJECTID": 18251,
          "PARCELID": 5152,
          "SUB_TYPE": 1
        }
      }
    },
    {
      "type": "Feature",
      "id": "US-CA-SANGIS-PARCEL-156195",
      "geometry": {
        "type": "Polygon",
        "coordinates": [
          [
            [
              -117.08781153492176,
              32.72778839216232,
              0
            ],
            [
              -117.08808776588315,
              32.72778801345591,
              0
            ],
            [
              -117.08819876798715,
              32.727457797059444,
              0
            ],
            [
              -117.08819408084706,
              32.72745660795801,
              0
            ],
            [
              -117.08817855101285,
              32.72745254114926,
              0
            ],
            [
              -117.08816306904961,
              32.727448347770164,
              0
            ],
            [
              -117.08814763818343,
              32.72744403050399,
              0
            ],
            [
              -117.08813225092135,
              32.72743958669649,
              0
            ],
            [
              -117.08811691904056,
              32.72743502077629,
              0
            ],
            [
              -117.08810163721587,
              32.72743033368137,
              0
            ],
            [
              -117.08808640647126,
              32.727425520896105,
              0
            ],
            [
              -117.08807123220053,
              32.72742058869608,
              0
            ],
            [
              -117.08805611648577,
              32.72741553165657,
              0
            ],
            [
              -117.08804105403615,
              32.72741035432241,
              0
            ],
            [
              -117.08803229705254,
              32.727407261344965,
              0
            ],
            [
              -117.08779827744173,
              32.72777748823265,
              0
            ],
            [
              -117.08781153492176,
              32.72778839216232,
              0
            ]
          ]
        ]
      },
      "properties": {
        "parcelId": "US-CA-SANGIS-PARCEL-156195",
        "id": "US-CA-SANGIS-PARCEL-156195",
        "sourceId": "us-ca-sangis-parcels-reference",
        "sourceParcelId": "156195",
        "parcelNumber": "156195",
        "cadMunicipalityName": null,
        "ownershipType": "unknown",
        "sourceProperties": {
          "OBJECTID": 110952,
          "PARCELID": 156195,
          "SUB_TYPE": 1
        }
      }
    }
  ]
}
