{
  "type": "FeatureCollection",
  "features": [
    {
      "type": "Feature",
      "id": "US-TX-BEXAR-BCAD-2022-434663",
      "geometry": {
        "type": "Polygon",
        "coordinates": [
          [
            [
              -98.5442416891865,
              29.4633580037017
            ],
            [
              -98.5441126401893,
              29.4633446295664
            ],
            [
              -98.5440128281221,
              29.4633353464098
            ],
            [
              -98.5439453631074,
              29.4633290665873
            ],
            [
              -98.5439946597386,
              29.4629369183074
            ],
            [
              -98.5442079558984,
              29.4629573923814
            ],
            [
              -98.5442204911421,
              29.4629581501004
            ],
            [
              -98.5442329895056,
              29.4629588526383
            ],
            [
              -98.5443030454689,
              29.4629594769702
            ],
            [
              -98.5442531170104,
              29.4633591872255
            ],
            [
              -98.5442416891865,
              29.4633580037017
            ]
          ]
        ]
      },
      "properties": {
        "parcelId": "US-TX-BEXAR-BCAD-2022-434663",
        "id": "US-TX-BEXAR-BCAD-2022-434663",
        "sourceId": "us-tx-bexar-bcad-public-archive-2022-propid",
        "sourceParcelId": "434663",
        "parcelNumber": "434663",
        "cadMunicipalityName": null,
        "ownershipType": "unknown",
        "sourceProperties": {
          "OBJECTID": 324140,
          "Prop_ID": "434663"
        }
      }
    },
    {
      "type": "Feature",
      "id": "US-TX-BEXAR-BCAD-2022-434662",
      "geometry": {
        "type": "Polygon",
        "coordinates": [
          [
            [
              -98.5442531170104,
              29.4633591872255
            ],
            [
              -98.5443030454689,
              29.4629594769702
            ],
            [
              -98.5443154494901,
              29.4629614436074
            ],
            [
              -98.5443225828113,
              29.4629614951034
            ],
            [
              -98.5443296862252,
              29.4629615464967
            ],
            [
              -98.5443367878185,
              29.4629615437321
            ],
            [
              -98.5443508334676,
              29.4629614817064
            ],
            [
              -98.5443648496974,
              29.4629613103736
            ],
            [
              -98.544378900339,
              29.4629610543203
            ],
            [
              -98.5443929483748,
              29.4629606890517
            ],
            [
              -98.5444069690536,
              29.462960214483
            ],
            [
              -98.5444209560668,
              29.4629596576684
            ],
            [
              -98.5444350054413,
              29.4629589927634
            ],
            [
              -98.5444490243851,
              29.4629582140353
            ],
            [
              -98.544463012878,
              29.4629573259965
            ],
            [
              -98.5444770005733,
              29.4629563856074
            ],
            [
              -98.5444909919913,
              29.4629553044366
            ],
            [
              -98.5445049508998,
              29.4629541130456
            ],
            [
              -98.5445189152143,
              29.4629528657154
            ],
            [
              -98.5445328366741,
              29.4629515153499
            ],
            [
              -98.5445467979677,
              29.462950020716
            ],
            [
              -98.5445725462355,
              29.4629484887939
            ],
            [
              -98.5445345388039,
              29.463388806405
            ],
            [
              -98.5442531170104,
              29.4633591872255
            ]
          ]
        ]
      },
      "properties": {
        "parcelId": "US-TX-BEXAR-BCAD-2022-434662",
        "id": "US-TX-BEXAR-BCAD-2022-434662",
        "sourceId": "us-tx-bexar-bcad-public-archive-2022-propid",
        "sourceParcelId": "434662",
        "parcelNumber": "434662",
        "cadMunicipalityName": null,
        "ownershipType": "unknown",
        "sourceProperties": {
          "OBJECTID": 324150,
          "Prop_ID": "434662"
        }
      }
    },
    {
      "type": "Feature",
      "id": "US-TX-BEXAR-BCAD-2022-434660",
      "geometry": {
        "type": "Polygon",
        "coordinates": [
          [
            [
              -98.5447901646574,
              29.4629077831786
            ],
            [
              -98.5448303136933,
              29.4628973294085
            ],
            [
              -98.5448428984064,
              29.4628939365497
            ],
            [
              -98.5448554876146,
              29.4628904606733
            ],
            [
              -98.5448680079793,
              29.4628869277015
            ],
            [
              -98.5448805020252,
              29.4628832836286
            ],
            [
              -98.5448929634356,
              29.4628795573137
            ],
            [
              -98.5449054241683,
              29.4628757515735
            ],
            [
              -98.5449178254762,
              29.4628718580846
            ],
            [
              -98.5449301910424,
              29.4628678850505
            ],
            [
              -98.5449424972804,
              29.4628638026076
            ],
            [
              -98.5449548037752,
              29.4628596624032
            ],
            [
              -98.5449670497734,
              29.4628554434716
            ],
            [
              -98.5449792920201,
              29.4628511405916
            ],
            [
              -98.5450950315041,
              29.4633648497074
            ],
            [
              -98.5450459776341,
              29.4633797685697
            ],
            [
              -98.544996151426,
              29.4633925791952
            ],
            [
              -98.5449055405098,
              29.4634045653505
            ],
            [
              -98.5448140808404,
              29.4634096144829
            ],
            [
              -98.5447901646574,
              29.4629077831786
            ]
          ]
        ]
      },
      "properties": {
        "parcelId": "US-TX-BEXAR-BCAD-2022-434660",
        "id": "US-TX-BEXAR-BCAD-2022-434660",
        "sourceId": "us-tx-bexar-bcad-public-archive-2022-propid",
        "sourceParcelId": "434660",
        "parcelNumber": "434660",
        "cadMunicipalityName": null,
        "ownershipType": "unknown",
        "sourceProperties": {
          "OBJECTID": 324156,
          "Prop_ID": "434660"
        }
      }
    }
  ]
}
