{
  "type": "FeatureCollection",
  "name": "sao-goncalo-bounded-public-cadastral-samples",
  "features": [
    {
      "type": "Feature",
      "id": "BR-SG-CAD-1042513",
      "properties": {
        "parcelId": "BR-SG-CAD-1042513"
      },
      "geometry": {
        "type": "Polygon",
        "coordinates": [
          [
            [
              -43.02552989,
              -22.83564517
            ],
            [
              -43.02504616,
              -22.836352
            ],
            [
              -43.02517751,
              -22.83638675
            ],
            [
              -43.02572757,
              -22.83575939
            ],
            [
              -43.02552989,
              -22.83564517
            ]
          ]
        ]
      }
    },
    {
      "type": "Feature",
      "id": "BR-SG-CAD-1042514",
      "properties": {
        "parcelId": "BR-SG-CAD-1042514"
      },
      "geometry": {
        "type": "Polygon",
        "coordinates": [
          [
            [
              -43.02514511,
              -22.83542204
            ],
            [
              -43.02458355,
              -22.8362301
            ],
            [
              -43.02480837,
              -22.83628853
            ],
            [
              -43.02533382,
              -22.83553058
            ],
            [
              -43.02514511,
              -22.83542204
            ]
          ]
        ]
      }
    },
    {
      "type": "Feature",
      "id": "BR-SG-CAD-1042515",
      "properties": {
        "parcelId": "BR-SG-CAD-1042515"
      },
      "geometry": {
        "type": "Polygon",
        "coordinates": [
          [
            [
              -43.02533382,
              -22.83553058
            ],
            [
              -43.02480837,
              -22.83628853
            ],
            [
              -43.02504616,
              -22.836352
            ],
            [
              -43.02552989,
              -22.83564517
            ],
            [
              -43.02533382,
              -22.83553058
            ]
          ]
        ]
      }
    }
  ]
}
