{
  "type": "FeatureCollection",
  "features": [
    {
      "type": "Feature",
      "id": "BR-VIX-LOTE-24731~17736",
      "geometry": {
        "type": "Polygon",
        "coordinates": [
          [
            [
              -40.31171367539905,
              -20.31643825922344
            ],
            [
              -40.31159559410745,
              -20.316265149178964
            ],
            [
              -40.311389617992425,
              -20.31596389874955
            ],
            [
              -40.31141958183673,
              -20.315963329864623
            ],
            [
              -40.31151953401176,
              -20.315977070018192
            ],
            [
              -40.31161049626052,
              -20.315992069182304
            ],
            [
              -40.31180178969265,
              -20.3160202046501
            ],
            [
              -40.31192484687473,
              -20.31603965005578
            ],
            [
              -40.312237669611,
              -20.31608603660861
            ],
            [
              -40.31266642548654,
              -20.31615630358886
            ],
            [
              -40.313277038582285,
              -20.31624327227823
            ],
            [
              -40.313443511857486,
              -20.316267926065766
            ],
            [
              -40.31344191899875,
              -20.31628765141283
            ],
            [
              -40.31339881738694,
              -20.31663677466819
            ],
            [
              -40.31339272879547,
              -20.316686094824814
            ],
            [
              -40.31335856310194,
              -20.316715689279395
            ],
            [
              -40.313087965052915,
              -20.316727043827758
            ],
            [
              -40.313057034559755,
              -20.316731109405595
            ],
            [
              -40.312768457314675,
              -20.31676903805873
            ],
            [
              -40.31256975367647,
              -20.316807984848346
            ],
            [
              -40.31248314405605,
              -20.316834368836666
            ],
            [
              -40.31234275807699,
              -20.316869420210562
            ],
            [
              -40.31219341751498,
              -20.31691993443671
            ],
            [
              -40.312145783373325,
              -20.31693785046948
            ],
            [
              -40.312092910935434,
              -20.31695899679205
            ],
            [
              -40.312078681397544,
              -20.316963677737554
            ],
            [
              -40.31205431404892,
              -20.316978876870706
            ],
            [
              -40.31171367539905,
              -20.31643825922344
            ]
          ]
        ]
      },
      "properties": {
        "parcelId": "BR-VIX-LOTE-24731~17736",
        "id": "BR-VIX-LOTE-24731~17736",
        "sourceId": "br-vitoria-lotes",
        "sourceParcelId": "24731~17736",
        "parcelNumber": "24731~17736",
        "cadMunicipalityName": null,
        "ownershipType": "unknown",
        "sourceProperties": {
          "OBJECTID": 23644,
          "codGeo": "24731",
          "codLote": 17736,
          "codGeoPoligono": 0
        }
      }
    },
    {
      "type": "Feature",
      "id": "BR-VIX-LOTE-44208~17729",
      "geometry": {
        "type": "Polygon",
        "coordinates": [
          [
            [
              -40.31321164903642,
              -20.315551421220313
            ],
            [
              -40.313230304776766,
              -20.31542083668541
            ],
            [
              -40.31324473390857,
              -20.31532439202072
            ],
            [
              -40.313254349886805,
              -20.315266233981124
            ],
            [
              -40.313317640644925,
              -20.315276211741693
            ],
            [
              -40.31324197461995,
              -20.31559600942319
            ],
            [
              -40.3132049485735,
              -20.315774207547808
            ],
            [
              -40.31319724937869,
              -20.315805402032893
            ],
            [
              -40.31319040121083,
              -20.315833147059077
            ],
            [
              -40.313152643235014,
              -20.315986128009076
            ],
            [
              -40.313142806762116,
              -20.316040180596598
            ],
            [
              -40.313143228574305,
              -20.316050787605114
            ],
            [
              -40.31297806998156,
              -20.316024369142482
            ],
            [
              -40.31299403551438,
              -20.315956426007062
            ],
            [
              -40.313019853652065,
              -20.315846557248882
            ],
            [
              -40.3130282598028,
              -20.315806636413633
            ],
            [
              -40.31306815779819,
              -20.31561714885922
            ],
            [
              -40.313074509200774,
              -20.315576152978213
            ],
            [
              -40.31320564178283,
              -20.315593473373543
            ],
            [
              -40.31321164903642,
              -20.315551421220313
            ]
          ]
        ]
      },
      "properties": {
        "parcelId": "BR-VIX-LOTE-44208~17729",
        "id": "BR-VIX-LOTE-44208~17729",
        "sourceId": "br-vitoria-lotes",
        "sourceParcelId": "44208~17729",
        "parcelNumber": "44208~17729",
        "cadMunicipalityName": null,
        "ownershipType": "unknown",
        "sourceProperties": {
          "OBJECTID": 42271,
          "codGeo": "44208",
          "codLote": 17729,
          "codGeoPoligono": 0
        }
      }
    },
    {
      "type": "Feature",
      "id": "BR-VIX-LOTE-44812~56821",
      "geometry": {
        "type": "Polygon",
        "coordinates": [
          [
            [
              -40.31369010076751,
              -20.31631030814527
            ],
            [
              -40.313738365983376,
              -20.31578920954623
            ],
            [
              -40.31440445018682,
              -20.315927643987596
            ],
            [
              -40.31438851007839,
              -20.316027556681554
            ],
            [
              -40.31435242006207,
              -20.31635931990237
            ],
            [
              -40.31369010076751,
              -20.31631030814527
            ]
          ]
        ]
      },
      "properties": {
        "parcelId": "BR-VIX-LOTE-44812~56821",
        "id": "BR-VIX-LOTE-44812~56821",
        "sourceId": "br-vitoria-lotes",
        "sourceParcelId": "44812~56821",
        "parcelNumber": "44812~56821",
        "cadMunicipalityName": null,
        "ownershipType": "unknown",
        "sourceProperties": {
          "OBJECTID": 42854,
          "codGeo": "44812",
          "codLote": 56821,
          "codGeoPoligono": 0
        }
      }
    }
  ]
}
