{
  "type": "FeatureCollection",
  "features": [
    {"type": "Feature", "geometry": {"type": "Polygon", "coordinates": [[[27.98011,41.31037],[27.98001,41.31029],[27.98001,41.31007],[27.97998,41.30987],[27.97996,41.30974],[27.9799,41.30956],[27.97982,41.30942],[27.97977,41.30935],[27.98047,41.30888],[27.98101,41.30853],[27.98105,41.3085],[27.98091,41.30839],[27.98148,41.30798],[27.98206,41.30756],[27.98284,41.30812],[27.98297,41.30802],[27.98406,41.30714],[27.98443,41.3074],[27.98486,41.30771],[27.98487,41.30786],[27.9845,41.30814],[27.98416,41.30839],[27.98383,41.30863],[27.98373,41.30871],[27.98339,41.30886],[27.98287,41.30908],[27.98256,41.30922],[27.98203,41.30952],[27.98148,41.30985],[27.98112,41.31006],[27.98065,41.31034],[27.9806,41.31035],[27.98011,41.31037]]]}, "properties": {"id": "164700/938/19"}},
    {"type": "Feature", "geometry": {"type": "Polygon", "coordinates": [[[27.98206,41.30756],[27.98219,41.30747],[27.98222,41.30749],[27.98239,41.30737],[27.98236,41.30734],[27.98334,41.30664],[27.98348,41.30673],[27.98406,41.30714],[27.98297,41.30802],[27.98284,41.30812],[27.98206,41.30756]]]}, "properties": {"id": "164700/938/21"}}
  ]
}
