{
  "type": "FeatureCollection",
  "name": "oak-ridge-parcel-samples",
  "crs": {"type": "name", "properties": {"name": "urn:ogc:def:crs:OGC:1.3:CRS84"}},
  "features": [
    {"type": "Feature", "properties": {"id": "292231000000015"}, "geometry": {"type": "Polygon", "coordinates": [[[-81.44685337166453,28.535131612459246],[-81.44685269090893,28.534828567774998],[-81.44728858807338,28.534819607449545],[-81.44729574687032,28.534696005313986],[-81.44751771525175,28.534691616043176],[-81.44751657492368,28.534921841866893],[-81.44816634382475,28.53490638897168],[-81.4481654740491,28.535077064215525],[-81.44805831082374,28.53510458712967],[-81.44685337166453,28.535131612459246]]]}},
    {"type": "Feature", "properties": {"id": "292231000000012"}, "geometry": {"type": "Polygon", "coordinates": [[[-81.44816634382475,28.53490638897168],[-81.44751657492368,28.534921841866893],[-81.44751771525175,28.534691616043176],[-81.44751941902994,28.534347831138305],[-81.4481692577412,28.534334978558785],[-81.44816634382475,28.53490638897168]]]}},
    {"type": "Feature", "properties": {"id": "292231000000008"}, "geometry": {"type": "Polygon", "coordinates": [[[-81.44685269090893,28.534828567774998],[-81.44685164115754,28.534361033793193],[-81.44705238005277,28.53435706523902],[-81.44705067475884,28.534700850154543],[-81.44720635527534,28.534697772294635],[-81.44729574687032,28.534696005313986],[-81.44728858807338,28.534819607449545],[-81.44685269090893,28.534828567774998]]]}}
  ]
}
