{
  "type": "FeatureCollection",
  "features": [
    {"type":"Feature","properties":{"id":"53834"},"geometry":{"type":"Polygon","coordinates":[[[-76.939780855044347,17.994922969293892],[-76.939495056862739,17.994959407079921],[-76.939429989382887,17.994513174645878],[-76.939719850778417,17.994479441499429],[-76.939780855044347,17.994922969293892]]]}},
    {"type":"Feature","properties":{"id":"76043"},"geometry":{"type":"Polygon","coordinates":[[[-76.939495056862739,17.994959407079921],[-76.939213159291,17.994995346030858],[-76.939144887848371,17.994546353199279],[-76.939429989382887,17.994513174645878],[-76.939495056862739,17.994959407079921]]]}},
    {"type":"Feature","properties":{"id":"76373"},"geometry":{"type":"Polygon","coordinates":[[[-76.939408238984257,17.994376228414868],[-76.939123369170147,17.994411656731899],[-76.939058753222525,17.993965400798896],[-76.939343520706132,17.993928955198967],[-76.939408238984257,17.994376228414868]]]}}
  ]
}
