{
  "type": "FeatureCollection",
  "features": [
    {
      "type": "Feature",
      "geometry": {
        "type": "Polygon",
        "coordinates": [
          [
            [
              139.884698946610484,
              36.551546514683857
            ],
            [
              139.885154524742518,
              36.551573318732409
            ],
            [
              139.885167725862289,
              36.55143615320177
            ],
            [
              139.885117098854721,
              36.55143155183444
            ],
            [
              139.885036870483333,
              36.551426954271932
            ],
            [
              139.884962373019789,
              36.55142313825354
            ],
            [
              139.884908887447637,
              36.551420070144324
            ],
            [
              139.884818157979197,
              36.551413944867285
            ],
            [
              139.884747481296756,
              36.551410893119325
            ],
            [
              139.884713175353539,
              36.551408068998427
            ],
            [
              139.884698946610484,
              36.551546514683857
            ]
          ]
        ]
      },
      "properties": {
        "id": "18200331"
      }
    },
    {
      "type": "Feature",
      "geometry": {
        "type": "Polygon",
        "coordinates": [
          [
            [
              139.885038761468536,
              36.551381449817974
            ],
            [
              139.885036870483333,
              36.551426954271932
            ],
            [
              139.885117098854721,
              36.55143155183444
            ],
            [
              139.88511990274273,
              36.551331296620553
            ],
            [
              139.885037765894367,
              36.551329016075556
            ],
            [
              139.885038761468536,
              36.551381449817974
            ]
          ]
        ]
      },
      "properties": {
        "id": "18200342"
      }
    },
    {
      "type": "Feature",
      "geometry": {
        "type": "Polygon",
        "coordinates": [
          [
            [
              139.884908887447637,
              36.551420070144324
            ],
            [
              139.884962373019789,
              36.55142313825354
            ],
            [
              139.884962343784764,
              36.551379184765814
            ],
            [
              139.885038761468536,
              36.551381449817974
            ],
            [
              139.885037765894367,
              36.551329016075556
            ],
            [
              139.885035804912576,
              36.551235891740603
            ],
            [
              139.884918326368364,
              36.551235167553074
            ],
            [
              139.884911723902178,
              36.551351610687028
            ],
            [
              139.884908887447637,
              36.551420070144324
            ]
          ]
        ]
      },
      "properties": {
        "id": "18200340"
      }
    }
  ]
}
