{
  "type": "FeatureCollection",
  "features": [
    {
      "type": "Feature",
      "properties": {"id": "6911537"},
      "geometry": {
        "type": "Polygon",
        "coordinates": [[[74.125471835149639,32.435456958107466],[74.125474834624384,32.435184776784013],[74.124761610916352,32.435179121541985],[74.124755607475308,32.435723486433993],[74.124933914076053,32.435724899667349],[74.125112220676797,32.435726313658925],[74.125468835674909,32.435729140125567],[74.125471835149639,32.435456958107466]]]
      }
    }
  ]
}
