{
  "name": "Borongajska–Čavićeva – aktualno DGU stanje unutar obuhvata iz 2022.",
  "type": "FeatureCollection",
  "context": {
    "note": "Current legal building footprints are context only and may lag construction; the proposal geometry comes from the accepted permit.",
    "schema": "consensus-builder.reconstruction-context.v1",
    "capturedAt": "2026-08-13T00:00:00.000Z",
    "plannedGeometry": "proposal.geojson"
  },
  "features": [
    {
      "type": "Feature",
      "geometry": {
        "type": "Polygon",
        "coordinates": [
          [
            [
              16.03283431,
              45.80551889
            ],
            [
              16.03381063,
              45.80564948
            ],
            [
              16.0338326,
              45.80565245
            ],
            [
              16.0338398,
              45.80565338
            ],
            [
              16.03477036,
              45.805779
            ],
            [
              16.03484078,
              45.80578847
            ],
            [
              16.03496865,
              45.80580572
            ],
            [
              16.0350856,
              45.80582159
            ],
            [
              16.03626053,
              45.80589466
            ],
            [
              16.03626235,
              45.80589304
            ],
            [
              16.03626624,
              45.80587353
            ],
            [
              16.03628931,
              45.80575935
            ],
            [
              16.03629355,
              45.80572914
            ],
            [
              16.03629705,
              45.80564889
            ],
            [
              16.03628285,
              45.80556137
            ],
            [
              16.03627166,
              45.80552983
            ],
            [
              16.03624941,
              45.8054673
            ],
            [
              16.03623074,
              45.80542268
            ],
            [
              16.03616532,
              45.80532101
            ],
            [
              16.03611334,
              45.80525952
            ],
            [
              16.0360485,
              45.8051978
            ],
            [
              16.03590661,
              45.80508718
            ],
            [
              16.03589165,
              45.80507551
            ],
            [
              16.03546826,
              45.80474951
            ],
            [
              16.03534616,
              45.80465678
            ],
            [
              16.03515196,
              45.80450923
            ],
            [
              16.03490509,
              45.80447692
            ],
            [
              16.03460246,
              45.80443483
            ],
            [
              16.03458262,
              45.8044227
            ],
            [
              16.03438878,
              45.80427893
            ],
            [
              16.03440193,
              45.80422904
            ],
            [
              16.03444471,
              45.80406644
            ],
            [
              16.03446809,
              45.80397755
            ],
            [
              16.03439122,
              45.80403149
            ],
            [
              16.03423193,
              45.80414179
            ],
            [
              16.03418871,
              45.80417167
            ],
            [
              16.03415403,
              45.80419573
            ],
            [
              16.03398582,
              45.80431094
            ],
            [
              16.03380698,
              45.80443672
            ],
            [
              16.03380193,
              45.80444012
            ],
            [
              16.03346267,
              45.8043941
            ],
            [
              16.03310876,
              45.80434605
            ],
            [
              16.03304729,
              45.804573
            ],
            [
              16.0330113,
              45.8046927
            ],
            [
              16.03301606,
              45.80486143
            ],
            [
              16.03296231,
              45.8050589
            ],
            [
              16.03291426,
              45.80523578
            ],
            [
              16.0328913,
              45.80531991
            ],
            [
              16.03288904,
              45.80532854
            ],
            [
              16.03287708,
              45.80537357
            ],
            [
              16.0328646,
              45.80542049
            ],
            [
              16.0328568,
              45.80544565
            ],
            [
              16.03283431,
              45.80551889
            ]
          ]
        ]
      },
      "properties": {
        "id": "permit-area-P20221230-1037184-Z02",
        "areaM2": 33741.52260767191,
        "source": "accepted 2022 location-permit area polygon",
        "broj_cestice": "2692/7",
        "context:role": "accepted-2022-permit-area",
        "sourceCaseId": "P20221230-1037184-Z02",
        "parentParcelId": "HR-335533-2692/7",
        "maticni_broj_ko": 335533,
        "sourceFeatureId": "eDozvola_area_polygon.90641"
      }
    },
    {
      "type": "Feature",
      "geometry": {
        "type": "MultiPolygon",
        "coordinates": [
          [
            [
              [
                16.035453476,
                45.805815754
              ],
              [
                16.035162393,
                45.805776598
              ],
              [
                16.035218115,
                45.805573921
              ],
              [
                16.03527903,
                45.805582087
              ],
              [
                16.035507654,
                45.80561289
              ],
              [
                16.035509196,
                45.805613076
              ],
              [
                16.035453476,
                45.805815754
              ]
            ]
          ]
        ]
      },
      "properties": {
        "source": "DGU katastar, aktualna zgrada",
        "context:role": "current-dgu-building",
        "dguBuildingId": 14201898,
        "dguBuildingType": "ZGRADA MJEŠOVITE UPORABE",
        "footprintAreaM2": 528.4956000001345,
        "dguBuildingNumber": "21949"
      }
    },
    {
      "type": "Feature",
      "geometry": {
        "type": "MultiPolygon",
        "coordinates": [
          [
            [
              [
                16.034276371,
                45.804212654
              ],
              [
                16.034362977,
                45.804225424
              ],
              [
                16.034348821,
                45.804272156
              ],
              [
                16.034262215,
                45.804259386
              ],
              [
                16.034276371,
                45.804212654
              ]
            ]
          ]
        ]
      },
      "properties": {
        "source": "DGU katastar, aktualna zgrada",
        "context:role": "current-dgu-building",
        "dguBuildingId": 14201899,
        "dguBuildingType": "TRAFOSTANICA",
        "footprintAreaM2": 36.52460000120823,
        "dguBuildingNumber": "21950"
      }
    },
    {
      "type": "Feature",
      "geometry": {
        "type": "MultiPolygon",
        "coordinates": [
          [
            [
              [
                16.035452328,
                45.805814489
              ],
              [
                16.035164201,
                45.805775796
              ],
              [
                16.035219391,
                45.805575186
              ],
              [
                16.035278764,
                45.805583166
              ],
              [
                16.03527903,
                45.805582087
              ],
              [
                16.035325992,
                45.805411587
              ],
              [
                16.035434253,
                45.805017286
              ],
              [
                16.035673027,
                45.80504948
              ],
              [
                16.035654321,
                45.805117608
              ],
              [
                16.035655863,
                45.805117795
              ],
              [
                16.035866108,
                45.805146093
              ],
              [
                16.035867832,
                45.805139891
              ],
              [
                16.035952264,
                45.805151301
              ],
              [
                16.03595054,
                45.805157503
              ],
              [
                16.035978428,
                45.805161216
              ],
              [
                16.035966222,
                45.805205706
              ],
              [
                16.036047056,
                45.805216562
              ],
              [
                16.036016017,
                45.805329
              ],
              [
                16.036015751,
                45.805330079
              ],
              [
                16.036096072,
                45.805340843
              ],
              [
                16.036049904,
                45.805508917
              ],
              [
                16.036022311,
                45.805609222
              ],
              [
                16.035942376,
                45.80559846
              ],
              [
                16.035936952,
                45.805616434
              ],
              [
                16.035925845,
                45.805636994
              ],
              [
                16.035910515,
                45.805654928
              ],
              [
                16.035887075,
                45.805673368
              ],
              [
                16.035848709,
                45.805692018
              ],
              [
                16.035824205,
                45.805699117
              ],
              [
                16.035790582,
                45.805704379
              ],
              [
                16.035736043,
                45.805702988
              ],
              [
                16.035684948,
                45.805689733
              ],
              [
                16.035642684,
                45.805666527
              ],
              [
                16.035614869,
                45.80563852
              ],
              [
                16.035603332,
                45.805617958
              ],
              [
                16.03559758,
                45.805597959
              ],
              [
                16.035514818,
                45.805586825
              ],
              [
                16.035507654,
                45.80561289
              ],
              [
                16.035452328,
                45.805814489
              ]
            ]
          ]
        ]
      },
      "properties": {
        "source": "DGU katastar, aktualna zgrada",
        "context:role": "current-dgu-building",
        "dguBuildingId": 14201900,
        "dguBuildingType": "PODZEMNA GARAŽA",
        "footprintAreaM2": 3772.088950006436,
        "dguBuildingNumber": "21951"
      }
    },
    {
      "type": "Feature",
      "geometry": {
        "type": "MultiPolygon",
        "coordinates": [
          [
            [
              [
                16.035325992,
                45.805411587
              ],
              [
                16.03532445,
                45.8054114
              ],
              [
                16.035433106,
                45.805016022
              ],
              [
                16.035674836,
                45.805048587
              ],
              [
                16.035655863,
                45.805117795
              ],
              [
                16.035612745,
                45.805274814
              ],
              [
                16.036016017,
                45.805329
              ],
              [
                16.03609788,
                45.80534004
              ],
              [
                16.036051318,
                45.805509103
              ],
              [
                16.036049904,
                45.805508917
              ],
              [
                16.035325992,
                45.805411587
              ]
            ]
          ]
        ]
      },
      "properties": {
        "source": "DGU katastar, aktualna zgrada",
        "context:role": "current-dgu-building",
        "dguBuildingId": 14201901,
        "dguBuildingType": "ZGRADA MJEŠOVITE UPORABE",
        "footprintAreaM2": 1591.0687999907996,
        "dguBuildingNumber": "21952"
      }
    }
  ]
}
