{
  "type": "FeatureCollection",
  "name": "Novi Jelkovec – rekonstrukcija naselja – javni park JP 2",
  "bbox": [
    16.107155764,
    45.809868728,
    16.110312161,
    45.812726685
  ],
  "reconstruction": {
    "schema": "consensus-builder.structure-reconstruction.v1",
    "proposal": {
      "proposalId": "reconstruction-novi-jelkovec-park-jp-3648",
      "city": "zagreb",
      "name": "Novi Jelkovec – rekonstrukcija naselja – javni park JP 2",
      "title": "Novi Jelkovec – rekonstrukcija naselja – javni park JP 2",
      "description": "Javni park JP (47835 m²) iz službenoga kartografskog prikaza plana. Arhivski je referentni sloj i pri primjeni ne simulira novu parcelaciju ni prijenos vlasništva.",
      "author": "zagreb.lol – lokalna analiza",
      "type": "structure",
      "goal": "park",
      "primaryType": "Park",
      "lifecycleStatus": "Active",
      "createdAt": "2026-08-14T00:01:00.000Z",
      "updatedAt": "2026-08-14T00:01:00.000Z",
      "tags": [
        "park",
        "research",
        "reconstruction",
        "neighbourhood-plan",
        "official-plan-footprint",
        "reference-overlay"
      ],
      "parentParcelIds": [
        "HR-338796-3661/5",
        "HR-338796-3661/63",
        "HR-338796-3661/66",
        "HR-338796-3661/75",
        "HR-338796-3661/90",
        "HR-338796-3661/97",
        "HR-338796-3661/1",
        "HR-338796-3661/79",
        "HR-338796-3661/81",
        "HR-338796-3661/80",
        "HR-338796-3661/94",
        "HR-338796-3661/67",
        "HR-338796-3661/95",
        "HR-338796-3661/70",
        "HR-338796-3661/68",
        "HR-338796-3661/136",
        "HR-338796-3661/69",
        "HR-338796-3661/84",
        "HR-338796-3661/83",
        "HR-338796-3661/85",
        "HR-338796-3661/82",
        "HR-338796-3661/64",
        "HR-338796-3661/78",
        "HR-338796-3661/65",
        "HR-338796-3661/76",
        "HR-338796-3661/93",
        "HR-338796-3661/73",
        "HR-338796-3661/91",
        "HR-338796-3661/88",
        "HR-338796-3661/71",
        "HR-338796-3661/92",
        "HR-338796-3661/77",
        "HR-338796-3661/86",
        "HR-338796-3661/96"
      ],
      "cadastreParcelIds": [
        "HR-338796-3661/5",
        "HR-338796-3661/63",
        "HR-338796-3661/66",
        "HR-338796-3661/75",
        "HR-338796-3661/90",
        "HR-338796-3661/97",
        "HR-338796-3661/1",
        "HR-338796-3661/79",
        "HR-338796-3661/81",
        "HR-338796-3661/80",
        "HR-338796-3661/94",
        "HR-338796-3661/67",
        "HR-338796-3661/95",
        "HR-338796-3661/70",
        "HR-338796-3661/68",
        "HR-338796-3661/136",
        "HR-338796-3661/69",
        "HR-338796-3661/84",
        "HR-338796-3661/83",
        "HR-338796-3661/85",
        "HR-338796-3661/82",
        "HR-338796-3661/64",
        "HR-338796-3661/78",
        "HR-338796-3661/65",
        "HR-338796-3661/76",
        "HR-338796-3661/93",
        "HR-338796-3661/73",
        "HR-338796-3661/91",
        "HR-338796-3661/88",
        "HR-338796-3661/71",
        "HR-338796-3661/92",
        "HR-338796-3661/77",
        "HR-338796-3661/86",
        "HR-338796-3661/96"
      ],
      "parcelIds": [
        "HR-338796-3661/5",
        "HR-338796-3661/63",
        "HR-338796-3661/66",
        "HR-338796-3661/75",
        "HR-338796-3661/90",
        "HR-338796-3661/97",
        "HR-338796-3661/1",
        "HR-338796-3661/79",
        "HR-338796-3661/81",
        "HR-338796-3661/80",
        "HR-338796-3661/94",
        "HR-338796-3661/67",
        "HR-338796-3661/95",
        "HR-338796-3661/70",
        "HR-338796-3661/68",
        "HR-338796-3661/136",
        "HR-338796-3661/69",
        "HR-338796-3661/84",
        "HR-338796-3661/83",
        "HR-338796-3661/85",
        "HR-338796-3661/82",
        "HR-338796-3661/64",
        "HR-338796-3661/78",
        "HR-338796-3661/65",
        "HR-338796-3661/76",
        "HR-338796-3661/93",
        "HR-338796-3661/73",
        "HR-338796-3661/91",
        "HR-338796-3661/88",
        "HR-338796-3661/71",
        "HR-338796-3661/92",
        "HR-338796-3661/77",
        "HR-338796-3661/86",
        "HR-338796-3661/96"
      ],
      "acceptedParcelIds": [],
      "bounds": [
        16.107155764,
        45.809868728,
        16.110312161,
        45.812726685
      ],
      "source": {
        "planName": "DPU stambenog naselja na lokaciji Sopnica - Jelkovec",
        "planYears": "DPU 2003.; izmjene 2007., 2016. i 2020.",
        "implementationStatus": "izvedeno u cijelosti prema službenoj ocjeni realizacije plana",
        "sources": [
          "https://zagreb.hr/izmjene-i-dopune-detaljnog-plana-uredjenja-stamben/168074",
          "https://www.zagreb.hr/userdocsimages/arhiva/prostorni_planovi/dpu%20sopnica%20jelkovec/s-j_graficki%20dio_I%20%2820210120%29.pdf",
          "https://data.zagreb.hr/dataset/geoportal-urbanisticki-planovi-uredenja"
        ],
        "coordinateSystem": "lokalni izvori u HTRS96/TM (EPSG:3765), izvoz za aplikaciju u WGS84",
        "geometryBasis": "Grad Zagreb – službena planirana namjena površina",
        "officialLandUseObjectId": 3648,
        "officialLandUseCode": "JP",
        "officialLandUseName": "Javni park",
        "officialLandUseGroup": "Javne zelene površine",
        "areaM2": 47834.9001004276,
        "applicationSemantics": "referenceOnly: prikaz bez nove parcelacije ili prijenosa vlasništva"
      }
    },
    "structureProposal": {
      "kind": "park",
      "blockName": "Novi Jelkovec – rekonstrukcija naselja – JP 2",
      "parentParcelIds": [
        "HR-338796-3661/5",
        "HR-338796-3661/63",
        "HR-338796-3661/66",
        "HR-338796-3661/75",
        "HR-338796-3661/90",
        "HR-338796-3661/97",
        "HR-338796-3661/1",
        "HR-338796-3661/79",
        "HR-338796-3661/81",
        "HR-338796-3661/80",
        "HR-338796-3661/94",
        "HR-338796-3661/67",
        "HR-338796-3661/95",
        "HR-338796-3661/70",
        "HR-338796-3661/68",
        "HR-338796-3661/136",
        "HR-338796-3661/69",
        "HR-338796-3661/84",
        "HR-338796-3661/83",
        "HR-338796-3661/85",
        "HR-338796-3661/82",
        "HR-338796-3661/64",
        "HR-338796-3661/78",
        "HR-338796-3661/65",
        "HR-338796-3661/76",
        "HR-338796-3661/93",
        "HR-338796-3661/73",
        "HR-338796-3661/91",
        "HR-338796-3661/88",
        "HR-338796-3661/71",
        "HR-338796-3661/92",
        "HR-338796-3661/77",
        "HR-338796-3661/86",
        "HR-338796-3661/96"
      ],
      "referenceOnly": true,
      "applied": false
    }
  },
  "features": [
    {
      "type": "Feature",
      "properties": {
        "id": "plan-site:novi-jelkovec",
        "name": "DPU stambenog naselja na lokaciji Sopnica - Jelkovec",
        "source": "Grad Zagreb – planirana namjena površina",
        "areaM2": 395338.6653480422,
        "featureCount": 133,
        "consensus:role": "site"
      },
      "geometry": {
        "type": "Polygon",
        "coordinates": [
          [
            [
              16.101324711,
              45.809677933
            ],
            [
              16.101310359,
              45.809662665
            ],
            [
              16.101297945,
              45.809646588
            ],
            [
              16.101287563,
              45.809629822
            ],
            [
              16.101279289,
              45.809612491
            ],
            [
              16.101273186,
              45.809594725
            ],
            [
              16.101269565,
              45.8095779
            ],
            [
              16.100965888,
              45.809580831
            ],
            [
              16.101184376,
              45.811015374
            ],
            [
              16.101370947,
              45.812240298
            ],
            [
              16.101432987,
              45.812670448
            ],
            [
              16.101442371,
              45.812728628
            ],
            [
              16.101442778,
              45.812731343
            ],
            [
              16.101442241,
              45.812732601
            ],
            [
              16.10144099,
              45.812734806
            ],
            [
              16.101439469,
              45.812736927
            ],
            [
              16.101437685,
              45.812738945
            ],
            [
              16.101435654,
              45.812740847
            ],
            [
              16.101433393,
              45.812742616
            ],
            [
              16.101430919,
              45.81274424
            ],
            [
              16.10142825,
              45.812745705
            ],
            [
              16.101425407,
              45.812747001
            ],
            [
              16.101422413,
              45.812748117
            ],
            [
              16.10141929,
              45.812749044
            ],
            [
              16.101416061,
              45.812749777
            ],
            [
              16.101412755,
              45.812750308
            ],
            [
              16.101409394,
              45.812750635
            ],
            [
              16.101406005,
              45.812750754
            ],
            [
              16.101405304,
              45.812750779
            ],
            [
              16.101322386,
              45.812753756
            ],
            [
              16.101323075,
              45.812788656
            ],
            [
              16.101327663,
              45.813020996
            ],
            [
              16.101440602,
              45.813020531
            ],
            [
              16.101454857,
              45.813020473
            ],
            [
              16.101458191,
              45.81302056
            ],
            [
              16.101461504,
              45.813020849
            ],
            [
              16.101464768,
              45.813021336
            ],
            [
              16.101467959,
              45.813022019
            ],
            [
              16.101471054,
              45.813022892
            ],
            [
              16.10147403,
              45.81302395
            ],
            [
              16.101476864,
              45.813025183
            ],
            [
              16.101479535,
              45.813026582
            ],
            [
              16.101482023,
              45.813028138
            ],
            [
              16.10148431,
              45.813029837
            ],
            [
              16.101486378,
              45.813031669
            ],
            [
              16.101488212,
              45.813033619
            ],
            [
              16.101489799,
              45.813035673
            ],
            [
              16.101491125,
              45.813037814
            ],
            [
              16.101492182,
              45.813040028
            ],
            [
              16.101492962,
              45.813042298
            ],
            [
              16.101493458,
              45.813044606
            ],
            [
              16.101498886,
              45.813080227
            ],
            [
              16.101516717,
              45.813197253
            ],
            [
              16.10153169,
              45.813197108
            ],
            [
              16.101557262,
              45.813196861
            ],
            [
              16.101904321,
              45.813193509
            ],
            [
              16.101895381,
              45.81313486
            ],
            [
              16.10191106,
              45.813135383
            ],
            [
              16.101915364,
              45.813135924
            ],
            [
              16.10191479,
              45.813126549
            ],
            [
              16.101915382,
              45.813117177
            ],
            [
              16.101917135,
              45.813107874
            ],
            [
              16.101920036,
              45.813098714
            ],
            [
              16.101924064,
              45.813089763
            ],
            [
              16.101929188,
              45.813081092
            ],
            [
              16.101935369,
              45.813072764
            ],
            [
              16.101942561,
              45.813064843
            ],
            [
              16.101950709,
              45.813057389
            ],
            [
              16.101959752,
              45.813050457
            ],
            [
              16.10196962,
              45.8130441
            ],
            [
              16.101980242,
              45.813038366
            ],
            [
              16.101991534,
              45.813033299
            ],
            [
              16.102003413,
              45.813028936
            ],
            [
              16.102015789,
              45.813025312
            ],
            [
              16.102028569,
              45.813022452
            ],
            [
              16.102041654,
              45.813020379
            ],
            [
              16.102054948,
              45.813019108
            ],
            [
              16.102055668,
              45.813019084
            ],
            [
              16.10206835,
              45.813018649
            ],
            [
              16.102219105,
              45.813018071
            ],
            [
              16.102281128,
              45.813017837
            ],
            [
              16.102555219,
              45.813016593
            ],
            [
              16.102668501,
              45.81301608
            ],
            [
              16.103179041,
              45.813013761
            ],
            [
              16.104037746,
              45.813010568
            ],
            [
              16.104133974,
              45.81301021
            ],
            [
              16.104133939,
              45.813009504
            ],
            [
              16.106849698,
              45.812998349
            ],
            [
              16.106853397,
              45.813000865
            ],
            [
              16.106884934,
              45.813000747
            ],
            [
              16.107031754,
              45.813000172
            ],
            [
              16.107094163,
              45.812999937
            ],
            [
              16.107152509,
              45.81299972
            ],
            [
              16.107314533,
              45.812999118
            ],
            [
              16.108050361,
              45.812996382
            ],
            [
              16.108366906,
              45.812995218
            ],
            [
              16.108838509,
              45.812993144
            ],
            [
              16.109526421,
              45.812989919
            ],
            [
              16.110127089,
              45.812987021
            ],
            [
              16.110425959,
              45.812985616
            ],
            [
              16.110579005,
              45.812984896
            ],
            [
              16.110859266,
              45.812983578
            ],
            [
              16.110880455,
              45.812983477
            ],
            [
              16.110903403,
              45.812983368
            ],
            [
              16.111095175,
              45.812982506
            ],
            [
              16.111387231,
              45.812981056
            ],
            [
              16.111561847,
              45.8129803
            ],
            [
              16.112007072,
              45.812978124
            ],
            [
              16.112210511,
              45.812977195
            ],
            [
              16.112373032,
              45.812976396
            ],
            [
              16.112759194,
              45.812974556
            ],
            [
              16.113332582,
              45.812971819
            ],
            [
              16.113600876,
              45.812970477
            ],
            [
              16.113815905,
              45.812969441
            ],
            [
              16.113853213,
              45.812969261
            ],
            [
              16.114054593,
              45.812968322
            ],
            [
              16.114246323,
              45.812967439
            ],
            [
              16.114292904,
              45.812967237
            ],
            [
              16.114320699,
              45.812967061
            ],
            [
              16.114335429,
              45.812966993
            ],
            [
              16.114451448,
              45.812966453
            ],
            [
              16.114679581,
              45.812965392
            ],
            [
              16.114786512,
              45.812964853
            ],
            [
              16.114803835,
              45.812964775
            ],
            [
              16.114810183,
              45.81296466
            ],
            [
              16.114813186,
              45.812964734
            ],
            [
              16.114878517,
              45.812964443
            ],
            [
              16.11496769,
              45.812964024
            ],
            [
              16.115027433,
              45.812963723
            ],
            [
              16.115071926,
              45.8129635
            ],
            [
              16.115047964,
              45.812693732
            ],
            [
              16.115047593,
              45.81268043
            ],
            [
              16.115046948,
              45.812657216
            ],
            [
              16.115038561,
              45.812237709
            ],
            [
              16.115033371,
              45.811978079
            ],
            [
              16.115020709,
              45.811344694
            ],
            [
              16.115027233,
              45.811208318
            ],
            [
              16.11505219,
              45.811072986
            ],
            [
              16.115095359,
              45.810939915
            ],
            [
              16.115156351,
              45.810810299
            ],
            [
              16.115234616,
              45.810685305
            ],
            [
              16.115289273,
              45.810613375
            ],
            [
              16.115349659,
              45.810543723
            ],
            [
              16.115415581,
              45.81047657
            ],
            [
              16.115487262,
              45.810412296
            ],
            [
              16.115563667,
              45.81035074
            ],
            [
              16.115644583,
              45.810292071
            ],
            [
              16.11568713,
              45.810265332
            ],
            [
              16.115836545,
              45.810171432
            ],
            [
              16.115863788,
              45.810154311
            ],
            [
              16.115853487,
              45.810153047
            ],
            [
              16.115837999,
              45.810150094
            ],
            [
              16.115822967,
              45.810146152
            ],
            [
              16.11580852,
              45.810141257
            ],
            [
              16.115794781,
              45.810135451
            ],
            [
              16.115781868,
              45.810128781
            ],
            [
              16.115777953,
              45.81012656
            ],
            [
              16.115732167,
              45.810100845
            ],
            [
              16.115731002,
              45.810099882
            ],
            [
              16.115596744,
              45.809989117
            ],
            [
              16.11559558,
              45.809988156
            ],
            [
              16.115488068,
              45.809927067
            ],
            [
              16.115455744,
              45.809909103
            ],
            [
              16.115422872,
              45.809891635
            ],
            [
              16.115389465,
              45.809874669
            ],
            [
              16.115387653,
              45.809874115
            ],
            [
              16.115093026,
              45.809783886
            ],
            [
              16.115034529,
              45.809765146
            ],
            [
              16.114896751,
              45.809727675
            ],
            [
              16.114888383,
              45.809725595
            ],
            [
              16.11482684,
              45.809712817
            ],
            [
              16.114814962,
              45.809710351
            ],
            [
              16.114785366,
              45.809704207
            ],
            [
              16.11474769,
              45.809697807
            ],
            [
              16.114678134,
              45.809685994
            ],
            [
              16.114651009,
              45.809682025
            ],
            [
              16.114618444,
              45.809677259
            ],
            [
              16.1144924,
              45.809664828
            ],
            [
              16.114449844,
              45.80966112
            ],
            [
              16.114279867,
              45.809656131
            ],
            [
              16.114251066,
              45.809656176
            ],
            [
              16.11200105,
              45.809686754
            ],
            [
              16.111117006,
              45.809698756
            ],
            [
              16.11075684,
              45.809703644
            ],
            [
              16.110339885,
              45.809709301
            ],
            [
              16.109207513,
              45.809724658
            ],
            [
              16.108941056,
              45.809696774
            ],
            [
              16.108683794,
              45.809700261
            ],
            [
              16.108293876,
              45.80973704
            ],
            [
              16.108293779,
              45.809737045
            ],
            [
              16.107865167,
              45.809742268
            ],
            [
              16.107580171,
              45.809744672
            ],
            [
              16.106600123,
              45.809748579
            ],
            [
              16.106215011,
              45.809749898
            ],
            [
              16.106157682,
              45.809750094
            ],
            [
              16.105211937,
              45.809753324
            ],
            [
              16.104926136,
              45.809754301
            ],
            [
              16.104693948,
              45.809755092
            ],
            [
              16.104558239,
              45.809755556
            ],
            [
              16.104435009,
              45.809755976
            ],
            [
              16.104412242,
              45.809756054
            ],
            [
              16.104058974,
              45.809757256
            ],
            [
              16.103947309,
              45.809757636
            ],
            [
              16.103783355,
              45.809758193
            ],
            [
              16.103743278,
              45.809758329
            ],
            [
              16.103396512,
              45.809759508
            ],
            [
              16.10274251,
              45.809761729
            ],
            [
              16.102476659,
              45.80973114
            ],
            [
              16.102219352,
              45.809732012
            ],
            [
              16.10182871,
              45.809764825
            ],
            [
              16.101579901,
              45.809765666
            ],
            [
              16.1015714,
              45.809765695
            ],
            [
              16.101545292,
              45.809764994
            ],
            [
              16.101519368,
              45.809762719
            ],
            [
              16.101493823,
              45.809758888
            ],
            [
              16.101468846,
              45.809753528
            ],
            [
              16.101444623,
              45.80974668
            ],
            [
              16.101421336,
              45.809738396
            ],
            [
              16.101399159,
              45.809728736
            ],
            [
              16.101378258,
              45.809717774
            ],
            [
              16.101374525,
              45.809715438
            ],
            [
              16.101367681,
              45.809711156
            ],
            [
              16.101358787,
              45.80970559
            ],
            [
              16.101340894,
              45.809692277
            ],
            [
              16.101324711,
              45.809677933
            ]
          ]
        ]
      }
    },
    {
      "type": "Feature",
      "properties": {
        "consensus:role": "structure-footprint"
      },
      "geometry": {
        "type": "MultiPolygon",
        "coordinates": [
          [
            [
              [
                16.108368198,
                45.812721856
              ],
              [
                16.108368083,
                45.812716047
              ],
              [
                16.108356406,
                45.8121284
              ],
              [
                16.110312161,
                45.81210938
              ],
              [
                16.110290953,
                45.812020763
              ],
              [
                16.11027753,
                45.811931406
              ],
              [
                16.110271941,
                45.811841643
              ],
              [
                16.110269083,
                45.811686917
              ],
              [
                16.110268892,
                45.811684564
              ],
              [
                16.110268409,
                45.811682233
              ],
              [
                16.110267636,
                45.811679939
              ],
              [
                16.110266581,
                45.811677702
              ],
              [
                16.110265251,
                45.811675537
              ],
              [
                16.110263655,
                45.811673462
              ],
              [
                16.110261809,
                45.811671491
              ],
              [
                16.110259722,
                45.811669641
              ],
              [
                16.110257412,
                45.811667926
              ],
              [
                16.110254897,
                45.811666357
              ],
              [
                16.110252197,
                45.811664948
              ],
              [
                16.11024933,
                45.811663709
              ],
              [
                16.110246322,
                45.81166265
              ],
              [
                16.110243191,
                45.811661778
              ],
              [
                16.110239965,
                45.8116611
              ],
              [
                16.110236665,
                45.811660622
              ],
              [
                16.110233319,
                45.811660347
              ],
              [
                16.110229951,
                45.811660276
              ],
              [
                16.110059945,
                45.811661931
              ],
              [
                16.110056583,
                45.811662067
              ],
              [
                16.110053251,
                45.811662407
              ],
              [
                16.110049974,
                45.811662948
              ],
              [
                16.110046777,
                45.811663688
              ],
              [
                16.110043684,
                45.811664618
              ],
              [
                16.110040719,
                45.811665735
              ],
              [
                16.110037905,
                45.811667027
              ],
              [
                16.110035263,
                45.811668487
              ],
              [
                16.110032812,
                45.811670102
              ],
              [
                16.110030571,
                45.81167186
              ],
              [
                16.110028559,
                45.811673747
              ],
              [
                16.110026789,
                45.811675751
              ],
              [
                16.110025277,
                45.811677855
              ],
              [
                16.110024031,
                45.811680042
              ],
              [
                16.110023063,
                45.811682297
              ],
              [
                16.110022381,
                45.811684604
              ],
              [
                16.110021987,
                45.811686942
              ],
              [
                16.110021887,
                45.811689296
              ],
              [
                16.110022962,
                45.811743273
              ],
              [
                16.110209615,
                45.811741457
              ],
              [
                16.110213272,
                45.811939379
              ],
              [
                16.109833928,
                45.811943071
              ],
              [
                16.109829991,
                45.811745151
              ],
              [
                16.109907179,
                45.811744401
              ],
              [
                16.109905567,
                45.811663433
              ],
              [
                16.109416708,
                45.81166819
              ],
              [
                16.109413346,
                45.811668325
              ],
              [
                16.109410014,
                45.811668664
              ],
              [
                16.109406737,
                45.811669206
              ],
              [
                16.109403541,
                45.811669945
              ],
              [
                16.109400447,
                45.811670877
              ],
              [
                16.109397483,
                45.811671993
              ],
              [
                16.109394668,
                45.811673285
              ],
              [
                16.109392026,
                45.811674745
              ],
              [
                16.109389575,
                45.81167636
              ],
              [
                16.109387335,
                45.811678118
              ],
              [
                16.109385322,
                45.811680006
              ],
              [
                16.109383552,
                45.811682009
              ],
              [
                16.10938204,
                45.811684113
              ],
              [
                16.109380794,
                45.8116863
              ],
              [
                16.109379826,
                45.811688556
              ],
              [
                16.109379144,
                45.811690861
              ],
              [
                16.10937875,
                45.8116932
              ],
              [
                16.10937865,
                45.811695554
              ],
              [
                16.109382587,
                45.811893473
              ],
              [
                16.109569127,
                45.811891658
              ],
              [
                16.109573063,
                45.812089578
              ],
              [
                16.10919355,
                45.812093269
              ],
              [
                16.109189615,
                45.811895349
              ],
              [
                16.109266804,
                45.811894599
              ],
              [
                16.109262332,
                45.811669691
              ],
              [
                16.108850659,
                45.811673694
              ],
              [
                16.108773471,
                45.811674444
              ],
              [
                16.108770109,
                45.811674579
              ],
              [
                16.108766777,
                45.811674919
              ],
              [
                16.108763501,
                45.81167546
              ],
              [
                16.108760304,
                45.8116762
              ],
              [
                16.10875721,
                45.81167713
              ],
              [
                16.108754246,
                45.811678247
              ],
              [
                16.108751432,
                45.81167954
              ],
              [
                16.108748789,
                45.811680999
              ],
              [
                16.108746338,
                45.811682613
              ],
              [
                16.108744098,
                45.811684372
              ],
              [
                16.108742085,
                45.81168626
              ],
              [
                16.108740316,
                45.811688263
              ],
              [
                16.108738803,
                45.811690366
              ],
              [
                16.108737557,
                45.811692554
              ],
              [
                16.108736589,
                45.81169481
              ],
              [
                16.108735907,
                45.811697116
              ],
              [
                16.108735513,
                45.811699454
              ],
              [
                16.108735413,
                45.811701808
              ],
              [
                16.108736487,
                45.811755785
              ],
              [
                16.108923025,
                45.811753973
              ],
              [
                16.108926959,
                45.811951892
              ],
              [
                16.108547449,
                45.811955581
              ],
              [
                16.108543515,
                45.811757662
              ],
              [
                16.108620703,
                45.811756911
              ],
              [
                16.108619095,
                45.811675945
              ],
              [
                16.108130234,
                45.811680695
              ],
              [
                16.108126872,
                45.81168083
              ],
              [
                16.10812354,
                45.811681169
              ],
              [
                16.108120264,
                45.811681712
              ],
              [
                16.108117067,
                45.81168245
              ],
              [
                16.108113973,
                45.811683382
              ],
              [
                16.108111009,
                45.811684498
              ],
              [
                16.108108194,
                45.81168579
              ],
              [
                16.108105552,
                45.81168725
              ],
              [
                16.108103101,
                45.811688864
              ],
              [
                16.108100861,
                45.811690622
              ],
              [
                16.108098848,
                45.81169251
              ],
              [
                16.108097079,
                45.811694513
              ],
              [
                16.108095565,
                45.811696617
              ],
              [
                16.10809432,
                45.811698805
              ],
              [
                16.108093352,
                45.81170106
              ],
              [
                16.108092669,
                45.811703366
              ],
              [
                16.108092276,
                45.811705705
              ],
              [
                16.108092176,
                45.811708058
              ],
              [
                16.108096108,
                45.811905978
              ],
              [
                16.108282648,
                45.811904166
              ],
              [
                16.108286579,
                45.812102085
              ],
              [
                16.107907068,
                45.812105771
              ],
              [
                16.107903136,
                45.811907853
              ],
              [
                16.107980325,
                45.811907102
              ],
              [
                16.107975858,
                45.811682194
              ],
              [
                16.10787294,
                45.811683193
              ],
              [
                16.107871778,
                45.811624718
              ],
              [
                16.107870528,
                45.811561743
              ],
              [
                16.108295063,
                45.811557619
              ],
              [
                16.108290594,
                45.811332711
              ],
              [
                16.108213406,
                45.811333461
              ],
              [
                16.108208938,
                45.811108553
              ],
              [
                16.108588444,
                45.811104865
              ],
              [
                16.108592913,
                45.811329773
              ],
              [
                16.108406376,
                45.811331586
              ],
              [
                16.108410309,
                45.811529505
              ],
              [
                16.108410503,
                45.811531856
              ],
              [
                16.108410988,
                45.811534186
              ],
              [
                16.108411762,
                45.811536478
              ],
              [
                16.10841282,
                45.811538713
              ],
              [
                16.108414152,
                45.811540876
              ],
              [
                16.108415748,
                45.81154295
              ],
              [
                16.108417596,
                45.811544917
              ],
              [
                16.108419683,
                45.811546766
              ],
              [
                16.108421992,
                45.811548479
              ],
              [
                16.108424506,
                45.811550046
              ],
              [
                16.108427206,
                45.811551453
              ],
              [
                16.10843007,
                45.811552691
              ],
              [
                16.108433079,
                45.811553749
              ],
              [
                16.108436207,
                45.81155462
              ],
              [
                16.108439432,
                45.811555297
              ],
              [
                16.108442729,
                45.811555774
              ],
              [
                16.108446074,
                45.811556049
              ],
              [
                16.108449439,
                45.811556119
              ],
              [
                16.108938299,
                45.811551367
              ],
              [
                16.108936688,
                45.811470401
              ],
              [
                16.1088595,
                45.811471151
              ],
              [
                16.108855566,
                45.811273232
              ],
              [
                16.109235072,
                45.811269542
              ],
              [
                16.109239009,
                45.811467461
              ],
              [
                16.109052471,
                45.811469275
              ],
              [
                16.109053545,
                45.811523253
              ],
              [
                16.109053738,
                45.811525603
              ],
              [
                16.109054223,
                45.811527934
              ],
              [
                16.109054997,
                45.811530225
              ],
              [
                16.109056055,
                45.811532461
              ],
              [
                16.109057387,
                45.811534624
              ],
              [
                16.109058983,
                45.811536697
              ],
              [
                16.109060831,
                45.811538666
              ],
              [
                16.109062918,
                45.811540514
              ],
              [
                16.109065228,
                45.811542227
              ],
              [
                16.109067741,
                45.811543794
              ],
              [
                16.109070441,
                45.811545201
              ],
              [
                16.109073306,
                45.811546438
              ],
              [
                16.109076314,
                45.811547497
              ],
              [
                16.109079443,
                45.811548367
              ],
              [
                16.109082668,
                45.811549044
              ],
              [
                16.109085965,
                45.811549522
              ],
              [
                16.109089309,
                45.811549796
              ],
              [
                16.109092675,
                45.811549866
              ],
              [
                16.109169863,
                45.811549116
              ],
              [
                16.109581534,
                45.811545112
              ],
              [
                16.109577059,
                45.811320204
              ],
              [
                16.109499872,
                45.811320955
              ],
              [
                16.109495399,
                45.811096047
              ],
              [
                16.109874905,
                45.811092355
              ],
              [
                16.109879379,
                45.811317263
              ],
              [
                16.109692842,
                45.811319078
              ],
              [
                16.109696778,
                45.811516997
              ],
              [
                16.109696973,
                45.811519348
              ],
              [
                16.109697459,
                45.811521678
              ],
              [
                16.109698233,
                45.811523969
              ],
              [
                16.10969929,
                45.811526205
              ],
              [
                16.109700622,
                45.811528368
              ],
              [
                16.109702219,
                45.811530441
              ],
              [
                16.109704067,
                45.811532409
              ],
              [
                16.109706154,
                45.811534257
              ],
              [
                16.109708463,
                45.811535971
              ],
              [
                16.109710977,
                45.811537537
              ],
              [
                16.109713677,
                45.811538945
              ],
              [
                16.109716541,
                45.811540182
              ],
              [
                16.109719548,
                45.81154124
              ],
              [
                16.109722678,
                45.811542111
              ],
              [
                16.109725903,
                45.811542788
              ],
              [
                16.1097292,
                45.811543266
              ],
              [
                16.109732545,
                45.811543541
              ],
              [
                16.10973591,
                45.811543611
              ],
              [
                16.110227783,
                45.811538824
              ],
              [
                16.110231144,
                45.811538688
              ],
              [
                16.110234474,
                45.811538349
              ],
              [
                16.110237748,
                45.811537808
              ],
              [
                16.110240943,
                45.81153707
              ],
              [
                16.110244034,
                45.81153614
              ],
              [
                16.110246998,
                45.811535025
              ],
              [
                16.110249811,
                45.811533734
              ],
              [
                16.110252452,
                45.811532276
              ],
              [
                16.110254903,
                45.811530663
              ],
              [
                16.110257143,
                45.811528907
              ],
              [
                16.110259156,
                45.811527021
              ],
              [
                16.110260926,
                45.81152502
              ],
              [
                16.110262441,
                45.811522918
              ],
              [
                16.110263687,
                45.811520732
              ],
              [
                16.110264657,
                45.811518479
              ],
              [
                16.110265342,
                45.811516175
              ],
              [
                16.110265738,
                45.811513838
              ],
              [
                16.110265842,
                45.811511486
              ],
              [
                16.110263814,
                45.811401732
              ],
              [
                16.110173851,
                45.811402608
              ],
              [
                16.110172597,
                45.811339633
              ],
              [
                16.11026265,
                45.811338757
              ],
              [
                16.110257777,
                45.811075074
              ],
              [
                16.110254903,
                45.810919497
              ],
              [
                16.11024826,
                45.810559972
              ],
              [
                16.110248069,
                45.81055762
              ],
              [
                16.110247586,
                45.810555288
              ],
              [
                16.110246814,
                45.810552994
              ],
              [
                16.110245759,
                45.810550756
              ],
              [
                16.110244429,
                45.810548592
              ],
              [
                16.110242834,
                45.810546516
              ],
              [
                16.110240986,
                45.810544546
              ],
              [
                16.110238899,
                45.810542696
              ],
              [
                16.11023659,
                45.81054098
              ],
              [
                16.110234075,
                45.810539412
              ],
              [
                16.110231375,
                45.810538003
              ],
              [
                16.110228509,
                45.810536764
              ],
              [
                16.1102255,
                45.810535705
              ],
              [
                16.110222369,
                45.810534833
              ],
              [
                16.110219143,
                45.810534155
              ],
              [
                16.110215843,
                45.810533677
              ],
              [
                16.110212497,
                45.810533402
              ],
              [
                16.110209129,
                45.810533332
              ],
              [
                16.110039126,
                45.810534986
              ],
              [
                16.110037519,
                45.810535002
              ],
              [
                16.110034158,
                45.810535137
              ],
              [
                16.110030825,
                45.810535477
              ],
              [
                16.110027548,
                45.810536019
              ],
              [
                16.110024351,
                45.810536758
              ],
              [
                16.110021259,
                45.810537689
              ],
              [
                16.110018294,
                45.810538806
              ],
              [
                16.110015479,
                45.810540098
              ],
              [
                16.110012837,
                45.810541557
              ],
              [
                16.110010387,
                45.810543172
              ],
              [
                16.110008146,
                45.81054493
              ],
              [
                16.110006133,
                45.810546818
              ],
              [
                16.110004364,
                45.810548821
              ],
              [
                16.110002852,
                45.810550925
              ],
              [
                16.110001606,
                45.810553113
              ],
              [
                16.110000639,
                45.810555368
              ],
              [
                16.109999956,
                45.810557674
              ],
              [
                16.109999563,
                45.810560013
              ],
              [
                16.109999463,
                45.810562366
              ],
              [
                16.110000536,
                45.810616344
              ],
              [
                16.110188511,
                45.810614515
              ],
              [
                16.110192451,
                45.810812435
              ],
              [
                16.109811507,
                45.810816142
              ],
              [
                16.10980757,
                45.810618222
              ],
              [
                16.109884756,
                45.810617471
              ],
              [
                16.109883145,
                45.810536504
              ],
              [
                16.109395903,
                45.810541244
              ],
              [
                16.109394295,
                45.81054126
              ],
              [
                16.109390934,
                45.810541396
              ],
              [
                16.109387601,
                45.810541735
              ],
              [
                16.109384324,
                45.810542276
              ],
              [
                16.109381128,
                45.810543016
              ],
              [
                16.109378035,
                45.810543947
              ],
              [
                16.10937507,
                45.810545063
              ],
              [
                16.109372256,
                45.810546356
              ],
              [
                16.109369614,
                45.810547816
              ],
              [
                16.109367163,
                45.81054943
              ],
              [
                16.109364922,
                45.810551188
              ],
              [
                16.109362911,
                45.810553076
              ],
              [
                16.10936114,
                45.81055508
              ],
              [
                16.109359628,
                45.810557183
              ],
              [
                16.109358382,
                45.810559371
              ],
              [
                16.109357415,
                45.810561626
              ],
              [
                16.109356732,
                45.810563932
              ],
              [
                16.109356339,
                45.81056627
              ],
              [
                16.109356238,
                45.810568624
              ],
              [
                16.109360174,
                45.810766543
              ],
              [
                16.10954671,
                45.810764729
              ],
              [
                16.109550647,
                45.810962648
              ],
              [
                16.109171142,
                45.810966339
              ],
              [
                16.109167207,
                45.81076842
              ],
              [
                16.109244394,
                45.810767669
              ],
              [
                16.109239922,
                45.810542761
              ],
              [
                16.108829865,
                45.810546748
              ],
              [
                16.108751072,
                45.810547514
              ],
              [
                16.10874771,
                45.810547649
              ],
              [
                16.108744377,
                45.810547989
              ],
              [
                16.1087411,
                45.810548531
              ],
              [
                16.108737904,
                45.81054927
              ],
              [
                16.108734811,
                45.810550201
              ],
              [
                16.108731846,
                45.810551317
              ],
              [
                16.108729032,
                45.81055261
              ],
              [
                16.10872639,
                45.810554069
              ],
              [
                16.108723939,
                45.810555684
              ],
              [
                16.108721699,
                45.810557442
              ],
              [
                16.108719686,
                45.81055933
              ],
              [
                16.108717916,
                45.810561333
              ],
              [
                16.108716404,
                45.810563437
              ],
              [
                16.108715158,
                45.810565625
              ],
              [
                16.10871419,
                45.81056788
              ],
              [
                16.108713508,
                45.810570185
              ],
              [
                16.108713114,
                45.810572525
              ],
              [
                16.108713014,
                45.810574878
              ],
              [
                16.108714088,
                45.810628856
              ],
              [
                16.108900623,
                45.810627043
              ],
              [
                16.108904557,
                45.810824962
              ],
              [
                16.108525052,
                45.810828651
              ],
              [
                16.10852112,
                45.810630731
              ],
              [
                16.108598307,
                45.810629982
              ],
              [
                16.108596698,
                45.810549015
              ],
              [
                16.108109455,
                45.810553749
              ],
              [
                16.108107847,
                45.810553764
              ],
              [
                16.108104486,
                45.8105539
              ],
              [
                16.108101153,
                45.81055424
              ],
              [
                16.108097876,
                45.810554781
              ],
              [
                16.10809468,
                45.810555521
              ],
              [
                16.108091587,
                45.810556451
              ],
              [
                16.108088622,
                45.810557568
              ],
              [
                16.108085808,
                45.810558861
              ],
              [
                16.108083165,
                45.810560319
              ],
              [
                16.108080715,
                45.810561934
              ],
              [
                16.108078475,
                45.810563693
              ],
              [
                16.108076462,
                45.810565581
              ],
              [
                16.108074692,
                45.810567584
              ],
              [
                16.108073179,
                45.810569687
              ],
              [
                16.108071934,
                45.810571875
              ],
              [
                16.108070966,
                45.810574131
              ],
              [
                16.108070283,
                45.810576436
              ],
              [
                16.10806989,
                45.810578774
              ],
              [
                16.10806979,
                45.810581128
              ],
              [
                16.108073722,
                45.810779048
              ],
              [
                16.108260258,
                45.810777235
              ],
              [
                16.108264189,
                45.810975154
              ],
              [
                16.107884684,
                45.810978841
              ],
              [
                16.107880754,
                45.810780922
              ],
              [
                16.107957941,
                45.810780172
              ],
              [
                16.107953474,
                45.810555264
              ],
              [
                16.107850557,
                45.810556264
              ],
              [
                16.107849396,
                45.810497788
              ],
              [
                16.107848145,
                45.810434813
              ],
              [
                16.108272673,
                45.81043069
              ],
              [
                16.108268204,
                45.810205781
              ],
              [
                16.108191017,
                45.810206531
              ],
              [
                16.10818655,
                45.809981623
              ],
              [
                16.108566048,
                45.809977935
              ],
              [
                16.108570518,
                45.810202843
              ],
              [
                16.108383984,
                45.810204656
              ],
              [
                16.108387916,
                45.810402576
              ],
              [
                16.10838811,
                45.810404927
              ],
              [
                16.108388596,
                45.810407256
              ],
              [
                16.10838937,
                45.810409548
              ],
              [
                16.108390427,
                45.810411784
              ],
              [
                16.108391759,
                45.810413946
              ],
              [
                16.108393356,
                45.810416019
              ],
              [
                16.108395204,
                45.810417988
              ],
              [
                16.108397291,
                45.810419836
              ],
              [
                16.1083996,
                45.810421549
              ],
              [
                16.108402113,
                45.810423116
              ],
              [
                16.108404813,
                45.810424524
              ],
              [
                16.108407678,
                45.810425761
              ],
              [
                16.108410686,
                45.810426819
              ],
              [
                16.108413814,
                45.810427689
              ],
              [
                16.108417039,
                45.810428366
              ],
              [
                16.108420336,
                45.810428845
              ],
              [
                16.108423681,
                45.810429119
              ],
              [
                16.108427046,
                45.810429189
              ],
              [
                16.108915896,
                45.810424438
              ],
              [
                16.108914285,
                45.810343471
              ],
              [
                16.108837099,
                45.810344221
              ],
              [
                16.108833165,
                45.810146302
              ],
              [
                16.109212664,
                45.810142612
              ],
              [
                16.1092166,
                45.810340531
              ],
              [
                16.109030066,
                45.810342345
              ],
              [
                16.109031138,
                45.810396323
              ],
              [
                16.109031333,
                45.810398674
              ],
              [
                16.109031818,
                45.810401004
              ],
              [
                16.109032592,
                45.810403296
              ],
              [
                16.10903365,
                45.810405531
              ],
              [
                16.109034982,
                45.810407694
              ],
              [
                16.109036578,
                45.810409767
              ],
              [
                16.109038426,
                45.810411735
              ],
              [
                16.109040513,
                45.810413583
              ],
              [
                16.109042822,
                45.810415297
              ],
              [
                16.109045336,
                45.810416863
              ],
              [
                16.109048036,
                45.810418271
              ],
              [
                16.1090509,
                45.810419509
              ],
              [
                16.109053909,
                45.810420567
              ],
              [
                16.109057037,
                45.810421438
              ],
              [
                16.109060262,
                45.810422114
              ],
              [
                16.109063559,
                45.810422592
              ],
              [
                16.109066903,
                45.810422867
              ],
              [
                16.109070269,
                45.810422937
              ],
              [
                16.109149063,
                45.810422171
              ],
              [
                16.109559117,
                45.810418183
              ],
              [
                16.109554644,
                45.810193275
              ],
              [
                16.109477457,
                45.810194025
              ],
              [
                16.109472985,
                45.809969117
              ],
              [
                16.109852483,
                45.809965426
              ],
              [
                16.109856957,
                45.810190334
              ],
              [
                16.109670424,
                45.810192149
              ],
              [
                16.10967436,
                45.810390068
              ],
              [
                16.109674555,
                45.810392418
              ],
              [
                16.10967504,
                45.810394748
              ],
              [
                16.109675814,
                45.81039704
              ],
              [
                16.109676872,
                45.810399276
              ],
              [
                16.109678204,
                45.810401438
              ],
              [
                16.109679799,
                45.810403512
              ],
              [
                16.109681648,
                45.81040548
              ],
              [
                16.109683735,
                45.810407328
              ],
              [
                16.109686045,
                45.810409042
              ],
              [
                16.109688558,
                45.810410608
              ],
              [
                16.109691258,
                45.810412015
              ],
              [
                16.109694123,
                45.810413253
              ],
              [
                16.10969713,
                45.810414311
              ],
              [
                16.109700259,
                45.810415182
              ],
              [
                16.109703484,
                45.810415859
              ],
              [
                16.109706781,
                45.810416336
              ],
              [
                16.109710125,
                45.810416611
              ],
              [
                16.109713482,
                45.810416681
              ],
              [
                16.109715099,
                45.810416665
              ],
              [
                16.110206963,
                45.810411879
              ],
              [
                16.110210322,
                45.810411744
              ],
              [
                16.110213652,
                45.810411404
              ],
              [
                16.110216926,
                45.810410863
              ],
              [
                16.110220121,
                45.810410125
              ],
              [
                16.110223213,
                45.810409195
              ],
              [
                16.110226176,
                45.81040808
              ],
              [
                16.110228989,
                45.810406789
              ],
              [
                16.110231632,
                45.810405331
              ],
              [
                16.110234081,
                45.810403718
              ],
              [
                16.110236321,
                45.810401962
              ],
              [
                16.110238333,
                45.810400076
              ],
              [
                16.110240103,
                45.810398075
              ],
              [
                16.110241618,
                45.810395973
              ],
              [
                16.110242865,
                45.810393788
              ],
              [
                16.110243834,
                45.810391535
              ],
              [
                16.110244519,
                45.81038923
              ],
              [
                16.110244915,
                45.810386894
              ],
              [
                16.110245019,
                45.810384541
              ],
              [
                16.110235981,
                45.809895365
              ],
              [
                16.110235789,
                45.809893005
              ],
              [
                16.110235302,
                45.809890665
              ],
              [
                16.110234526,
                45.809888364
              ],
              [
                16.110233463,
                45.809886119
              ],
              [
                16.110232124,
                45.809883948
              ],
              [
                16.110230518,
                45.809881868
              ],
              [
                16.110228659,
                45.809879894
              ],
              [
                16.110226559,
                45.80987804
              ],
              [
                16.110224236,
                45.809876323
              ],
              [
                16.110221705,
                45.809874754
              ],
              [
                16.110218989,
                45.809873346
              ],
              [
                16.110216107,
                45.80987211
              ],
              [
                16.110213081,
                45.809871055
              ],
              [
                16.110209935,
                45.809870189
              ],
              [
                16.110206693,
                45.809869519
              ],
              [
                16.110203379,
                45.80986905
              ],
              [
                16.110200019,
                45.809868786
              ],
              [
                16.110196639,
                45.809868728
              ],
              [
                16.10819625,
                45.809895845
              ],
              [
                16.107883601,
                45.80989955
              ],
              [
                16.107570929,
                45.809902192
              ],
              [
                16.107258243,
                45.809903776
              ],
              [
                16.107155764,
                45.809904127
              ],
              [
                16.10716706,
                45.810473227
              ],
              [
                16.107463179,
                45.810470352
              ],
              [
                16.107467465,
                45.810686265
              ],
              [
                16.107171345,
                45.810689139
              ],
              [
                16.107211606,
                45.812717494
              ],
              [
                16.107211788,
                45.812726685
              ],
              [
                16.108368198,
                45.812721856
              ]
            ],
            [
              [
                16.10832242,
                45.812668063
              ],
              [
                16.108142296,
                45.812668816
              ],
              [
                16.108141374,
                45.812560852
              ],
              [
                16.108321498,
                45.812560099
              ],
              [
                16.10832242,
                45.812668063
              ]
            ]
          ]
        ]
      }
    }
  ]
}
