{
  "type": "FeatureCollection",
  "name": "Novi Jelkovec – rekonstrukcija naselja – parkovna površina PA 5",
  "bbox": [
    16.110933737,
    45.809997644,
    16.111141832,
    45.810757171
  ],
  "reconstruction": {
    "schema": "consensus-builder.structure-reconstruction.v1",
    "proposal": {
      "proposalId": "reconstruction-novi-jelkovec-park-pa-1281",
      "city": "zagreb",
      "name": "Novi Jelkovec – rekonstrukcija naselja – parkovna površina PA 5",
      "title": "Novi Jelkovec – rekonstrukcija naselja – parkovna površina PA 5",
      "description": "Ostale parkovne površine PA (1259 m²) iz službenoga kartografskog prikaza plana. Arhivski je referentni sloj i pri primjeni ne simulira novu parcelaciju ni prijenos vlasništva.",
      "author": "zagreb.lol – lokalna analiza",
      "type": "structure",
      "goal": "park",
      "primaryType": "Park",
      "lifecycleStatus": "Active",
      "createdAt": "2026-08-14T00:01:00.000Z",
      "updatedAt": "2026-08-14T00:01:00.000Z",
      "tags": [
        "park",
        "research",
        "reconstruction",
        "neighbourhood-plan",
        "official-plan-footprint",
        "reference-overlay"
      ],
      "parentParcelIds": [
        "HR-338796-3661/109",
        "HR-338796-3661/110",
        "HR-338796-3661/107"
      ],
      "cadastreParcelIds": [
        "HR-338796-3661/109",
        "HR-338796-3661/110",
        "HR-338796-3661/107"
      ],
      "parcelIds": [
        "HR-338796-3661/109",
        "HR-338796-3661/110",
        "HR-338796-3661/107"
      ],
      "acceptedParcelIds": [],
      "bounds": [
        16.110933737,
        45.809997644,
        16.111141832,
        45.810757171
      ],
      "source": {
        "planName": "DPU stambenog naselja na lokaciji Sopnica - Jelkovec",
        "planYears": "DPU 2003.; izmjene 2007., 2016. i 2020.",
        "implementationStatus": "izvedeno u cijelosti prema službenoj ocjeni realizacije plana",
        "sources": [
          "https://zagreb.hr/izmjene-i-dopune-detaljnog-plana-uredjenja-stamben/168074",
          "https://www.zagreb.hr/userdocsimages/arhiva/prostorni_planovi/dpu%20sopnica%20jelkovec/s-j_graficki%20dio_I%20%2820210120%29.pdf",
          "https://data.zagreb.hr/dataset/geoportal-urbanisticki-planovi-uredenja"
        ],
        "coordinateSystem": "lokalni izvori u HTRS96/TM (EPSG:3765), izvoz za aplikaciju u WGS84",
        "geometryBasis": "Grad Zagreb – službena planirana namjena površina",
        "officialLandUseObjectId": 1281,
        "officialLandUseCode": "PA",
        "officialLandUseName": "Ostale parkovne površine",
        "officialLandUseGroup": "Javne zelene površine",
        "areaM2": 1258.697032261094,
        "applicationSemantics": "referenceOnly: prikaz bez nove parcelacije ili prijenosa vlasništva"
      }
    },
    "structureProposal": {
      "kind": "park",
      "blockName": "Novi Jelkovec – rekonstrukcija naselja – PA 5",
      "parentParcelIds": [
        "HR-338796-3661/109",
        "HR-338796-3661/110",
        "HR-338796-3661/107"
      ],
      "referenceOnly": true,
      "applied": false
    }
  },
  "features": [
    {
      "type": "Feature",
      "properties": {
        "id": "plan-site:novi-jelkovec",
        "name": "DPU stambenog naselja na lokaciji Sopnica - Jelkovec",
        "source": "Grad Zagreb – planirana namjena površina",
        "areaM2": 395338.6653480422,
        "featureCount": 133,
        "consensus:role": "site"
      },
      "geometry": {
        "type": "Polygon",
        "coordinates": [
          [
            [
              16.101324711,
              45.809677933
            ],
            [
              16.101310359,
              45.809662665
            ],
            [
              16.101297945,
              45.809646588
            ],
            [
              16.101287563,
              45.809629822
            ],
            [
              16.101279289,
              45.809612491
            ],
            [
              16.101273186,
              45.809594725
            ],
            [
              16.101269565,
              45.8095779
            ],
            [
              16.100965888,
              45.809580831
            ],
            [
              16.101184376,
              45.811015374
            ],
            [
              16.101370947,
              45.812240298
            ],
            [
              16.101432987,
              45.812670448
            ],
            [
              16.101442371,
              45.812728628
            ],
            [
              16.101442778,
              45.812731343
            ],
            [
              16.101442241,
              45.812732601
            ],
            [
              16.10144099,
              45.812734806
            ],
            [
              16.101439469,
              45.812736927
            ],
            [
              16.101437685,
              45.812738945
            ],
            [
              16.101435654,
              45.812740847
            ],
            [
              16.101433393,
              45.812742616
            ],
            [
              16.101430919,
              45.81274424
            ],
            [
              16.10142825,
              45.812745705
            ],
            [
              16.101425407,
              45.812747001
            ],
            [
              16.101422413,
              45.812748117
            ],
            [
              16.10141929,
              45.812749044
            ],
            [
              16.101416061,
              45.812749777
            ],
            [
              16.101412755,
              45.812750308
            ],
            [
              16.101409394,
              45.812750635
            ],
            [
              16.101406005,
              45.812750754
            ],
            [
              16.101405304,
              45.812750779
            ],
            [
              16.101322386,
              45.812753756
            ],
            [
              16.101323075,
              45.812788656
            ],
            [
              16.101327663,
              45.813020996
            ],
            [
              16.101440602,
              45.813020531
            ],
            [
              16.101454857,
              45.813020473
            ],
            [
              16.101458191,
              45.81302056
            ],
            [
              16.101461504,
              45.813020849
            ],
            [
              16.101464768,
              45.813021336
            ],
            [
              16.101467959,
              45.813022019
            ],
            [
              16.101471054,
              45.813022892
            ],
            [
              16.10147403,
              45.81302395
            ],
            [
              16.101476864,
              45.813025183
            ],
            [
              16.101479535,
              45.813026582
            ],
            [
              16.101482023,
              45.813028138
            ],
            [
              16.10148431,
              45.813029837
            ],
            [
              16.101486378,
              45.813031669
            ],
            [
              16.101488212,
              45.813033619
            ],
            [
              16.101489799,
              45.813035673
            ],
            [
              16.101491125,
              45.813037814
            ],
            [
              16.101492182,
              45.813040028
            ],
            [
              16.101492962,
              45.813042298
            ],
            [
              16.101493458,
              45.813044606
            ],
            [
              16.101498886,
              45.813080227
            ],
            [
              16.101516717,
              45.813197253
            ],
            [
              16.10153169,
              45.813197108
            ],
            [
              16.101557262,
              45.813196861
            ],
            [
              16.101904321,
              45.813193509
            ],
            [
              16.101895381,
              45.81313486
            ],
            [
              16.10191106,
              45.813135383
            ],
            [
              16.101915364,
              45.813135924
            ],
            [
              16.10191479,
              45.813126549
            ],
            [
              16.101915382,
              45.813117177
            ],
            [
              16.101917135,
              45.813107874
            ],
            [
              16.101920036,
              45.813098714
            ],
            [
              16.101924064,
              45.813089763
            ],
            [
              16.101929188,
              45.813081092
            ],
            [
              16.101935369,
              45.813072764
            ],
            [
              16.101942561,
              45.813064843
            ],
            [
              16.101950709,
              45.813057389
            ],
            [
              16.101959752,
              45.813050457
            ],
            [
              16.10196962,
              45.8130441
            ],
            [
              16.101980242,
              45.813038366
            ],
            [
              16.101991534,
              45.813033299
            ],
            [
              16.102003413,
              45.813028936
            ],
            [
              16.102015789,
              45.813025312
            ],
            [
              16.102028569,
              45.813022452
            ],
            [
              16.102041654,
              45.813020379
            ],
            [
              16.102054948,
              45.813019108
            ],
            [
              16.102055668,
              45.813019084
            ],
            [
              16.10206835,
              45.813018649
            ],
            [
              16.102219105,
              45.813018071
            ],
            [
              16.102281128,
              45.813017837
            ],
            [
              16.102555219,
              45.813016593
            ],
            [
              16.102668501,
              45.81301608
            ],
            [
              16.103179041,
              45.813013761
            ],
            [
              16.104037746,
              45.813010568
            ],
            [
              16.104133974,
              45.81301021
            ],
            [
              16.104133939,
              45.813009504
            ],
            [
              16.106849698,
              45.812998349
            ],
            [
              16.106853397,
              45.813000865
            ],
            [
              16.106884934,
              45.813000747
            ],
            [
              16.107031754,
              45.813000172
            ],
            [
              16.107094163,
              45.812999937
            ],
            [
              16.107152509,
              45.81299972
            ],
            [
              16.107314533,
              45.812999118
            ],
            [
              16.108050361,
              45.812996382
            ],
            [
              16.108366906,
              45.812995218
            ],
            [
              16.108838509,
              45.812993144
            ],
            [
              16.109526421,
              45.812989919
            ],
            [
              16.110127089,
              45.812987021
            ],
            [
              16.110425959,
              45.812985616
            ],
            [
              16.110579005,
              45.812984896
            ],
            [
              16.110859266,
              45.812983578
            ],
            [
              16.110880455,
              45.812983477
            ],
            [
              16.110903403,
              45.812983368
            ],
            [
              16.111095175,
              45.812982506
            ],
            [
              16.111387231,
              45.812981056
            ],
            [
              16.111561847,
              45.8129803
            ],
            [
              16.112007072,
              45.812978124
            ],
            [
              16.112210511,
              45.812977195
            ],
            [
              16.112373032,
              45.812976396
            ],
            [
              16.112759194,
              45.812974556
            ],
            [
              16.113332582,
              45.812971819
            ],
            [
              16.113600876,
              45.812970477
            ],
            [
              16.113815905,
              45.812969441
            ],
            [
              16.113853213,
              45.812969261
            ],
            [
              16.114054593,
              45.812968322
            ],
            [
              16.114246323,
              45.812967439
            ],
            [
              16.114292904,
              45.812967237
            ],
            [
              16.114320699,
              45.812967061
            ],
            [
              16.114335429,
              45.812966993
            ],
            [
              16.114451448,
              45.812966453
            ],
            [
              16.114679581,
              45.812965392
            ],
            [
              16.114786512,
              45.812964853
            ],
            [
              16.114803835,
              45.812964775
            ],
            [
              16.114810183,
              45.81296466
            ],
            [
              16.114813186,
              45.812964734
            ],
            [
              16.114878517,
              45.812964443
            ],
            [
              16.11496769,
              45.812964024
            ],
            [
              16.115027433,
              45.812963723
            ],
            [
              16.115071926,
              45.8129635
            ],
            [
              16.115047964,
              45.812693732
            ],
            [
              16.115047593,
              45.81268043
            ],
            [
              16.115046948,
              45.812657216
            ],
            [
              16.115038561,
              45.812237709
            ],
            [
              16.115033371,
              45.811978079
            ],
            [
              16.115020709,
              45.811344694
            ],
            [
              16.115027233,
              45.811208318
            ],
            [
              16.11505219,
              45.811072986
            ],
            [
              16.115095359,
              45.810939915
            ],
            [
              16.115156351,
              45.810810299
            ],
            [
              16.115234616,
              45.810685305
            ],
            [
              16.115289273,
              45.810613375
            ],
            [
              16.115349659,
              45.810543723
            ],
            [
              16.115415581,
              45.81047657
            ],
            [
              16.115487262,
              45.810412296
            ],
            [
              16.115563667,
              45.81035074
            ],
            [
              16.115644583,
              45.810292071
            ],
            [
              16.11568713,
              45.810265332
            ],
            [
              16.115836545,
              45.810171432
            ],
            [
              16.115863788,
              45.810154311
            ],
            [
              16.115853487,
              45.810153047
            ],
            [
              16.115837999,
              45.810150094
            ],
            [
              16.115822967,
              45.810146152
            ],
            [
              16.11580852,
              45.810141257
            ],
            [
              16.115794781,
              45.810135451
            ],
            [
              16.115781868,
              45.810128781
            ],
            [
              16.115777953,
              45.81012656
            ],
            [
              16.115732167,
              45.810100845
            ],
            [
              16.115731002,
              45.810099882
            ],
            [
              16.115596744,
              45.809989117
            ],
            [
              16.11559558,
              45.809988156
            ],
            [
              16.115488068,
              45.809927067
            ],
            [
              16.115455744,
              45.809909103
            ],
            [
              16.115422872,
              45.809891635
            ],
            [
              16.115389465,
              45.809874669
            ],
            [
              16.115387653,
              45.809874115
            ],
            [
              16.115093026,
              45.809783886
            ],
            [
              16.115034529,
              45.809765146
            ],
            [
              16.114896751,
              45.809727675
            ],
            [
              16.114888383,
              45.809725595
            ],
            [
              16.11482684,
              45.809712817
            ],
            [
              16.114814962,
              45.809710351
            ],
            [
              16.114785366,
              45.809704207
            ],
            [
              16.11474769,
              45.809697807
            ],
            [
              16.114678134,
              45.809685994
            ],
            [
              16.114651009,
              45.809682025
            ],
            [
              16.114618444,
              45.809677259
            ],
            [
              16.1144924,
              45.809664828
            ],
            [
              16.114449844,
              45.80966112
            ],
            [
              16.114279867,
              45.809656131
            ],
            [
              16.114251066,
              45.809656176
            ],
            [
              16.11200105,
              45.809686754
            ],
            [
              16.111117006,
              45.809698756
            ],
            [
              16.11075684,
              45.809703644
            ],
            [
              16.110339885,
              45.809709301
            ],
            [
              16.109207513,
              45.809724658
            ],
            [
              16.108941056,
              45.809696774
            ],
            [
              16.108683794,
              45.809700261
            ],
            [
              16.108293876,
              45.80973704
            ],
            [
              16.108293779,
              45.809737045
            ],
            [
              16.107865167,
              45.809742268
            ],
            [
              16.107580171,
              45.809744672
            ],
            [
              16.106600123,
              45.809748579
            ],
            [
              16.106215011,
              45.809749898
            ],
            [
              16.106157682,
              45.809750094
            ],
            [
              16.105211937,
              45.809753324
            ],
            [
              16.104926136,
              45.809754301
            ],
            [
              16.104693948,
              45.809755092
            ],
            [
              16.104558239,
              45.809755556
            ],
            [
              16.104435009,
              45.809755976
            ],
            [
              16.104412242,
              45.809756054
            ],
            [
              16.104058974,
              45.809757256
            ],
            [
              16.103947309,
              45.809757636
            ],
            [
              16.103783355,
              45.809758193
            ],
            [
              16.103743278,
              45.809758329
            ],
            [
              16.103396512,
              45.809759508
            ],
            [
              16.10274251,
              45.809761729
            ],
            [
              16.102476659,
              45.80973114
            ],
            [
              16.102219352,
              45.809732012
            ],
            [
              16.10182871,
              45.809764825
            ],
            [
              16.101579901,
              45.809765666
            ],
            [
              16.1015714,
              45.809765695
            ],
            [
              16.101545292,
              45.809764994
            ],
            [
              16.101519368,
              45.809762719
            ],
            [
              16.101493823,
              45.809758888
            ],
            [
              16.101468846,
              45.809753528
            ],
            [
              16.101444623,
              45.80974668
            ],
            [
              16.101421336,
              45.809738396
            ],
            [
              16.101399159,
              45.809728736
            ],
            [
              16.101378258,
              45.809717774
            ],
            [
              16.101374525,
              45.809715438
            ],
            [
              16.101367681,
              45.809711156
            ],
            [
              16.101358787,
              45.80970559
            ],
            [
              16.101340894,
              45.809692277
            ],
            [
              16.101324711,
              45.809677933
            ]
          ]
        ]
      }
    },
    {
      "type": "Feature",
      "properties": {
        "consensus:role": "structure-footprint"
      },
      "geometry": {
        "type": "MultiPolygon",
        "coordinates": [
          [
            [
              [
                16.111141832,
                45.810755291
              ],
              [
                16.111126882,
                45.810004783
              ],
              [
                16.110933737,
                45.809997644
              ],
              [
                16.110948864,
                45.810757171
              ],
              [
                16.111141832,
                45.810755291
              ]
            ]
          ]
        ]
      }
    }
  ]
}
