{"type": "FeatureCollection", "features": [{"type": "Feature", "geometry": {"type": "MultiPolygon", "coordinates": [[[[-122.38859737199999, 37.71472912000007], [-122.38803743999995, 37.715355129000045], [-122.38803539699995, 37.71535731800003], [-122.38821058799999, 37.71588546400005], [-122.38780687799999, 37.71635939600003], [-122.38792484599998, 37.716434829000036], [-122.38685420999997, 37.71763696900007], [-122.38628021699998, 37.71731114600004], [-122.38607921699997, 37.717534596000064], [-122.38776518699996, 37.71849161400007], [-122.38796863099998, 37.71826954800008], [-122.38814866899997, 37.718371741000055], [-122.38794522299997, 37.71859380600006], [-122.38981923899996, 37.719657503000064], [-122.38776062199997, 37.72193137100004], [-122.38402931999997, 37.71981338000006], [-122.38401259999995, 37.71980388800006], [-122.38346295399998, 37.72041484700003], [-122.383445774, 37.72043309000003], [-122.38343221699995, 37.720425394000074], [-122.38340535299994, 37.72045525400006], [-122.38340769899997, 37.72043292700005], [-122.38338611399996, 37.72033862600006], [-122.38335529499994, 37.72034681000008], [-122.38335506899995, 37.720346248000055], [-122.38335430199999, 37.72034434900007], [-122.38335352999997, 37.72034245200007], [-122.38335275499998, 37.720340555000064], [-122.38335197499998, 37.72033865900005], [-122.38335118999998, 37.72033676500007], [-122.38335040299995, 37.720334871000034], [-122.38334960899999, 37.720332979000034], [-122.38334881399999, 37.72033108800008], [-122.38334801299999, 37.72032919800006], [-122.38334720799998, 37.72032730800004], [-122.38334639899995, 37.72032542100004], [-122.38334558599996, 37.720323534000045], [-122.38334476899996, 37.72032164800004], [-122.38334394799995, 37.72031976400007], [-122.38334312199999, 37.72031788000004], [-122.38334229199995, 37.720315998000046], [-122.38334145899995, 37.72031411700004], [-122.38334062099995, 37.72031223700003], [-122.38333977899998, 37.72031035800006], [-122.38333893299995, 37.720308481000075], [-122.38333808199997, 37.72030660400003], [-122.38333722799996, 37.72030472900008], [-122.38332584599999, 37.72028202000007], [-122.38329601899994, 37.72024852200008], [-122.38328838799998, 37.72022539100004], [-122.38327306199994, 37.72017148200007], [-122.38323925999998, 37.720134614000074], [-122.38322456199995, 37.72011621000007], [-122.38319129099995, 37.72008959800007], [-122.38316565099996, 37.72007283900007], [-122.38312251299999, 37.72005302400004], [-122.38309636799994, 37.72003961100006], [-122.38304530599999, 37.720014674000026], [-122.38301723999996, 37.72000125100004], [-122.38301139599997, 37.71999933700005], [-122.38287386699994, 37.71992855900004], [-122.38269177499996, 37.719871676000025], [-122.382542135, 37.71978620600004], [-122.38237777499995, 37.71967310600007], [-122.38209437899997, 37.71952717200003], [-122.38198395999996, 37.71948413000007], [-122.38181178499997, 37.71938165300003], [-122.38172772399997, 37.71933113400007], [-122.38170152999999, 37.71929682800004], [-122.38165461799997, 37.719226856000034], [-122.38162529199997, 37.71919791700003], [-122.38162326499997, 37.71919329200006], [-122.38156792299998, 37.71908988800004], [-122.38156225199998, 37.719059782000045], [-122.381554543, 37.71903987600007], [-122.38154309099997, 37.719014307000066], [-122.381513343, 37.71897758400007], [-122.38146289299999, 37.71891818200004], [-122.38142432099994, 37.718875997000055], [-122.38140191999997, 37.71884487900007], [-122.38138340999996, 37.71882514500004], [-122.38135480999995, 37.718808282000055], [-122.38131398399997, 37.718786195000064], [-122.38129569099999, 37.71877504100007], [-122.38125572199999, 37.71876137300006], [-122.38122684299998, 37.718758972000046], [-122.38119143999995, 37.718755514000065], [-122.38115975599999, 37.71876448900008], [-122.38110630699998, 37.718757563000054], [-122.38078552099995, 37.71877987100004], [-122.38071790199996, 37.71876813800003], [-122.38068667299996, 37.718764736000026], [-122.38062488299994, 37.71874283200003], [-122.38056316499996, 37.718723787000044], [-122.38044347499999, 37.71869136200007], [-122.38041445199997, 37.718683241000065], [-122.380392342, 37.71866197500003], [-122.38035222799999, 37.718644175000065], [-122.38034113599997, 37.718632908000075], [-122.38031542699997, 37.71861328800003], [-122.38026047499994, 37.71857696700005], [-122.38024435099999, 37.71856731300005], [-122.380226989, 37.71854416700006], [-122.38012253699998, 37.71849703300006], [-122.38010950199998, 37.71849431800007], [-122.38007430999994, 37.71847979000006], [-122.38004881599994, 37.718468751000046], [-122.38003059599998, 37.71846045800004], [-122.37999077199999, 37.71845251000008], [-122.37997269599998, 37.71844993700006], [-122.37995080299999, 37.71843884100008], [-122.37993629099998, 37.71843223500008], [-122.37983474499998, 37.718367165000075], [-122.37979495799999, 37.718364887000064], [-122.379772162, 37.71835652200008], [-122.37973950599996, 37.71834492600004], [-122.37972488599996, 37.71833657500008], [-122.37971732299997, 37.718322390000026], [-122.37971343299995, 37.71831100500003], [-122.37970543699998, 37.71827965800003], [-122.37970471299997, 37.71825105600004], [-122.37971350999999, 37.71822068000006], [-122.37972839799994, 37.71819058900007], [-122.379763175, 37.718141391000074], [-122.37979826399999, 37.71809447700008], [-122.37981912199996, 37.71807468700007], [-122.37984720299994, 37.71804562700004], [-122.37985728099994, 37.718016850000026], [-122.37986750499999, 37.71799379600003], [-122.37987412799998, 37.71797079900006], [-122.37986782299998, 37.71794256800007], [-122.37986533499998, 37.717907989000025], [-122.37986108299998, 37.717882305000046], [-122.37982869199999, 37.71784256300003], [-122.37980922799994, 37.71782590500004], [-122.37975823999994, 37.71780382700007], [-122.37968104099997, 37.71778080100006], [-122.37963509199994, 37.71777244200007], [-122.37961284199997, 37.71775178100006], [-122.37958742099994, 37.71774360300003], [-122.37957294599994, 37.71774097300005], [-122.37954759699994, 37.71773565400008], [-122.37951130099998, 37.717724788000055], [-122.37948609699998, 37.71772519000007], [-122.37945023599997, 37.71773148500006], [-122.37942877699999, 37.71773755000004], [-122.37941084599998, 37.71774069800006], [-122.37938953199995, 37.71775248300003], [-122.37935734299998, 37.71776158100005], [-122.37933228299994, 37.71776770300005], [-122.37927128999996, 37.71777726100004], [-122.37921720799994, 37.71777526200003], [-122.37918420199998, 37.717769402000044], [-122.37914108899997, 37.717756449000035], [-122.37911192199999, 37.71774260500007], [-122.37908268399997, 37.71772590300003], [-122.37904257099996, 37.71770651400004], [-122.37899864099995, 37.717678601000046], [-122.37896204599997, 37.717655996000076], [-122.37893648899995, 37.71764239400005], [-122.37891819799995, 37.71763124100005], [-122.37888175699999, 37.71761465600008], [-122.37884553499998, 37.717606647000025], [-122.37881651299995, 37.717598526000074], [-122.37876796199998, 37.71758622200008], [-122.37874348899999, 37.71755963100003], [-122.37872886899999, 37.717551280000066], [-122.37870690599999, 37.717537324000034], [-122.37867744799996, 37.71752298800004], [-122.37865224499996, 37.71751244300003], [-122.37860860399996, 37.71749597100006], [-122.37857936599994, 37.71747927100006], [-122.37851051999996, 37.717463199000065], [-122.37847177199995, 37.71744784400005], [-122.37845542699995, 37.71742115700005], [-122.37843691799998, 37.71740142200008], [-122.37839197699998, 37.71733346600007], [-122.37835477599998, 37.71728189300006], [-122.37833227099998, 37.71725143800006], [-122.37829194199998, 37.71722346800004], [-122.37825895699996, 37.717201103000036], [-122.37821884599998, 37.71718171200007], [-122.37817160499998, 37.717165297000065], [-122.37812450699994, 37.71715460300004], [-122.37802729199996, 37.717156153000076], [-122.37798099599996, 37.717168859000026], [-122.37795542499998, 37.71716302200008], [-122.37791560199997, 37.71715507400006], [-122.37787217699997, 37.717139306000036], [-122.37783926699996, 37.71712767500003], [-122.37780649999996, 37.717113891000054], [-122.37776998899994, 37.717094443000065], [-122.37771540199998, 37.71707242300005], [-122.37768976299998, 37.71705566300005], [-122.37760106799999, 37.71701634900006], [-122.37757670099995, 37.717000238000026], [-122.37751102299995, 37.71696694800005], [-122.37745254899994, 37.716933545000074], [-122.37741229099998, 37.71690843300007], [-122.37733978099999, 37.71687852200006], [-122.37724067899995, 37.71681674300004], [-122.37709434599998, 37.716727511000045], [-122.377017723, 37.71668867300008], [-122.37690415499998, 37.71661322500006], [-122.37680916899996, 37.71656037300005], [-122.37676502299996, 37.71652387800003], [-122.37673604699995, 37.71650419300005], [-122.37667313199995, 37.716450946000066], [-122.37664374999997, 37.71642852400004], [-122.37658152999995, 37.71638945600006], [-122.37648323199994, 37.71634810100005], [-122.37646109699995, 37.71633783400006], [-122.37642638699998, 37.71630592100007], [-122.37629415699996, 37.71625117000008], [-122.37627136699996, 37.716231298000025], [-122.37622671399998, 37.716189523000025], [-122.37621202599996, 37.71616357100004], [-122.37620439199998, 37.716146526000045], [-122.37619661299999, 37.71612375700005], [-122.37619495299998, 37.716057972000044], [-122.37621460699995, 37.71598040200007], [-122.37621784799995, 37.71596604300004], [-122.37622711799997, 37.71594213100008], [-122.37627336099996, 37.71588217900006], [-122.37637150499995, 37.71577474500003], [-122.37644516599994, 37.71569631500006], [-122.37652545099996, 37.715594887000066], [-122.37658823799995, 37.71551376900004], [-122.37661999499994, 37.71547050200007], [-122.376643608, 37.71542418400003], [-122.37670596199996, 37.71532590400005], [-122.37679956399995, 37.71518134400003], [-122.37685154999997, 37.71512703500008], [-122.37687344099999, 37.71511149400004], [-122.37690159499999, 37.71508529300007], [-122.37693334999994, 37.715059035000024], [-122.37696827099995, 37.71501555800006], [-122.37699980999997, 37.714980721000074], [-122.37702988599995, 37.71494949100003], [-122.37705157599999, 37.71489119100005], [-122.37709657799996, 37.71481894000004], [-122.37713156999996, 37.714778323000075], [-122.37713812199996, 37.71475246600005], [-122.37715460799996, 37.71469211400006], [-122.37715417299995, 37.71467495300004], [-122.37717167099999, 37.71465464500005], [-122.37719615199995, 37.714625641000055], [-122.37722692999995, 37.71458971000004], [-122.37724233799997, 37.71457136600003], [-122.37731435799998, 37.71447485300007], [-122.37736593699998, 37.71441126000008], [-122.37738898399999, 37.71438886000004], [-122.37740126399996, 37.71436603300003], [-122.37740992099998, 37.714347788000055], [-122.37741559999995, 37.71433200400003], [-122.37744239099999, 37.714309849000074], [-122.37746341399998, 37.71429985700007], [-122.37749202999998, 37.71428974300005], [-122.37753729299999, 37.714276950000055], [-122.37758471299998, 37.71426034000007], [-122.37761858399995, 37.714246683000056], [-122.37766080999995, 37.71423393900005], [-122.37769547099998, 37.71422252200006], [-122.37775139799999, 37.714210766000065], [-122.37780589599998, 37.714202655000065], [-122.37785115999998, 37.71418986100008], [-122.37787822499996, 37.714178566000044], [-122.37789022499999, 37.71417234000006], [-122.37789695599997, 37.71416478900005], [-122.37789714899998, 37.71414567100004], [-122.37789377699994, 37.714132446000065], [-122.37788724299998, 37.71411444300003], [-122.37787633599999, 37.714103753000074], [-122.37785923199999, 37.71408833500004], [-122.37784382899997, 37.714080128000035], [-122.37783927199996, 37.71408020100006], [-122.37782393099997, 37.71407441000008], [-122.37782544899994, 37.71407438600005], [-122.37781928199996, 37.71407086200003], [-122.37782192099996, 37.71406123600008], [-122.37783331299994, 37.714040348000026], [-122.37785095399994, 37.71402576200006], [-122.37807337199996, 37.713847670000064], [-122.37820758799995, 37.71374252100003], [-122.37823403499999, 37.71372153100003], [-122.37827527299999, 37.71371282800004], [-122.37830040199998, 37.713709566000034], [-122.37832200599996, 37.713709221000045], [-122.37835448799996, 37.713705289000075], [-122.378382924, 37.71369680400005], [-122.37839343599995, 37.713685191000025], [-122.37840725999996, 37.71366208200004], [-122.37842086599994, 37.71363038800007], [-122.37843468999995, 37.71360727600006], [-122.37843360499994, 37.713564373000054], [-122.37844382799994, 37.71354131900006], [-122.37848160299995, 37.71349659600003], [-122.37853490999998, 37.713439718000075], [-122.37856982899996, 37.713396241000055], [-122.37860100399996, 37.71334710200006], [-122.37865723599998, 37.71329183700004], [-122.37871800499994, 37.713251154000034], [-122.37877777099999, 37.71321551900007], [-122.37883818299997, 37.71318308000008], [-122.37886618899995, 37.71315115800007], [-122.37890499999997, 37.71311906400007], [-122.37895435399997, 37.713064133000046], [-122.378985135, 37.71301191500004], [-122.37901587399995, 37.712945612000055], [-122.37907876199995, 37.71284528800004], [-122.37918261899995, 37.71270259700003], [-122.37924892899997, 37.71261855900008], [-122.37933789799996, 37.71250983500005], [-122.37937103699994, 37.71246209700007], [-122.37938831499997, 37.71243320700006], [-122.37940544999998, 37.71239859700006], [-122.37941891099996, 37.71236118500008], [-122.37945549499995, 37.71229501200003], [-122.37946354599995, 37.71227463100007], [-122.37949162599995, 37.71224556900006], [-122.379515734, 37.712212805000036], [-122.37954360599997, 37.712164622000046], [-122.37956779599995, 37.71212417600003], [-122.37957427299995, 37.71209545900007], [-122.37959209099995, 37.712060638000025], [-122.37962639799997, 37.712020231000054], [-122.37966124399998, 37.71197389300005], [-122.37971020199996, 37.711915884000064], [-122.37973439199999, 37.71187543900004], [-122.37975536299996, 37.711834614000054], [-122.37976124099998, 37.71179775300004], [-122.37978204799998, 37.71176594600007], [-122.37980674399995, 37.71174552400004], [-122.37988097699997, 37.711689971000055], [-122.37990948999999, 37.71167807100005], [-122.38001237999998, 37.711616340000035], [-122.38003707599995, 37.71159591600008], [-122.38005712699999, 37.711562178000065], [-122.38008192699999, 37.711517944000036], [-122.38011839899997, 37.71138907100004], [-122.38013540799994, 37.71135399100007], [-122.38014087299996, 37.711285230000044], [-122.38015259699995, 37.71117917200007], [-122.38015363399995, 37.71114676600007], [-122.38015581999997, 37.71102174500004], [-122.38016582899996, 37.71092950600007], [-122.38015536899997, 37.71086151500003], [-122.38014923699996, 37.710761465000076], [-122.38014815199995, 37.71071856200007], [-122.38012139399996, 37.71064405100003], [-122.38011688999995, 37.71062177400006], [-122.38008721899996, 37.71058791300004], [-122.38003865899998, 37.710569786000065], [-122.38001794599995, 37.71055468000003], [-122.37998151, 37.710538093000025], [-122.37994779399997, 37.710528958000054], [-122.37994725199997, 37.710528375000024], [-122.37994324499999, 37.71052772500008], [-122.37994161799998, 37.71052728400008], [-122.37991259799998, 37.71051916400006], [-122.37987263399998, 37.71050549500006], [-122.37981213699999, 37.71050646000003], [-122.37979449699998, 37.71050359900005], [-122.37961040399995, 37.710389801000076], [-122.37940372599996, 37.71031134300006], [-122.37905361799994, 37.71003534300007], [-122.37895198799998, 37.709948188000055], [-122.37888975799996, 37.70982089200004], [-122.37887914299995, 37.709808888000055], [-122.37888649099995, 37.709778080000035], [-122.378876005, 37.70976279000007], [-122.37886896499998, 37.70974601800003], [-122.37884168199997, 37.709683935000044], [-122.37883359499995, 37.70966850600007], [-122.37881430799996, 37.709635218000074], [-122.37879535599996, 37.709605434000025], [-122.37877880599996, 37.70957522600003], [-122.37875004699998, 37.709532522000075], [-122.37873585499995, 37.70950718800003], [-122.37870863699999, 37.70947015100006], [-122.37868587399998, 37.70945176600003], [-122.37866149399997, 37.709430232000045], [-122.37864612799996, 37.70941985700006], [-122.37863197099995, 37.70940602600007], [-122.37862034299997, 37.709391303000075], [-122.37859285799999, 37.709365251000065], [-122.37857831299999, 37.70935492000007], [-122.37855200199999, 37.70932927500007], [-122.37854008899996, 37.70931718300005], [-122.37852623099997, 37.70927840200005], [-122.37852438399995, 37.70926626100004], [-122.37850736299998, 37.709220996000056], [-122.37849174399997, 37.709187677000045], [-122.37848374899994, 37.70915837700005], [-122.37845933899996, 37.70903594200007], [-122.37844382899999, 37.70898244500006], [-122.37842510799999, 37.70895197100003], [-122.37834366399994, 37.708864567000035], [-122.37833964799995, 37.708861340000055], [-122.37830090999995, 37.70880075400004], [-122.37818703199997, 37.70874235000008], [-122.37816283199999, 37.70872391800003], [-122.37813073399997, 37.708704864000026], [-122.37808306399995, 37.70867128700007], [-122.37793732399996, 37.708604938000065], [-122.37788634299994, 37.708582860000035], [-122.37783802599995, 37.708571765000045], [-122.37780339099999, 37.70857786400006], [-122.377800219, 37.70857700400006], [-122.37769917999998, 37.70859290800007], [-122.37762600299999, 37.70863106300004], [-122.37756038899994, 37.708653868000056], [-122.37752327099997, 37.70866799300006], [-122.37743179699999, 37.70869365400006], [-122.37729033099998, 37.70873444800003], [-122.37712273299996, 37.708788654000045], [-122.37699113299999, 37.70886255500005], [-122.37687308199997, 37.70889638800003], [-122.37679088499999, 37.708957705000046], [-122.376589234, 37.70924597700008], [-122.37638984399996, 37.70955815800005], [-122.37639506399995, 37.709635742000046], [-122.37628127399995, 37.70967231000003], [-122.37607684999995, 37.70968769500007], [-122.37607379499997, 37.70968762200005], [-122.37600127199994, 37.70968877800004], [-122.37575844399998, 37.709652068000025], [-122.37574332399998, 37.709641161000036], [-122.37571404099998, 37.70963493800008], [-122.37560550899997, 37.709587648000024], [-122.37555924299994, 37.70956419400005], [-122.37551897099996, 37.709542740000074], [-122.37539215999999, 37.709420357000056], [-122.37519592499996, 37.709326728000065], [-122.37516811199998, 37.709312271000044], [-122.37511985799995, 37.70927933000007], [-122.37500507399994, 37.709213490000025], [-122.37494819599999, 37.70918477600003], [-122.37486452499996, 37.70915177100005], [-122.37480260099994, 37.70912414500003], [-122.37472987499996, 37.709096688000045], [-122.37462755499996, 37.709038227000065], [-122.37456869799996, 37.70899300000008], [-122.37453956399997, 37.70897667700007], [-122.37450629599999, 37.708942870000044], [-122.37447281299995, 37.70890048200005], [-122.37445005799998, 37.708855062000055], [-122.37443421499995, 37.70879808700005], [-122.37442614899999, 37.70876387900006], [-122.37442902699996, 37.70873521900006], [-122.37444429899995, 37.70869679000003], [-122.37444911499995, 37.70867481100004], [-122.37445933799995, 37.70865175700004], [-122.37447697799996, 37.70863717000003], [-122.37449087399995, 37.708616919000065], [-122.37451196999996, 37.70859655300006], [-122.37453681199997, 37.708581851000076], [-122.37459398099998, 37.70856377300004], [-122.37462484699995, 37.70855153100007], [-122.37469024799998, 37.708525043000066], [-122.374715305, 37.70851892100006], [-122.37475843499999, 37.70851537300007], [-122.37495427699997, 37.70850701100005], [-122.37500822499999, 37.70849504000006], [-122.37514307599997, 37.70848635900006], [-122.375398255, 37.70846512800006], [-122.37550942699994, 37.708446190000075], [-122.37562787299998, 37.70842999700005], [-122.37569710099996, 37.708427175000054], [-122.37574286099999, 37.708419581000044], [-122.37581472, 37.708412714000076], [-122.37595145399996, 37.708407675000046], [-122.37604491299999, 37.70840046400008], [-122.37611338899995, 37.70840223400006], [-122.37624681199998, 37.708408693000024], [-122.37632983199995, 37.70841595500008], [-122.37644055099997, 37.70842218800004], [-122.37649918399995, 37.708418979000044], [-122.37672261099999, 37.70842400300006], [-122.37693516499996, 37.70842633900003], [-122.37719466499999, 37.70843364900003], [-122.37736829699998, 37.708452288000046], [-122.37741110899998, 37.708447367000076], [-122.37753704199997, 37.70844249900006], [-122.37776032499994, 37.70844180000006], [-122.37823950799998, 37.70844846700004], [-122.37828998199996, 37.70845052300007], [-122.37834412999996, 37.70845538200007], [-122.37839093099996, 37.708454637000045], [-122.37842671699997, 37.70844548100007], [-122.37851672099998, 37.70844404600007], [-122.37855639499998, 37.70844627400004], [-122.37860334199996, 37.708451248000074], [-122.37864315999997, 37.708459197000025], [-122.37866850599994, 37.70846451600005], [-122.37869024999998, 37.70846989100005], [-122.37874807099996, 37.70847755300008], [-122.37886687599996, 37.708475658000054], [-122.37897120799994, 37.708471133000046], [-122.37900285499995, 37.70847024500006], [-122.37911478199999, 37.70845167400006], [-122.37919384099996, 37.70844468900003], [-122.37929104499995, 37.708443138000064], [-122.37940272299994, 37.70844421900006], [-122.379462263, 37.708448514000054], [-122.37956730899998, 37.70847801900004], [-122.37956926999999, 37.70847875800007], [-122.37959475999997, 37.70848979700003], [-122.37962017899997, 37.70849797500006], [-122.37967772299999, 37.70850902900003], [-122.37970763299995, 37.70851743000003], [-122.37974025899996, 37.70852833200007], [-122.37978850499996, 37.70854722200005], [-122.37997999399994, 37.70862671700007], [-122.38025679099997, 37.70874820000006], [-122.38033197199996, 37.70878655100006], [-122.38039497199998, 37.708800360000055], [-122.38046013699994, 37.70881362600005], [-122.38054330299997, 37.70882660500007], [-122.380583049, 37.708831693000036], [-122.38062985199997, 37.708830946000035], [-122.38071258499997, 37.70882676400004], [-122.38078458799998, 37.70882561500008], [-122.38090375599995, 37.70883801800005], [-122.38105172499996, 37.708849962000045], [-122.38118190999995, 37.70887077300006], [-122.38128307699998, 37.70888346400005], [-122.38138395399994, 37.70888471400008], [-122.38146675899998, 37.708883392000075], [-122.38159367899999, 37.708877897000036], [-122.38186099699999, 37.70889192300007], [-122.38187401299996, 37.70889405400004], [-122.38191181199994, 37.708904295000025], [-122.38199875499998, 37.70896989800008], [-122.38200960899997, 37.708986312000036], [-122.382028263, 37.70901176700005], [-122.38207674499995, 37.70904918900004], [-122.38211435899996, 37.709069603000046], [-122.38215391499995, 37.70909645200004], [-122.38219826199997, 37.70910513600006], [-122.38224720699998, 37.70912839400006], [-122.38230168099994, 37.70914188200004], [-122.38241503299997, 37.70915611700008], [-122.38249759299998, 37.709164549000036], [-122.38253052799996, 37.70916605100007], [-122.38255044899995, 37.709164248000036], [-122.38257160799998, 37.70916088000007], [-122.38260831299999, 37.70915791500005], [-122.38263968199999, 37.70916437400007], [-122.38265354899994, 37.709162623000054], [-122.382715814, 37.709157971000025], [-122.38272613799995, 37.709164300000054], [-122.38277254899998, 37.709173484000075], [-122.38284617999994, 37.709167516000036], [-122.38295482099994, 37.709170190000066], [-122.38302366799996, 37.709165049000035], [-122.38303683099997, 37.70916150200003], [-122.38306837099998, 37.709162443000025], [-122.38310177999995, 37.70916532700005], [-122.38318638399994, 37.70918122900008], [-122.38326857999999, 37.70919863900008], [-122.38339874599995, 37.70922811200006], [-122.38343227399997, 37.709231731000045], [-122.38352168399996, 37.70923253800004], [-122.38365185199996, 37.70922610900004], [-122.38368383199997, 37.70922743500006], [-122.38374904299997, 37.70922568000003], [-122.38380204899994, 37.70922218900006], [-122.38383761199998, 37.70922157200005], [-122.383886599, 37.70922729800003], [-122.38395691099998, 37.70924338000003], [-122.38397059299996, 37.70924579500007], [-122.38401144, 37.70924990000003], [-122.38404463399996, 37.70926796300006], [-122.38409482899999, 37.70927898700006], [-122.38412046499997, 37.709284334000074], [-122.38415204799998, 37.70928579900004], [-122.38420211199997, 37.70929188700006], [-122.38426195399995, 37.70929337700005], [-122.38433220299999, 37.70929348200008], [-122.38442496699997, 37.70929087600007], [-122.38445974399997, 37.709310532000075], [-122.38448516299997, 37.70931870900006], [-122.38452527299995, 37.709338098000046], [-122.38460181999994, 37.709374070000024], [-122.38481802399997, 37.70947351900003], [-122.38481838399997, 37.70947393100005], [-122.38514590399996, 37.709109813000055], [-122.38701346899995, 37.71017005300007], [-122.38829974299995, 37.70873996200004], [-122.38998733099999, 37.70969796600008], [-122.39038927699994, 37.70925105500004], [-122.390569288, 37.70935324000004], [-122.39113200299994, 37.70872756000006], [-122.39129277799998, 37.70854879400008], [-122.39142047499996, 37.70840680500004], [-122.39224355899995, 37.70840470600007], [-122.39272781399995, 37.70840346800003], [-122.393256082, 37.70840211600006], [-122.393038236, 37.70857967400008], [-122.39283853799998, 37.70874243800006], [-122.39234399499998, 37.70914551200008], [-122.39214870099994, 37.709304684000074], [-122.39155452099999, 37.70978895400003], [-122.39149315199995, 37.709842672000036], [-122.39145602299999, 37.70987367500004], [-122.39141821899995, 37.70990415800003], [-122.39137974999994, 37.70993411300003], [-122.39134063099999, 37.70996352900005], [-122.39130086999995, 37.709992398000054], [-122.39126048099996, 37.71002071100003], [-122.39121947599995, 37.71004846100004], [-122.39117786699995, 37.710075637000045], [-122.39114722, 37.71009159400006], [-122.39112435299995, 37.71010297300006], [-122.39110123999995, 37.710114033000025], [-122.391077887, 37.71012477100004], [-122.39105430199999, 37.710135183000034], [-122.39103049099998, 37.71014526700003], [-122.39100646299994, 37.71015501900007], [-122.39098222299998, 37.71016443700006], [-122.39095778099994, 37.710173517000044], [-122.39093314299998, 37.71018225600005], [-122.39090831599998, 37.71019065300004], [-122.39088330999999, 37.71019870400005], [-122.39085812999997, 37.71020640800003], [-122.39083278499999, 37.710213761000034], [-122.39080728099998, 37.71022076100007], [-122.39078162799996, 37.71022740600006], [-122.39075583299996, 37.710233695000056], [-122.39072990399995, 37.71023962600003], [-122.39070384799999, 37.71024519700006], [-122.39067767399996, 37.71025040400008], [-122.39065138999996, 37.71025524800007], [-122.39062500299997, 37.71025972700005], [-122.39059852199995, 37.71026384000004], [-122.390571954, 37.710267584000064], [-122.39054530799996, 37.71027096100005], [-122.38934644599999, 37.710345475000054], [-122.38933376099999, 37.71033524500007], [-122.38902557499995, 37.71035439800005], [-122.388970014, 37.71035617600006], [-122.38894140499997, 37.71035767500007], [-122.38891283399994, 37.71035957200007], [-122.38888430899999, 37.71036186500004], [-122.38885583899997, 37.710364552000044], [-122.38882743099998, 37.71036763400008], [-122.38879909599996, 37.71037110900005], [-122.38877084099994, 37.71037497700007], [-122.38874267599999, 37.71037923600005], [-122.38871460899998, 37.710383884000066], [-122.38868664799998, 37.71038892100006], [-122.38865880099996, 37.710394345000054], [-122.38863107899999, 37.71040015400007], [-122.38860348799994, 37.71040634700006], [-122.38857603699995, 37.71041292100006], [-122.38854873499997, 37.71041987500007], [-122.38852158999998, 37.71042720600008], [-122.38849460999995, 37.71043491300003], [-122.38816714199999, 37.710530332000076], [-122.38672253399994, 37.710966437000025], [-122.38669090699995, 37.71095077500007], [-122.38652119799997, 37.71100200600006], [-122.38675518899998, 37.711203365000074], [-122.38703141199994, 37.71113111500006], [-122.38704706299995, 37.71114192500005], [-122.38709120699997, 37.71118120800003], [-122.38709828499998, 37.71117730700007], [-122.38710169399997, 37.71117966000003], [-122.38715046899995, 37.71114854500007], [-122.38770043499994, 37.71161133500004], [-122.38789918199996, 37.711778578000064], [-122.38813648399997, 37.711978259000034], [-122.38872722399998, 37.71247534300005], [-122.38882997799999, 37.71256180000006], [-122.38938222099995, 37.713026488000025], [-122.38871406399994, 37.71322158400005], [-122.38871376399999, 37.71322167200003], [-122.38868371899997, 37.71323044400003], [-122.388210948, 37.71336848800007], [-122.38788437, 37.713463843000056], [-122.38788711899997, 37.71347259200007], [-122.38788989299997, 37.713481337000076], [-122.38789269399996, 37.713490077000074], [-122.38789551999997, 37.71349881000003], [-122.38789837299998, 37.71350754000008], [-122.38790124999997, 37.71351626300003], [-122.38790415499994, 37.713524980000045], [-122.387907085, 37.713533693000045], [-122.38791003999995, 37.71354240000005], [-122.38791302199996, 37.713551102000054], [-122.38791602899994, 37.71355979700007], [-122.38791906199998, 37.71356848800008], [-122.38792212099997, 37.713577171000054], [-122.38792520599998, 37.71358585000007], [-122.38792831699999, 37.71359452300004], [-122.38793145399995, 37.71360319100006], [-122.38793461499995, 37.71361185200004], [-122.38793780299994, 37.71362050700003], [-122.38794101599996, 37.713629156000025], [-122.38794425599997, 37.713637799000026], [-122.38794752099994, 37.71364643600003], [-122.38795081099994, 37.71365506700005], [-122.38795412699994, 37.71366369200007], [-122.38795746899996, 37.71367231000005], [-122.38796083599999, 37.71368092200004], [-122.38796422999997, 37.71368952800003], [-122.38796764799997, 37.71369812700004], [-122.38797109199999, 37.71370672000006], [-122.38797456199995, 37.71371530700003], [-122.38797805699994, 37.71372388800006], [-122.38798157699995, 37.713732460000074], [-122.38798512299996, 37.713741027000026], [-122.38798869399994, 37.71374958700005], [-122.38799229099999, 37.71375814100003], [-122.38799591199995, 37.71376668800008], [-122.38799955999997, 37.71377522700004], [-122.38800323299995, 37.71378376000007], [-122.38800693099995, 37.71379228600006], [-122.38801065399997, 37.71380080600005], [-122.38801440299994, 37.71380931700003], [-122.38801817799998, 37.713817823000056], [-122.38802197599995, 37.713826321000056], [-122.38802580099997, 37.71383481100003], [-122.38802965099995, 37.71384329500006], [-122.38803357199998, 37.71385187100003], [-122.38803751799998, 37.71386043900003], [-122.38804148999998, 37.713869000000045], [-122.38804548799999, 37.71387755300003], [-122.38804951099996, 37.713886098000046], [-122.38805355999995, 37.71389463600008], [-122.38805763499994, 37.71390316600008], [-122.38806173599994, 37.71391168800005], [-122.38806586099997, 37.71392020300004], [-122.38807001299995, 37.71392871000006], [-122.38807418999994, 37.71393720800006], [-122.38807839299994, 37.71394570000007], [-122.38808262099997, 37.713954183000055], [-122.38808685299995, 37.713962613000035], [-122.38809110899996, 37.71397103500004], [-122.38809538999999, 37.71397944800003], [-122.38809969699997, 37.71398785500003], [-122.38810402999997, 37.71399625300006], [-122.38810838699999, 37.71400464300007], [-122.38811276899997, 37.714013023000064], [-122.38811717599998, 37.71402139700007], [-122.38812160799995, 37.71402976200005], [-122.38812606399995, 37.714038118000076], [-122.38813054699995, 37.71404646600007], [-122.38813505499996, 37.714054805000046], [-122.38813958599997, 37.71406313700004], [-122.38814414299998, 37.714071459000024], [-122.38814872499995, 37.71407977300004], [-122.38815333199994, 37.71408807800003], [-122.38815796199998, 37.714096375000054], [-122.38816261899996, 37.71410466200007], [-122.38816729999996, 37.71411294100005], [-122.38817200599999, 37.71412121100008], [-122.38817673499994, 37.714129472000025], [-122.38818149099995, 37.71413772400007], [-122.388186271, 37.714145967000036], [-122.38819107599994, 37.71415420100004], [-122.38819590399999, 37.71416242600003], [-122.38820075799998, 37.71417064100007], [-122.38820563599995, 37.714178848000074], [-122.38821053899994, 37.71418704600006], [-122.38821546599996, 37.714195234000044], [-122.38822041699996, 37.714203413000064], [-122.38822539399996, 37.714211583000065], [-122.38823039399995, 37.71421974200007], [-122.38823541899995, 37.71422789300004], [-122.38824046799999, 37.714236034000066], [-122.38824554099995, 37.71424416600007], [-122.38825063899998, 37.71425228700008], [-122.38825576199997, 37.71426040000006], [-122.38826090699996, 37.71426850200004], [-122.38826607799996, 37.71427659500006], [-122.38827127299999, 37.71428467800007], [-122.38827649199999, 37.71429275100007], [-122.38828173499996, 37.71430081500006], [-122.38828700299996, 37.714308869000035], [-122.38829229299995, 37.71431691200007], [-122.38829760899995, 37.71432494600003], [-122.38830294799999, 37.714332969000054], [-122.38830831199999, 37.714340983000056], [-122.38831369799999, 37.71434898600006], [-122.38831910999994, 37.71435697800007], [-122.38832454499999, 37.71436496200005], [-122.38833000299996, 37.71437293400004], [-122.38833548599996, 37.71438089600008], [-122.38834099299999, 37.714388848000056], [-122.38834652299994, 37.714396789000034], [-122.38835207699998, 37.71440472000006], [-122.38835765399995, 37.714412641000024], [-122.38836325499994, 37.714420551000046], [-122.38836888099996, 37.71442845000007], [-122.38837452899998, 37.71443633800004], [-122.38838020099996, 37.71444421700005], [-122.38838589699998, 37.71445208400007], [-122.38839161599998, 37.71445994000004], [-122.38839735799996, 37.71446778600006], [-122.38840312499997, 37.714475621000076], [-122.38840891399997, 37.71448344500004], [-122.38841472699994, 37.714491258000066], [-122.38842056299995, 37.71449906000004], [-122.38842642299994, 37.71450685100007], [-122.38843230499998, 37.71451463100004], [-122.388438211, 37.71452239900003], [-122.38844414099998, 37.71453015700007], [-122.38845009299996, 37.71453790400005], [-122.38845606899997, 37.71454563900005], [-122.38859737199999, 37.71472912000007]]]]}, "properties": {"expiration": "2036-01-01T00:00:00.000", "project_ar": "Bayview Hunters Point Area B Zone 1", "link": {"url": "http://www.sfbos.org/ftp/uploadedfiles/bdsupvrs/resolutions12/r0011-12.pdf"}, "link2": {"url": "https://sfocii.org/hunters-point-shipyard-and-candlestick-point"}}}]}