{
  "type": "FeatureCollection",
  "features": [
    {
      "type": "Feature",
      "geometry": {
        "type": "Polygon",
        "coordinates": [
          [
            [
              9.648778459818997,
              45.69785197349028
            ],
            [
              9.648773242003058,
              45.697878384570686
            ],
            [
              9.648571821227565,
              45.697860473449595
            ],
            [
              9.64799501129046,
              45.697809165489154
            ],
            [
              9.648000885282809,
              45.697783929831715
            ],
            [
              9.648778459818997,
              45.69785197349028
            ]
          ]
        ]
      },
      "properties": {
        "id": "2002141"
      }
    },
    {
      "type": "Feature",
      "geometry": {
        "type": "Polygon",
        "coordinates": [
          [
            [
              9.647582266710668,
              45.69786785105164
            ],
            [
              9.647437093651094,
              45.69789890765956
            ],
            [
              9.64724474578808,
              45.69794815202043
            ],
            [
              9.647200336078798,
              45.69796217488913
            ],
            [
              9.647019044929616,
              45.6980123373234
            ],
            [
              9.6468493672643,
              45.69805488201427
            ],
            [
              9.646642368806505,
              45.69810356924991
            ],
            [
              9.646329112008047,
              45.69818301010185
            ],
            [
              9.646151347366532,
              45.69822721965561
            ],
            [
              9.64614616081407,
              45.698200696526385
            ],
            [
              9.646323408504262,
              45.698156219879984
            ],
            [
              9.646636140093488,
              45.698075800924954
            ],
            [
              9.646931506158412,
              45.698005542382866
            ],
            [
              9.647252226399184,
              45.69791740778949
            ],
            [
              9.647443451642186,
              45.697871068046865
            ],
            [
              9.64757488008601,
              45.69784107043118
            ],
            [
              9.647582266710668,
              45.69786785105164
            ]
          ]
        ]
      },
      "properties": {
        "id": "2002142"
      }
    },
    {
      "type": "Feature",
      "geometry": {
        "type": "Polygon",
        "coordinates": [
          [
            [
              9.651351532831034,
              45.70097753421474
            ],
            [
              9.651158533561935,
              45.70101553781277
            ],
            [
              9.650905191029432,
              45.70106617103601
            ],
            [
              9.65051998305762,
              45.70114733837128
            ],
            [
              9.650460410224206,
              45.70115993669831
            ],
            [
              9.650444743735587,
              45.70110277161114
            ],
            [
              9.650731926209438,
              45.70104696920565
            ],
            [
              9.651028557252605,
              45.70098297548398
            ],
            [
              9.651330429373967,
              45.700919050120234
            ],
            [
              9.651351532831034,
              45.70097753421474
            ]
          ]
        ]
      },
      "properties": {
        "id": "2002143"
      }
    }
  ]
}

