{
  "type": "FeatureCollection",
  "features": [
    {"type":"Feature","properties":{"id":"226101_1.0055.284/13"},"geometry":{"type":"Polygon","coordinates":[[[18.610319318157,54.373075254029],[18.610315897492,54.373021004232],[18.610322893899,54.37300506609],[18.610333695276,54.372996655792],[18.610351646269,54.372982638885],[18.610365617807,54.372990834099],[18.610670378346,54.372880848625],[18.610722022753,54.372918143091],[18.610914196477,54.373133610256],[18.610682760126,54.373186352842],[18.610515132588,54.373225025864],[18.610489977871,54.373230633681],[18.610398962335,54.373143134476],[18.610415852216,54.373130201078],[18.610344493508,54.373102170458],[18.610319318157,54.373075254029]]]}} ,
    {"type":"Feature","properties":{"id":"226101_1.0055.284/15"},"geometry":{"type":"Polygon","coordinates":[[[18.610914196477,54.373133610256],[18.610722022753,54.372918143091],[18.610670378346,54.372880848625],[18.610713543636,54.372865266584],[18.610957906266,54.373123595837],[18.610914196477,54.373133610256]]]}} ,
    {"type":"Feature","properties":{"id":"226101_1.0055.279/9"},"geometry":{"type":"Polygon","coordinates":[[[18.611016106311,54.373249984409],[18.610983997066,54.373212141977],[18.610914196477,54.373133610256],[18.610957906266,54.373123595837],[18.611061975828,54.373240318407],[18.611016106311,54.373249984409]]]}}
  ]
}
