{
  "type": "FeatureCollection",
  "features": [
    {"type": "Feature", "geometry": {"type": "Polygon", "coordinates": [[[72.297548650000067,32.274449610000033],[72.297548650000067,32.27437677000006],[72.297715270000083,32.27437677000006],[72.297715270000083,32.274449610000033],[72.297548650000067,32.274449610000033]]]}, "properties": {"id": "GPCParcelId:278817"}},
    {"type": "Feature", "geometry": {"type": "Polygon", "coordinates": [[[72.289361810000059,32.274033860000031],[72.289491220000059,32.274033860000031],[72.289491220000059,32.274220770000056],[72.289361810000059,32.274220770000056],[72.289361810000059,32.274033860000031]]]}, "properties": {"id": "GPCParcelId:288296"}},
    {"type": "Feature", "geometry": {"type": "Polygon", "coordinates": [[[72.288016030000051,32.276195350000023],[72.287854260000074,32.276195350000023],[72.287854260000074,32.276112890000036],[72.288016030000051,32.276112890000036],[72.288016030000051,32.276195350000023]]]}, "properties": {"id": "GPCParcelId:293973"}}
  ]
}
