{
  "type": "FeatureCollection",
  "features": [
    {
      "type": "Feature",
      "id": "{50334F29-2A5A-4B44-AA2B-C45F9FA4FBEC}",
      "properties": {"id": "{50334F29-2A5A-4B44-AA2B-C45F9FA4FBEC}"},
      "geometry": {"type": "Polygon", "coordinates": [[[-15.429626210965642,28.113372784846803],[-15.429716489061038,28.11332528261778],[-15.429641970874526,28.113214278108583],[-15.429551661168917,28.113261753306833],[-15.429626210965642,28.113372784846803]]]}
    },
    {
      "type": "Feature",
      "id": "{C29A2E8D-F0C9-4A07-B48E-6EC9DC1A1D36}",
      "properties": {"id": "{C29A2E8D-F0C9-4A07-B48E-6EC9DC1A1D36}"},
      "geometry": {"type": "Polygon", "coordinates": [[[-15.42893749802591,28.111920987724083],[-15.429041027033398,28.111867406324446],[-15.429076630272718,28.111860073327446],[-15.4291030741343,28.111878946403429],[-15.429118434225622,28.111901465862854],[-15.429153082686058,28.111884206124103],[-15.429135769247631,28.111857180179353],[-15.429113203677131,28.111866277798569],[-15.429083597581252,28.111845608314173],[-15.429039042379106,28.111854774721248],[-15.429023681292945,28.111832255255703],[-15.429026434947637,28.111807874620141],[-15.429000046010112,28.111802540967684],[-15.429003096889383,28.111776353098193],[-15.428980478469622,28.111771911250347],[-15.428984548455492,28.111745720193277],[-15.428959991069144,28.111740380803646],[-15.428964068245714,28.111715996029041],[-15.428937682925039,28.111711565053891],[-15.428942658420549,28.111682663062858],[-15.428916163103597,28.111676427928419],[-15.428921163742038,28.111653844765705],[-15.428895686513391,28.111647605540298],[-15.42890067997635,28.111623217901535],[-15.428870109766798,28.111616091898462],[-15.428876096181341,28.111585382248794],[-15.428831871864329,28.111524137783896],[-15.428765844706133,28.111561354068414],[-15.428782230962588,28.111585675760999],[-15.428732872590032,28.111667071354301],[-15.428764453709467,28.111672388403429],[-15.428759478162934,28.111701289907884],[-15.428785868082443,28.111706623603936],[-15.428781801636053,28.111733716442764],[-15.428803198342278,28.111738163046262],[-15.42879943014772,28.111763450453793],[-15.428825921892829,28.111768783823564],[-15.428821844683123,28.111793168594243],[-15.428848233610015,28.111798502281118],[-15.428845479918772,28.111822883816266],[-15.428870953591778,28.111828219458065],[-15.428866992565611,28.111856215572711],[-15.428892462660089,28.11186064942342],[-15.42888838546228,28.111885034195623],[-15.428915792500726,28.111890364685173],[-15.42893749802591,28.111920987724083]]]}
    }
  ]
}
