{
  "type": "FeatureCollection",
  "features": [
    {
      "type": "Feature",
      "properties": {
        "id": "0013G00229000000"
      },
      "geometry": {
        "type": "Polygon",
        "coordinates": [
          [
            [
              -79.970279641753748,
              40.419830082720424
            ],
            [
              -79.970353273673581,
              40.41984066040915
            ],
            [
              -79.97038997151904,
              40.41965550856596
            ],
            [
              -79.970316021343663,
              40.419646449676549
            ],
            [
              -79.970279641753748,
              40.419830082720424
            ]
          ]
        ]
      }
    }
  ]
}
