{"type":"FeatureCollection","features":[{"type":"Feature","id":"Persil.fid--1f3b175f_1a1217fc54e_-647","geometry":{"type":"Polygon","coordinates":[[[106.2472,-6.3451],[106.2473,-6.3451],[106.2473,-6.345],[106.2473,-6.345],[106.2472,-6.345],[106.2472,-6.3449],[106.247,-6.3449],[106.247,-6.3452],[106.2471,-6.3452],[106.2472,-6.3452],[106.2472,-6.3452],[106.2472,-6.3451]]]},"properties":{"id":"Persil.fid--1f3b175f_1a1217fc54e_-647"}},{"type":"Feature","id":"Persil.fid--1f3b175f_1a1217fc54e_-646","geometry":{"type":"Polygon","coordinates":[[[106.2473,-6.3454],[106.2473,-6.3453],[106.2472,-6.3452],[106.247,-6.3452],[106.247,-6.3452],[106.247,-6.3453],[106.2471,-6.3455],[106.247,-6.3455],[106.2471,-6.3455],[106.2467,-6.3456],[106.2467,-6.3457],[106.2471,-6.3456],[106.2473,-6.3456],[106.2473,-6.3454],[106.2473,-6.3454]]]},"properties":{"id":"Persil.fid--1f3b175f_1a1217fc54e_-646"}},{"type":"Feature","id":"Persil.fid--1f3b175f_1a1217fc54e_-645","geometry":{"type":"Polygon","coordinates":[[[106.2476,-6.3432],[106.2475,-6.3432],[106.2475,-6.3432],[106.2475,-6.3432],[106.2475,-6.3433],[106.2476,-6.3433],[106.2476,-6.3432]]]},"properties":{"id":"Persil.fid--1f3b175f_1a1217fc54e_-645"}}]}
