{"type":"FeatureCollection","features":[{"type":"Feature","properties":{"id":"674820040083"},"geometry":{"type":"Polygon","coordinates":[[[7.741872355138749,48.57768124846904],[7.741921210411697,48.5777059757991],[7.741976780032426,48.57770721888972],[7.741976901347597,48.577713061442694],[7.742139462236838,48.57771159909833],[7.74213933757075,48.577705720641546],[7.742133954288854,48.57741276316552],[7.742101020359426,48.57739118752295],[7.742088391707183,48.57739132518353],[7.742003566440602,48.577392187714075],[7.74197127197084,48.57741407733276],[7.741774959538541,48.57756042144141],[7.741772390540056,48.57756214822402],[7.741914637103664,48.57765153550233],[7.741878232094055,48.57767712499081],[7.741872355138749,48.57768124846904]]]}},{"type":"Feature","properties":{"id":"674820040082"},"geometry":{"type":"Polygon","coordinates":[[[7.741872355138749,48.57768124846904],[7.741310950192353,48.57807596895446],[7.741307884180552,48.57807394984137],[7.741253937963823,48.5781124463773],[7.741250468201563,48.57811017345844],[7.741192799308147,48.578150696148505],[7.741194850113038,48.57815201792147],[7.741145954775707,48.578185830050806],[7.741143628628744,48.57818432130615],[7.741016385333426,48.578273304231644],[7.741021577283556,48.578276723148825],[7.740997075612523,48.57829378004616],[7.741196669734474,48.57836287725336],[7.741294539324394,48.5783969188375],[7.741551662679773,48.57847518873456],[7.741715228001868,48.57850851880731],[7.741718263528051,48.57849528518071],[7.741720727204561,48.57849578818222],[7.741726355057893,48.578470690542275],[7.74176533588378,48.5784769454392],[7.741793864510088,48.57848104154862],[7.74193217603099,48.57850137463783],[7.741996369560209,48.57835383412425],[7.742024928058783,48.57829183137445],[7.742060293414733,48.57829161154119],[7.74210684366502,48.57824628992094],[7.742099181317087,48.577930531148866],[7.742143896916785,48.57793128068139],[7.742140222150963,48.57775050940485],[7.742139462236838,48.57771159909833],[7.741976901347597,48.577713061442694],[7.741976780032426,48.57770721888972],[7.741921210411697,48.5777059757991],[7.741872355138749,48.57768124846904]]]}},{"type":"Feature","properties":{"id":"674820090052"},"geometry":{"type":"Polygon","coordinates":[[[7.742242764856219,48.57771333311056],[7.742239414947067,48.57754264878186],[7.742237192340593,48.57743033943725],[7.742235056780988,48.57731867525371],[7.742101020359426,48.57739118752295],[7.742133954288854,48.57741276316552],[7.74213933757075,48.577705720641546],[7.742139462236838,48.57771159909833],[7.742140222150963,48.57775050940485],[7.742143896916785,48.57793128068139],[7.742099181317087,48.577930531148866],[7.74210684366502,48.57824628992094],[7.742256318947628,48.57824265922034],[7.742256687455744,48.578227903748406],[7.742258860155759,48.57813588559973],[7.742259507751597,48.57807103195171],[7.742253394595165,48.57806983116166],[7.742249263142694,48.57806672034894],[7.742242818546302,48.57771610600672],[7.742242764856219,48.57771333311056]]]}}]}
