{
  "type": "FeatureCollection",
  "features": [
    {
      "type": "Feature",
      "geometry": {
        "type": "MultiPolygon",
        "coordinates": [
          [
            [
              [
                76.91248438,
                8.65329109
              ],
              [
                76.91234012,
                8.65325358
              ],
              [
                76.91221959,
                8.65325595
              ],
              [
                76.91221137,
                8.65295495
              ],
              [
                76.91233131,
                8.65263298
              ],
              [
                76.91237218,
                8.652634
              ],
              [
                76.912666,
                8.65257473
              ],
              [
                76.91280198,
                8.65249434
              ],
              [
                76.91286349,
                8.65257855
              ],
              [
                76.91287278,
                8.65263376
              ],
              [
                76.91267113,
                8.65280336
              ],
              [
                76.9126742,
                8.65286008
              ],
              [
                76.91268003,
                8.65291293
              ],
              [
                76.91265047,
                8.6529196
              ],
              [
                76.9126421,
                8.65293086
              ],
              [
                76.91262009,
                8.65306037
              ],
              [
                76.91248438,
                8.65329109
              ]
            ]
          ]
        ]
      },
      "properties": {
        "parcel_gid": "ce0688a8-8689-41b8-8d14-1edd191a86ee",
        "survey_no": "41",
        "block_no": "27"
      }
    }
  ]
}
