{"type":"FeatureCollection","name":"Bilbao official cadastral parcel sample at UN WUP locator","source":"Bizkaiko Foru Aldundia / Diputación Foral de Bizkaia, WFS Parcelas","sourceCrs":"EPSG:25830","license":"CC BY 4.0","queryLimit":3,"features":[{"type":"Feature","id":"Parcelas.74763","properties":{"OBJECTID":74763,"Codigo_Mun":20,"Codigo_Pol":1106,"Codigo_Par":2010,"source_record_id_field":"OBJECTID","contains_wup_point":true},"geometry":{"type":"MultiPolygon","coordinates":[[[[503254.36,4792205.18],[503238.65,4792198.81],[503236.78,4792203.44],[503234.85,4792207.61],[503230.52,4792214.85],[503234.45,4792217.68],[503237.0,4792214.1],[503240.45,4792216.56],[503243.21,4792212.68],[503248.2,4792215.68],[503252.1,4792209.38],[503254.36,4792205.18]]]]}}]}
