{
  "type": "FeatureCollection",
  "name": "bucaramanga_amb_wup555",
  "crs": {
    "type": "name",
    "properties": {
      "name": "urn:ogc:def:crs:OGC:1.3:CRS84"
    }
  },
  "features": [
    {
      "type": "Feature",
      "id": "44901",
      "geometry": {
        "type": "Polygon",
        "coordinates": [
          [
            [
              -73.11326426299996,
              7.102420438000024
            ],
            [
              -73.11325739799997,
              7.10242491200006
            ],
            [
              -73.11237640599995,
              7.102944069000046
            ],
            [
              -73.11237291799995,
              7.102945969000075
            ],
            [
              -73.11236894899997,
              7.102949939000041
            ],
            [
              -73.11236796499998,
              7.1029542870000455
            ],
            [
              -73.11236756199997,
              7.102958880000074
            ],
            [
              -73.11236863999994,
              7.102963367000029
            ],
            [
              -73.11237066699994,
              7.102967075000038
            ],
            [
              -73.11237452899996,
              7.1029707990000475
            ],
            [
              -73.11279578999995,
              7.103701562000026
            ],
            [
              -73.11280221999994,
              7.103710612000043
            ],
            [
              -73.11281272899998,
              7.1037256890000435
            ],
            [
              -73.11282014599993,
              7.103731880000055
            ],
            [
              -73.11282818699993,
              7.1037379530000635
            ],
            [
              -73.11284207899996,
              7.103744693000067
            ],
            [
              -73.11285539199997,
              7.103747332000069
            ],
            [
              -73.11287023199998,
              7.103746078000029
            ],
            [
              -73.11288275299995,
              7.103745024000034
            ],
            [
              -73.11337774799995,
              7.1036848030000215
            ],
            [
              -73.11339380099997,
              7.103682614000036
            ],
            [
              -73.11339913799998,
              7.103680048000058
            ],
            [
              -73.11340633199995,
              7.103675898000063
            ],
            [
              -73.11341552699997,
              7.1036693610000725
            ],
            [
              -73.11342229499996,
              7.1036631530000705
            ],
            [
              -73.11342805099997,
              7.103655305000075
            ],
            [
              -73.11343105499998,
              7.103645928000049
            ],
            [
              -73.11343096099995,
              7.103636272000074
            ],
            [
              -73.11342986699998,
              7.103623859000038
            ],
            [
              -73.11335325399995,
              7.103007881000053
            ],
            [
              -73.11336040999998,
              7.103006935000053
            ],
            [
              -73.11329419399993,
              7.102438867000046
            ],
            [
              -73.11329216199994,
              7.102435614000058
            ],
            [
              -73.11328924099996,
              7.1024307530000215
            ],
            [
              -73.11328503699997,
              7.102425874000062
            ],
            [
              -73.11328013399998,
              7.102422709000052
            ],
            [
              -73.11326876699997,
              7.10241978800002
            ],
            [
              -73.11326426299996,
              7.102420438000024
            ]
          ]
        ]
      },
      "properties": {
        "OBJECTID_1": 44901,
        "codigo": "680010102000001570001000000000"
      }
    }
  ]
}
