{"type":"FeatureCollection","features":[{"type":"Feature","geometry":{"type":"Polygon","coordinates":[[[28.2207590084896,-12.81095740023113],[28.22098627907999,-12.810775537462208],[28.221582713530914,-12.810313487867447],[28.221675769642715,-12.810200148682924],[28.221772257803913,-12.810064330322016],[28.221772613765832,-12.81006382960798],[28.2217820574527,-12.810012151833575],[28.221800024748703,-12.809913825531458],[28.221811181018786,-12.809852768831494],[28.221818926463737,-12.809810391258157],[28.221819130185576,-12.80980926923103],[28.22181916250108,-12.809809092781936],[28.22145558653157,-12.809794131681787],[28.221108396770667,-12.809779846288215],[28.220800114447133,-12.809767161106716],[28.22047267695031,-12.809753687379883],[28.220408525372406,-12.809751047329181],[28.220399354749173,-12.809750603431988],[28.220395999456198,-12.809757489229778],[28.220374679066882,-12.809801253303897],[28.2203488849393,-12.809854197535902],[28.220279532223575,-12.80999655106727],[28.220121928163156,-12.810320051041586],[28.22012578275412,-12.81032502561086],[28.22018540188261,-12.810401957523096],[28.220271547099024,-12.810513117698552],[28.220266443102062,-12.81055577593308],[28.22026368780558,-12.810578795300822],[28.22025865815522,-12.810620822129806],[28.220260411551983,-12.810623546188838],[28.22027093660053,-12.81063990317839],[28.220313658043455,-12.810692567804221],[28.220528490774985,-12.810957411240103],[28.22057499727677,-12.811014741495212],[28.220577162070214,-12.81101489057991],[28.22060431836385,-12.811016775388655],[28.220676347468576,-12.811021774699176],[28.220678385089727,-12.8110219162358],[28.2207590084896,-12.81095740023113]]]},"properties":{"SDE.Lots.UPID":"KIT/1005"}},{"type":"Feature","geometry":{"type":"Polygon","coordinates":[[[28.221854473949026,-12.80923764012107],[28.2218577871424,-12.809177478709069],[28.221842506348093,-12.80916262386261],[28.221829204496316,-12.809149692793921],[28.221799745309962,-12.809121054761466],[28.221450489930703,-12.809108457332938],[28.221450220479692,-12.80911276480328],[28.221449522588912,-12.809123947216637],[28.221444345748058,-12.809206905075763],[28.221411512108894,-12.809733138639606],[28.221459187507932,-12.809734597281714],[28.22147562078971,-12.809735100570538],[28.221826491344803,-12.809745836994411],[28.221854473949026,-12.80923764012107]]]},"properties":{"SDE.Lots.UPID":"KIT/444"}},{"type":"Feature","geometry":{"type":"Polygon","coordinates":[[[28.221889577032687,-12.811256435013643],[28.222006848903384,-12.811163140172832],[28.2223829823044,-12.811012886849154],[28.222390620621354,-12.811009835312419],[28.222420697592938,-12.810997821235537],[28.222423878147435,-12.810996548867042],[28.22197746792609,-12.81043606798896],[28.22193235476851,-12.810379426782037],[28.221906036920764,-12.81034638480126],[28.221902708493847,-12.81034220613775],[28.221423612686102,-12.81071493774279],[28.22142461703889,-12.810716119260045],[28.221460386453426,-12.810758197297593],[28.22150057816854,-12.81080547416976],[28.221886214376703,-12.81125911138154],[28.221889577032687,-12.811256435013643]]]},"properties":{"SDE.Lots.UPID":"KIT/1653"}}],"crs":null}
