{"type":"FeatureCollection","features":[{"type":"Feature","geometry":{"type":"MultiPolygon","coordinates":[[[[-97.14367296676743,49.89100080396848],[-97.14405293178007,49.891700758700324],[-97.14509578770306,49.891464002023625],[-97.14471616781613,49.89076385028532],[-97.14367296676743,49.89100080396848]]]]},"properties":{"gisid":"71708"}},{"type":"Feature","geometry":{"type":"MultiPolygon","coordinates":[[[[-97.14535990057722,49.891404038682914],[-97.14584410861572,49.891294104801695],[-97.14563258969133,49.89090430226684],[-97.14514853894369,49.891014225323566],[-97.14535990057722,49.891404038682914]]]]},"properties":{"gisid":"642648"}}],"crs":{"type":"name","properties":{"name":"urn:ogc:def:crs:OGC:1.3:CRS84"}}}
