{
  "type": "FeatureCollection",
  "name": "Düsseldorf ALKIS WFS sample at WUP rank 570",
  "coordinateReferenceSystem": "OGC:CRS84 transformed from EPSG:25832",
  "features": [
    {
      "type": "Feature",
      "id": "CadastralParcel_05346600300840______",
      "properties": {
        "gmlId": "CadastralParcel_05346600300840______",
        "nationalCadastralReference": "05346600300840______"
      },
      "geometry": {
        "type": "Polygon",
        "coordinates": [
          [
            [
              6.777025505855,
              51.218126113345
            ],
            [
              6.778753320986,
              51.218072794423
            ],
            [
              6.779152186013,
              51.218061696973
            ],
            [
              6.779742370059,
              51.218043868981
            ],
            [
              6.779770983853,
              51.218042955112
            ],
            [
              6.779900879048,
              51.218038954057
            ],
            [
              6.780212608387,
              51.218029508862
            ],
            [
              6.780408472996,
              51.218023548363
            ],
            [
              6.780614058894,
              51.218017340284
            ],
            [
              6.780913658236,
              51.218008193703
            ],
            [
              6.781169107891,
              51.2180002145
            ],
            [
              6.781233603623,
              51.217998227128
            ],
            [
              6.781340494283,
              51.21799493032
            ],
            [
              6.781479839497,
              51.217908761248
            ],
            [
              6.781607244268,
              51.21782996517
            ],
            [
              6.781724714167,
              51.217757339039
            ],
            [
              6.781844280271,
              51.217683997077
            ],
            [
              6.781961758065,
              51.217611190989
            ],
            [
              6.782077184112,
              51.217539649956
            ],
            [
              6.78230796057,
              51.217396629074
            ],
            [
              6.782275494885,
              51.217349282769
            ],
            [
              6.782316768905,
              51.217348041705
            ],
            [
              6.782685865,
              51.217241071576
            ],
            [
              6.782711052683,
              51.21723992117
            ],
            [
              6.782784399836,
              51.21726112437
            ],
            [
              6.782828255713,
              51.21727380021
            ],
            [
              6.782866080494,
              51.217284733877
            ],
            [
              6.78288178464,
              51.217294978461
            ],
            [
              6.783001876039,
              51.217373358488
            ],
            [
              6.783017524742,
              51.217383566027
            ],
            [
              6.78304549066,
              51.217429801569
            ],
            [
              6.78307630823,
              51.217480767824
            ],
            [
              6.78326579413,
              51.217794089684
            ],
            [
              6.783331437335,
              51.217902636363
            ],
            [
              6.783399324315,
              51.217930507884
            ],
            [
              6.783415996714,
              51.217954288133
            ],
            [
              6.783485579227,
              51.218053582993
            ],
            [
              6.783491583714,
              51.218062141766
            ],
            [
              6.783477657714,
              51.218062570399
            ],
            [
              6.783304576868,
              51.218067951513
            ],
            [
              6.783048842635,
              51.218075894014
            ],
            [
              6.782913083568,
              51.218080039248
            ],
            [
              6.782756435926,
              51.218084966555
            ],
            [
              6.782599378086,
              51.218089786947
            ],
            [
              6.782554817014,
              51.218091172659
            ],
            [
              6.782399248002,
              51.218096003017
            ],
            [
              6.782223587684,
              51.218101414574
            ],
            [
              6.781989278508,
              51.218108726693
            ],
            [
              6.781832349307,
              51.218113548495
            ],
            [
              6.78158916327,
              51.218121114185
            ],
            [
              6.781244090384,
              51.218131846254
            ],
            [
              6.781063479004,
              51.218137467942
            ],
            [
              6.781044660437,
              51.218125581161
            ],
            [
              6.781023277765,
              51.218138719925
            ],
            [
              6.781016336424,
              51.21813893001
            ],
            [
              6.780977319554,
              51.21811406901
            ],
            [
              6.780935641032,
              51.218139782542
            ],
            [
              6.780905580807,
              51.218120748408
            ],
            [
              6.780868597301,
              51.21814352913
            ],
            [
              6.780616590605,
              51.218151366152
            ],
            [
              6.780205323943,
              51.218163942049
            ],
            [
              6.780055569036,
              51.218168465917
            ],
            [
              6.779891038711,
              51.218173509601
            ],
            [
              6.779735384271,
              51.21817831681
            ],
            [
              6.779578025894,
              51.218183118449
            ],
            [
              6.779445808539,
              51.218187156009
            ],
            [
              6.779420624135,
              51.218187928046
            ],
            [
              6.779403198783,
              51.218188460645
            ],
            [
              6.779230181327,
              51.218193693038
            ],
            [
              6.77922045693,
              51.218194003071
            ],
            [
              6.778747984372,
              51.218208919359
            ],
            [
              6.778529714868,
              51.218215602782
            ],
            [
              6.778386969565,
              51.218219978829
            ],
            [
              6.778214450096,
              51.218225273139
            ],
            [
              6.778044079776,
              51.218230545063
            ],
            [
              6.777880422732,
              51.218235584521
            ],
            [
              6.777715920207,
              51.218240634669
            ],
            [
              6.777551403346,
              51.218245684314
            ],
            [
              6.777387158301,
              51.218250738891
            ],
            [
              6.777071690241,
              51.218260456269
            ],
            [
              6.777028776884,
              51.218261817226
            ],
            [
              6.777025505855,
              51.218126113345
            ]
          ]
        ]
      }
    }
  ]
}
