{"type":"FeatureCollection","name":"Frankfurt City WFS parcel geometry sample, WUP rank 573","source":"WFS Flurstuecke Frankfurt am Main, Stadt Frankfurt am Main - Stadtvermessungsamt","sourceCrs":"EPSG:25832","license":"Datenlizenz Deutschland Namensnennung 2.0","queryLimit":3,"features":[{"type":"Feature","properties":{"objectid":3807,"contains_wup_point":false,"source_record_id_field":"OBJECTID","distance_m_from_wup_point_approx":38.7},"geometry":{"type":"Polygon","coordinates":[[[8.6721656828,50.119372397],[8.6720947045,50.1195939501],[8.6722800173,50.1195943293],[8.672343792,50.1193951506],[8.6721656828,50.119372397]]]}},{"type":"Feature","properties":{"objectid":3811,"contains_wup_point":false,"source_record_id_field":"OBJECTID","distance_m_from_wup_point_approx":126.1},"geometry":{"type":"Polygon","coordinates":[[[8.6731949602,50.1200704453],[8.6731400695,50.1202513018],[8.6735697353,50.1202637978],[8.6736159787,50.1201345057],[8.6731949602,50.1200704453]]]}},{"type":"Feature","properties":{"objectid":3814,"contains_wup_point":false,"source_record_id_field":"OBJECTID","distance_m_from_wup_point_approx":26.4},"geometry":{"type":"Polygon","coordinates":[[[8.6719661063,50.1193551587],[8.6719313833,50.1194581576],[8.6719206456,50.1194594494],[8.671919519,50.1195935901],[8.6720947045,50.1195939501],[8.6721656828,50.119372397],[8.6720282715,50.1193548576],[8.6719661063,50.1193551587]]]}}]}
