{"type":"FeatureCollection","features":[{"type":"Feature","id":"gb.ros.lr.SCT0000107107","properties":{"inspireid":"gb.ros.lr.SCT0000107107"},"geometry":{"type":"Polygon","coordinates":[[[-4.290545728,55.8567636662],[-4.2905457069,55.8567633071],[-4.2905990456,55.8567600668],[-4.2907072136,55.8567517607],[-4.2908041028,55.8567418671],[-4.2908779007,55.8567333024],[-4.2909515929,55.8567229421],[-4.291026136,55.8567134647],[-4.2910989771,55.8567022215],[-4.2912335921,55.8566817386],[-4.2913292865,55.8566651263],[-4.2914241298,55.8566476311],[-4.2915181486,55.8566297018],[-4.2916112635,55.8566099917],[-4.2917413059,55.8565797073],[-4.2918223967,55.8565593225],[-4.2919042325,55.856538025],[-4.2919836212,55.8565158743],[-4.2920637814,55.8564932598],[-4.2923289857,55.8564246854],[-4.292451543,55.8563894169],[-4.2925147087,55.8563685569],[-4.2927519717,55.8562759669],[-4.2929915486,55.8564314759],[-4.2930962494,55.8565080735],[-4.2931627789,55.8566093794],[-4.2931652833,55.8566139163],[-4.2931673089,55.8566184621],[-4.2931690152,55.8566230138],[-4.2931704076,55.8566276613],[-4.2931714808,55.8566323148],[-4.2931722347,55.8566369742],[-4.2931726694,55.8566416395],[-4.2931726306,55.8566464036],[-4.2931723254,55.8566520713],[-4.2931714832,55.8566567605],[-4.2931704761,55.8566613629],[-4.293169155,55.856666061],[-4.2931673446,55.8566705884],[-4.2931653745,55.8566751189],[-4.2931629255,55.8566796582],[-4.2931603117,55.8566841108],[-4.2931572138,55.8566884826],[-4.2931539509,55.8566927675],[-4.2931502039,55.8566969716],[-4.2931441791,55.8567031954],[-4.2930878882,55.8567837837],[-4.2930012451,55.8569078978],[-4.2928736118,55.8570956881],[-4.2924805879,55.8576365086],[-4.2921779792,55.8580549414],[-4.2920490711,55.8580258881],[-4.29197126,55.8581345582],[-4.2916688381,55.8585590077],[-4.2916279487,55.8586163005],[-4.2916158343,55.8586140996],[-4.2915397545,55.8585975425],[-4.2914975919,55.8585870939],[-4.2914757522,55.8585825578],[-4.2913241002,55.8585444908],[-4.2910227371,55.8584741619],[-4.2905391851,55.8583627382],[-4.2900160004,55.8582430633],[-4.2899806643,55.8582345541],[-4.289765678,55.8581846329],[-4.2897658376,55.8581846299],[-4.2896321804,55.8581535955],[-4.2894993373,55.8581228153],[-4.2890230288,55.8580148459],[-4.2886573704,55.8579298003],[-4.2884665245,55.8578854491],[-4.2873724632,55.8576361819],[-4.2864800934,55.8574334847],[-4.2861570935,55.8573617489],[-4.2859894106,55.8573226253],[-4.2848329525,55.8570578691],[-4.2843551851,55.8569491],[-4.284385817,55.8569074586],[-4.2844538644,55.8568145231],[-4.2845759211,55.8566317888],[-4.2846272097,55.8565555216],[-4.2847351724,55.8563994719],[-4.2847549164,55.8564091709],[-4.2847578173,55.8564068702],[-4.2847834856,55.856392283],[-4.2848315517,55.85637],[-4.2849058696,55.8563457911],[-4.2849863883,55.8563265],[-4.2850905599,55.8563100047],[-4.2851551415,55.8563050299],[-4.2851626648,55.8563243028],[-4.2851712681,55.8563238733],[-4.2851945664,55.8563233505],[-4.2852118257,55.8563233893],[-4.285229271,55.856323874],[-4.2852465725,55.8563246309],[-4.2852640706,55.8563260134],[-4.2854560251,55.856315975],[-4.2856033309,55.8563156638],[-4.2858187069,55.8563235239],[-4.2859510999,55.8563331959],[-4.2861149972,55.856348753],[-4.2862673814,55.8563641644],[-4.286297369,55.8562979988],[-4.287221532,55.8564929159],[-4.2875190315,55.8565305217],[-4.2882066127,55.8566176693],[-4.2891190291,55.8567266915],[-4.2893538515,55.8567526975],[-4.2895464455,55.8567670867],[-4.2897371148,55.8567786354],[-4.2897612801,55.8567792639],[-4.2899317716,55.8567846273],[-4.290037223,55.856784461],[-4.2901058573,55.8567831829],[-4.2901752105,55.8567805432],[-4.2902437919,55.8567783672],[-4.290312347,55.8567757423],[-4.2904884305,55.8567675196],[-4.290545728,55.8567636662]]]}},{"type":"Feature","id":"gb.ros.lr.SCT0005869008","properties":{"inspireid":"gb.ros.lr.SCT0005869008"},"geometry":{"type":"Polygon","coordinates":[[[-4.290545728,55.8567636662],[-4.2905457069,55.8567633071],[-4.2905990456,55.8567600668],[-4.2907072136,55.8567517607],[-4.2908041028,55.8567418671],[-4.2908779007,55.8567333024],[-4.2909515929,55.8567229421],[-4.291026136,55.8567134647],[-4.2910989771,55.8567022215],[-4.2912335921,55.8566817386],[-4.2913292865,55.8566651263],[-4.2914241298,55.8566476311],[-4.2915181486,55.8566297018],[-4.2916112635,55.8566099917],[-4.2917413059,55.8565797073],[-4.2918223967,55.8565593225],[-4.2919042325,55.856538025],[-4.2919836212,55.8565158743],[-4.2920637814,55.8564932598],[-4.2923289857,55.8564246854],[-4.292451543,55.8563894169],[-4.2925147087,55.8563685569],[-4.2927519717,55.8562759669],[-4.2929915486,55.8564314759],[-4.2930962494,55.8565080735],[-4.2931627789,55.8566093794],[-4.2931652833,55.8566139163],[-4.2931673089,55.8566184621],[-4.2931690152,55.8566230138],[-4.2931704076,55.8566276613],[-4.2931714808,55.8566323148],[-4.2931722347,55.8566369742],[-4.2931726694,55.8566416395],[-4.2931726306,55.8566464036],[-4.2931723254,55.8566520713],[-4.2931714832,55.8566567605],[-4.2931704761,55.8566613629],[-4.293169155,55.856666061],[-4.2931673446,55.8566705884],[-4.2931653745,55.8566751189],[-4.2931629255,55.8566796582],[-4.2931603117,55.8566841108],[-4.2931572138,55.8566884826],[-4.2931539509,55.8566927675],[-4.2931502039,55.8566969716],[-4.2931441791,55.8567031954],[-4.2930878882,55.8567837837],[-4.2930012451,55.8569078978],[-4.2928736118,55.8570956881],[-4.2924805879,55.8576365086],[-4.2921779792,55.8580549414],[-4.2920490711,55.8580258881],[-4.29197126,55.8581345582],[-4.2916688381,55.8585590077],[-4.2916279487,55.8586163005],[-4.2916158343,55.8586140996],[-4.2915397545,55.8585975425],[-4.2914975919,55.8585870939],[-4.2914757522,55.8585825578],[-4.2913241002,55.8585444908],[-4.2910227371,55.8584741619],[-4.2905391851,55.8583627382],[-4.2900160004,55.8582430633],[-4.2899806643,55.8582345541],[-4.289765678,55.8581846329],[-4.2897658376,55.8581846299],[-4.2896321804,55.8581535955],[-4.2894993373,55.8581228153],[-4.2890230288,55.8580148459],[-4.2886573704,55.8579298003],[-4.2884665245,55.8578854491],[-4.2873724632,55.8576361819],[-4.2864800934,55.8574334847],[-4.2861570935,55.8573617489],[-4.2859894106,55.8573226253],[-4.2848329525,55.8570578691],[-4.2843551851,55.8569491],[-4.284385817,55.8569074586],[-4.2844538644,55.8568145231],[-4.2846326555,55.8565693509],[-4.2846430604,55.8565533398],[-4.2846715469,55.8565323193],[-4.284707007,55.8564558967],[-4.2847362869,55.8564238969],[-4.2847578173,55.8564068702],[-4.2847834856,55.856392283],[-4.2848315517,55.85637],[-4.2849058696,55.8563457911],[-4.2849863883,55.8563265],[-4.2850905599,55.8563100047],[-4.2851551415,55.8563050299],[-4.2851626648,55.8563243028],[-4.2851712681,55.8563238733],[-4.2851945664,55.8563233505],[-4.2852118257,55.8563233893],[-4.285229271,55.856323874],[-4.2852465725,55.8563246309],[-4.2852640706,55.8563260134],[-4.2854560251,55.856315975],[-4.2856033309,55.8563156638],[-4.2858187069,55.8563235239],[-4.2859510999,55.8563331959],[-4.2861149972,55.856348753],[-4.2862673814,55.8563641644],[-4.286297369,55.8562979988],[-4.287221532,55.8564929159],[-4.2882066127,55.8566176693],[-4.2891190291,55.8567266915],[-4.2893538515,55.8567526975],[-4.2895464455,55.8567670867],[-4.2897371148,55.8567786354],[-4.2897612801,55.8567792639],[-4.2899317716,55.8567846273],[-4.290037223,55.856784461],[-4.2901058573,55.8567831829],[-4.2901752105,55.8567805432],[-4.2902437919,55.8567783672],[-4.290312347,55.8567757423],[-4.2904884305,55.8567675196],[-4.290545728,55.8567636662]]]}},{"type":"Feature","id":"gb.ros.lr.SCT0006813307","properties":{"inspireid":"gb.ros.lr.SCT0006813307"},"geometry":{"type":"Polygon","coordinates":[[[-4.290545728,55.8567636662],[-4.2905457069,55.8567633071],[-4.2905990456,55.8567600668],[-4.2907072136,55.8567517607],[-4.2908041028,55.8567418671],[-4.2908779007,55.8567333024],[-4.2909515929,55.8567229421],[-4.291026136,55.8567134647],[-4.2910989771,55.8567022215],[-4.2912335921,55.8566817386],[-4.2913292865,55.8566651263],[-4.2914241298,55.8566476311],[-4.2915181486,55.8566297018],[-4.2916112635,55.8566099917],[-4.2917413059,55.8565797073],[-4.2918223967,55.8565593225],[-4.2919042325,55.856538025],[-4.2919836212,55.8565158743],[-4.2920637814,55.8564932598],[-4.2923289857,55.8564246854],[-4.292451543,55.8563894169],[-4.2925147087,55.8563685569],[-4.2927519717,55.8562759669],[-4.2929915486,55.8564314759],[-4.2930962494,55.8565080735],[-4.2931627789,55.8566093794],[-4.2931652833,55.8566139163],[-4.2931673089,55.8566184621],[-4.2931690152,55.8566230138],[-4.2931704076,55.8566276613],[-4.2931714808,55.8566323148],[-4.2931722347,55.8566369742],[-4.2931726694,55.8566416395],[-4.2931726306,55.8566464036],[-4.2931723254,55.8566520713],[-4.2931714832,55.8566567605],[-4.2931704761,55.8566613629],[-4.293169155,55.856666061],[-4.2931673446,55.8566705884],[-4.2931653745,55.8566751189],[-4.2931629255,55.8566796582],[-4.2931603117,55.8566841108],[-4.2931572138,55.8566884826],[-4.2931539509,55.8566927675],[-4.2931502039,55.8566969716],[-4.2931441791,55.8567031954],[-4.2930878882,55.8567837837],[-4.2930012451,55.8569078978],[-4.2928736118,55.8570956881],[-4.2924805879,55.8576365086],[-4.2921779792,55.8580549414],[-4.2920490711,55.8580258881],[-4.29197126,55.8581345582],[-4.2916688381,55.8585590077],[-4.2916279487,55.8586163005],[-4.2916158343,55.8586140996],[-4.2915397545,55.8585975425],[-4.2914975919,55.8585870939],[-4.2914757522,55.8585825578],[-4.2913241002,55.8585444908],[-4.2910227371,55.8584741619],[-4.2905391851,55.8583627382],[-4.2900160004,55.8582430633],[-4.2899806643,55.8582345541],[-4.289765678,55.8581846329],[-4.2897658376,55.8581846299],[-4.2896321804,55.8581535955],[-4.2894993373,55.8581228153],[-4.2890230288,55.8580148459],[-4.2886573704,55.8579298003],[-4.2884665245,55.8578854491],[-4.2873724632,55.8576361819],[-4.2864800934,55.8574334847],[-4.2861570935,55.8573617489],[-4.2859894106,55.8573226253],[-4.2848329525,55.8570578691],[-4.2843551903,55.8569491897],[-4.2843553447,55.856949097],[-4.2843551851,55.8569491],[-4.284385817,55.8569074586],[-4.2844538644,55.8568145231],[-4.2845759211,55.8566317888],[-4.284617194,55.8565699977],[-4.2846272097,55.8565555216],[-4.2846326621,55.8565476912],[-4.2846516658,55.8565202861],[-4.2847351724,55.8563994719],[-4.2847544165,55.8564088207],[-4.2847834856,55.856392283],[-4.2848315517,55.85637],[-4.2849058696,55.8563457911],[-4.2849863883,55.8563265],[-4.2850905599,55.8563100047],[-4.2851551415,55.8563050299],[-4.2851626648,55.8563243028],[-4.2851712681,55.8563238733],[-4.2851945664,55.8563233505],[-4.2852118257,55.8563233893],[-4.285229271,55.856323874],[-4.2852465725,55.8563246309],[-4.2852640706,55.8563260134],[-4.2854560251,55.856315975],[-4.2856033309,55.8563156638],[-4.2858187069,55.8563235239],[-4.2859510999,55.8563331959],[-4.2861149972,55.856348753],[-4.2862673814,55.8563641644],[-4.286297369,55.8562979988],[-4.287221532,55.8564929159],[-4.2875280014,55.8565200193],[-4.2882066127,55.8566176693],[-4.2891190291,55.8567266915],[-4.2893538515,55.8567526975],[-4.2895464455,55.8567670867],[-4.2897371148,55.8567786354],[-4.2897612801,55.8567792639],[-4.2899317716,55.8567846273],[-4.290037223,55.856784461],[-4.2901058573,55.8567831829],[-4.2901752105,55.8567805432],[-4.2902437919,55.8567783672],[-4.290312347,55.8567757423],[-4.2904884305,55.8567675196],[-4.290545728,55.8567636662]]]}}]}
