{"type":"FeatureCollection","name":"Hiroshima Naka Ward registry-map polygons near WUP 2025 rank 435 point","crs":{"type":"name","properties":{"name":"urn:ogc:def:crs:OGC:1.3:CRS84"}},"features":[{"type":"Feature","id":519,"properties":{"sourceMapSheet":"34101-2400-93","geometryOrdinalWithinSheet":519,"distanceToWupPointM":363.568534,"containsWupPoint":false,"sourceFeatureType":"registered parcel polygon"},"geometry":{"type":"Polygon","coordinates":[[[132.4508045219,34.40366599452],[132.45079354848,34.4036374857],[132.45059322027,34.40328160998],[132.45052573847,34.40307843818],[132.45049778618,34.40297581557],[132.45046219633,34.40284038494],[132.45044328871,34.40267826554],[132.45044706333,34.40267191883],[132.45044315717,34.40262641724],[132.4503892728,34.40250714887],[132.45037180912,34.4024408437],[132.45033575673,34.40228425452],[132.4503345057,34.40222296048],[132.4503401702,34.40212557906],[132.4503564956,34.40200289323],[132.45037330496,34.40198815885],[132.45039018083,34.40193190756],[132.45040863217,34.40189772276],[132.45040467493,34.40185962307],[132.45043328296,34.40156702811],[132.45042457811,34.4015563468],[132.45045829062,34.40153216995],[132.45046899303,34.40151596216],[132.45046336842,34.40151235094],[132.45048595111,34.40147766068],[132.45050156744,34.4014510916],[132.45059539342,34.40127810827],[132.45061195667,34.40121954968],[132.45058100154,34.40120668415],[132.45056503066,34.40113469572],[132.45060390336,34.40107330856],[132.45063859052,34.40102862796],[132.45068424515,34.40098506687],[132.45078532492,34.40084424317],[132.45083124276,34.40077885468],[132.45087796732,34.40073655322],[132.45049555369,34.40081039508],[132.45044395167,34.40087070282],[132.45040556484,34.40091492313],[132.45039097314,34.40093246523],[132.45036491316,34.40096486456],[132.45033172789,34.40100984813],[132.45031695541,34.40103184434],[132.45029415238,34.40106568762],[132.45027092647,34.40110314711],[132.45025980121,34.40112297112],[132.45023632824,34.40116458737],[132.45020042089,34.40123777796],[132.45017054803,34.40130714096],[132.45014579371,34.4013719843],[132.45012060876,34.4014542828],[132.45010664198,34.40151204194],[132.45009421382,34.40157774023],[132.45008697332,34.40163037195],[132.45008167463,34.40169115827],[132.45007807599,34.40178195352],[132.45007953632,34.40184408553],[132.45008200227,34.40188188216],[132.45008777491,34.40193907266],[132.45009564922,34.40198730581],[132.45010418458,34.40203158861],[132.4501314251,34.40215883453],[132.45016298522,34.40230906919],[132.45019045545,34.40242051926],[132.45025279638,34.40269295186],[132.45027130007,34.40277414837],[132.45029838195,34.40289613852],[132.45031386952,34.40296346704],[132.45035537387,34.40314653134],[132.45037035648,34.4032124636],[132.45037668047,34.40324278636],[132.4503866504,34.40328663306],[132.45047542057,34.40345179995],[132.45049899897,34.40349601174],[132.45052133185,34.40353857658],[132.45062304124,34.40373123789],[132.45068676371,34.40384849987],[132.45102658648,34.40447258926],[132.45103129857,34.4044796916],[132.45104405245,34.40450714144],[132.4510524402,34.40453007561],[132.45106439956,34.4045734488],[132.45106805676,34.40460311056],[132.45106897265,34.40463590711],[132.45106631675,34.40467071341],[132.4510584837,34.40470884949],[132.4510444297,34.40474722541],[132.45103077359,34.40477461042],[132.45101362592,34.40480200354],[132.45100306354,34.4048178955],[132.45097859352,34.40484792015],[132.4509578221,34.40486840674],[132.45093711904,34.40488659419],[132.45091997792,34.40489985987],[132.45090237718,34.4049123062],[132.45089138121,34.40491900327],[132.45086408859,34.40493458249],[132.45082956461,34.40495075549],[132.45081199968,34.40495771123],[132.45077222272,34.40497088522],[132.45074924657,34.40497629383],[132.45071593997,34.40498256486],[132.45063443611,34.40499840512],[132.45045587733,34.40503111325],[132.45040389575,34.40504097966],[132.45034440213,34.40505207155],[132.45028325758,34.40506387948],[132.45025438662,34.4050695],[132.4500786113,34.40510196672],[132.44997899474,34.40512048105],[132.44986711603,34.40514119643],[132.44981919933,34.40515015163],[132.44985088425,34.40526622597],[132.45001191592,34.40528054851],[132.45011337098,34.40526850308],[132.45017045604,34.40526886667],[132.45028198872,34.40526806722],[132.45044345897,34.40523508343],[132.45078227631,34.4051680596],[132.45082028964,34.40515763044],[132.45084642359,34.40514677809],[132.45090158244,34.40511472579],[132.45091738266,34.40511020834],[132.45095324868,34.40508238407],[132.45096136663,34.40508342904],[132.45107658165,34.40501371426],[132.4512053084,34.40493507857],[132.45129802706,34.40487765004],[132.45129516538,34.40487414964],[132.45130887454,34.40485281393],[132.45130901662,34.4048369552],[132.45131228061,34.40472800336],[132.45131426983,34.4046312706],[132.45130277859,34.40459447771],[132.4512874208,34.40456579883],[132.4511529386,34.40438031858],[132.45109296287,34.40418449542],[132.45112462112,34.4039869626],[132.45112510464,34.40396270957],[132.45111743988,34.40395412653],[132.45109713046,34.4039953479],[132.45104518441,34.40398014217],[132.45097860691,34.40396762101],[132.45096321887,34.40395565703],[132.45085579746,34.40377249367],[132.4508097142,34.40368646586],[132.4508045219,34.40366599452]]]}},{"type":"Feature","id":40,"properties":{"sourceMapSheet":"34101-2400-93","geometryOrdinalWithinSheet":40,"distanceToWupPointM":384.561527,"containsWupPoint":false,"sourceFeatureType":"registered parcel polygon"},"geometry":{"type":"Polygon","coordinates":[[[132.45082956461,34.40495075549],[132.45086408859,34.40493458249],[132.45089138121,34.40491900327],[132.45090237718,34.4049123062],[132.45091997792,34.40489985987],[132.45093711904,34.40488659419],[132.4509578221,34.40486840674],[132.45097859352,34.40484792015],[132.45100306354,34.4048178955],[132.45101362592,34.40480200354],[132.45090434191,34.40482105497],[132.45074689427,34.40484995498],[132.45059955356,34.40487626189],[132.45045879259,34.40490230994],[132.45042066878,34.40490898876],[132.45044142951,34.40497872118],[132.45045587733,34.40503111325],[132.45063443611,34.40499840512],[132.45071593997,34.40498256486],[132.45074924657,34.40497629383],[132.45077222272,34.40497088522],[132.45081199968,34.40495771123],[132.45082956461,34.40495075549]]]}},{"type":"Feature","id":39,"properties":{"sourceMapSheet":"34101-2400-93","geometryOrdinalWithinSheet":39,"distanceToWupPointM":389.07628,"containsWupPoint":false,"sourceFeatureType":"registered parcel polygon"},"geometry":{"type":"Polygon","coordinates":[[[132.45045587733,34.40503111325],[132.45044142951,34.40497872118],[132.45038908914,34.40498862448],[132.45040389575,34.40504097966],[132.45045587733,34.40503111325]]]}}],"attribution":"Source: Ministry of Justice, Registry Office Map Data for Hiroshima City Naka Ward (2025), distributed via Geospatial Information Center; adapted and transformed from EPSG:6671 to OGC:CRS84 on 2026-10-09."}
