{"type":"FeatureCollection","features":[{"type":"Feature","properties":{"IDENT_DZ":"246901_1.0008.AR_2.179/55"},"geometry":{"type":"Polygon","coordinates":[[[19.02365230251634,50.21767908740923],[19.024497083641368,50.217399023223976],[19.02548121741434,50.21708534613533],[19.02587841263447,50.21708062591367],[19.026321212844397,50.21701033421545],[19.027605345123245,50.21653941413014],[19.02819632846741,50.216160597592726],[19.02826722691329,50.21577713925806],[19.028638259631602,50.215514147753204],[19.028873716939245,50.2151818387231],[19.02952102078062,50.21473296156538],[19.030234746740945,50.214388408632885],[19.030691824526155,50.21434686188192],[19.029796257280818,50.2172435902838],[19.02940237669812,50.21855553322264],[19.028971538876625,50.21990408973089],[19.02828209560558,50.221135298142244],[19.028201347784247,50.22101074922634],[19.027905600253387,50.22055415638586],[19.027969001593004,50.220408299838994],[19.028081845547707,50.2201485205345],[19.028129141852933,50.21942363782087],[19.028051558139822,50.21935095721677],[19.027958959761694,50.21926426645399],[19.027875199256826,50.21918583215068],[19.027015560707696,50.21838095613213],[19.026412037192692,50.21853755507394],[19.0256701549999,50.21855866317035],[19.024784478663573,50.21845714699227],[19.024581001532454,50.21843379350479],[19.02438509690791,50.218411343931955],[19.02365230251634,50.21767908740923]]]}},{"type":"Feature","properties":{"IDENT_DZ":"246901_1.0013.AR_18.62"},"geometry":{"type":"Polygon","coordinates":[[[19.016583990634214,50.21703432401374],[19.016740095835246,50.21717305681748],[19.01693710657122,50.217305290486934],[19.01708647993099,50.2174278438824],[19.017236742744636,50.217602069937826],[19.01746742740223,50.21776386720375],[19.017812626140596,50.218085708846736],[19.01817946159117,50.21833166408384],[19.01850912035375,50.21854320259423],[19.018712533199118,50.21874591202346],[19.018481917236315,50.21874702571347],[19.018128781692305,50.21872293175493],[19.017869617849122,50.218644858342884],[19.017665279233153,50.21848736262136],[19.017406304979612,50.21833377956542],[19.017212351981435,50.21818481453276],[19.01679594200389,50.217829922808455],[19.01648252012143,50.217490348493676],[19.016652415655372,50.21743857496853],[19.01635146458696,50.21707705186716],[19.016347953932232,50.21707076185843],[19.016243661653515,50.21692446341387],[19.01621888652783,50.21693166617057],[19.01602386317968,50.216646511846974],[19.015851664665764,50.21669424063976],[19.015763520303352,50.21655601840634],[19.0158860127831,50.21634604002304],[19.01517219891176,50.21501489402311],[19.015121513886022,50.21491961797369],[19.014292744218167,50.21360533095436],[19.01397731802717,50.21303614432898],[19.013581157308234,50.21241953197421],[19.013481983983713,50.212297048629274],[19.01358343669602,50.21206021091275],[19.01377746248035,50.211912152395],[19.013868209515064,50.211879658000726],[19.014064724206843,50.212225232058074],[19.01444903742465,50.21303089358578],[19.014558930344702,50.21320344367221],[19.014684435688785,50.21330874795636],[19.014862316357412,50.21363796675729],[19.015087232884536,50.21421267107611],[19.015381523674073,50.21489216194447],[19.015422507917915,50.21496343559496],[19.01585970490333,50.21575847009741],[19.015802270857417,50.21577306125968],[19.01600601481809,50.216166634921684],[19.01619889449895,50.21649980235149],[19.016444432565564,50.216782050921395],[19.016583990634214,50.21703432401374]]]}}]}