{"type":"FeatureCollection","name":"Leeds HMLR INSPIRE index-polygon geometry sample, 2026-09-06 snapshot","source":"HM Land Registry INSPIRE Index Polygons, Leeds City Council authority file; OGL","coordinateReferenceSystem":"OGC:CRS84 transformed from EPSG:27700","features":[{"type":"Feature","properties":{"sourceMemberOrdinal":109269,"distanceToWupPointM":0,"containsWupPoint":true},"geometry":{"type":"Polygon","coordinates":[[[-1.6400544149,53.8020510815],[-1.6399988124,53.8020724864],[-1.6399340655,53.8020979086],[-1.6401012556,53.8022556986],[-1.6401933784,53.8022249653],[-1.6402108927,53.802218726],[-1.6402291585,53.8022133878],[-1.6402428541,53.8022098336],[-1.6402573087,53.8022062815],[-1.6402748077,53.8022018398],[-1.6402930658,53.8021974004],[-1.6404124835,53.8021707931],[-1.6405402786,53.8021410649],[-1.6406825204,53.8021086833],[-1.6408262918,53.8020749579],[-1.6409632038,53.8020443577],[-1.6411046858,53.8020119734],[-1.6412454084,53.8019795866],[-1.6413845819,53.8019507902],[-1.6415321098,53.8019215692],[-1.6415556817,53.8019171453],[-1.6416324936,53.8019011956],[-1.6416689902,53.8018945632],[-1.6417115676,53.8018870501],[-1.6417442608,53.8018813052],[-1.6417967186,53.8018724733],[-1.6418180016,53.8018693908],[-1.641967749,53.8018469169],[-1.6421083637,53.8018271119],[-1.642254296,53.8018068733],[-1.6423911108,53.8017875061],[-1.6424237924,53.8017831092],[-1.6424572445,53.8017773664],[-1.6424952591,53.8017707382],[-1.6425499789,53.8017637103],[-1.6429641721,53.8017110114],[-1.6429908776,53.8017847921],[-1.6430471581,53.8019521358],[-1.6430737589,53.8019486195],[-1.6431011189,53.8019451054],[-1.6431801773,53.8019327565],[-1.6432599948,53.8019204098],[-1.6433656652,53.8019031963],[-1.6434705688,53.8018868792],[-1.6434751275,53.8018864433],[-1.6435215118,53.8018775927],[-1.6435671331,53.8018691891],[-1.643666749,53.8018497104],[-1.6437640874,53.8018302249],[-1.6438979712,53.8017982641],[-1.6439443704,53.8017876158],[-1.6439824418,53.8017742464],[-1.644032667,53.8017600141],[-1.6440608277,53.8017515587],[-1.6441209635,53.8017324123],[-1.6442237368,53.8016985617],[-1.6443668736,53.8016495506],[-1.6444059311,53.8016092199],[-1.6444381335,53.8015715655],[-1.6444564023,53.8015657772],[-1.6444353583,53.8015405487],[-1.6443894407,53.8014941249],[-1.6442990481,53.8014102695],[-1.6441837408,53.8013101619],[-1.644142261,53.8012776826],[-1.6441007737,53.8012461019],[-1.644032872,53.8011960178],[-1.6439943797,53.8011693894],[-1.6439551207,53.8011436575],[-1.6439135843,53.8011179188],[-1.6438735625,53.8010926341],[-1.6438312595,53.8010677919],[-1.6437889489,53.8010438485],[-1.643707319,53.8010013634],[-1.6436301947,53.8009647337],[-1.6435507741,53.8009303442],[-1.6434690611,53.8008977454],[-1.6433260446,53.8008429444],[-1.6432420393,53.8008121363],[-1.6431572674,53.8007822247],[-1.6430717289,53.8007532095],[-1.6429490844,53.8007132986],[-1.6426833834,53.8006235291],[-1.6426712526,53.8006216955],[-1.6426333076,53.8006202346],[-1.6426203986,53.8006206457],[-1.642600646,53.8006223847],[-1.6425839071,53.800626829],[-1.6425808667,53.8006272694],[-1.6425671605,53.8006321721],[-1.6425564832,53.8006379826],[-1.64254428,53.8006446873],[-1.6423425703,53.8007973337],[-1.6423486243,53.8007995987],[-1.6425972211,53.8009369546],[-1.6425605732,53.8009615628],[-1.6425109666,53.8009924241],[-1.6424957039,53.8010018161],[-1.6424506863,53.8010286465],[-1.6424194016,53.8010474283],[-1.6423927061,53.8010621792],[-1.6423186773,53.8011082475],[-1.6423034145,53.8011176396],[-1.6422896928,53.8011243398],[-1.642287404,53.8011256812],[-1.6422569088,53.8011408702],[-1.6421783973,53.8011783865],[-1.6421326392,53.8012029675],[-1.6421013887,53.8012177048],[-1.6420716678,53.8012310984],[-1.6419962344,53.8012636803],[-1.641952807,53.8012819766],[-1.64191699,53.8012980485],[-1.6418682371,53.801317677],[-1.641838516,53.8013310706],[-1.6418202432,53.8013373079],[-1.6417844452,53.8013511328],[-1.6417169867,53.8013743008],[-1.6417105908,53.8013765288],[-1.6415841682,53.8014237889],[-1.6415765615,53.8014255638],[-1.6415073267,53.8014433337],[-1.6414380994,53.8014602047],[-1.6414042894,53.8014187592],[-1.6413599777,53.8013624522],[-1.6412999038,53.8012849764],[-1.6412976684,53.8012800264],[-1.6412634153,53.8012907099],[-1.6413415404,53.8013880131],[-1.6414076419,53.8014708996],[-1.6412797845,53.8015082683],[-1.6412729331,53.8015104949],[-1.6412402058,53.8015202842],[-1.6411572754,53.8015416083],[-1.6411367364,53.8015464904],[-1.6411306479,53.8015482699],[-1.6410187857,53.8015793944],[-1.6409662822,53.8015936186],[-1.6409092084,53.8016096268],[-1.6409008348,53.8016122982],[-1.640849098,53.8016256259],[-1.6408019237,53.8016380684],[-1.6407806217,53.8016433976],[-1.6407105963,53.8016647599],[-1.6406626475,53.8016789975],[-1.640659607,53.8016794379],[-1.6405492356,53.8017137122],[-1.6404312572,53.8017497613],[-1.6403406846,53.8017769042],[-1.6403094751,53.8017866977],[-1.6401968218,53.8018214143],[-1.6400834015,53.8018570273],[-1.6400931861,53.8018669433],[-1.6401768153,53.8019417937],[-1.6400084671,53.8020087005],[-1.6400197661,53.8020190705],[-1.6400544149,53.8020510815]]]}},{"type":"Feature","properties":{"sourceMemberOrdinal":109262,"distanceToWupPointM":10.433333,"containsWupPoint":false},"geometry":{"type":"Polygon","coordinates":[[[-1.6420716678,53.8012310984],[-1.6419675512,53.8011548402],[-1.6419019144,53.8011065592],[-1.6418574077,53.8010731712],[-1.6419092351,53.8010490578],[-1.6419610777,53.8010231468],[-1.6420726823,53.801111561],[-1.6420871593,53.8011053125],[-1.642103002,53.801117044],[-1.6420969022,53.8011201716],[-1.6421331235,53.8011458951],[-1.6421783973,53.8011783865],[-1.6422569088,53.8011408702],[-1.642287404,53.8011256812],[-1.6422896928,53.8011243398],[-1.6423034145,53.8011176396],[-1.6423186773,53.8011082475],[-1.6423927061,53.8010621792],[-1.6424194016,53.8010474283],[-1.6424506863,53.8010286465],[-1.6424957039,53.8010018161],[-1.6425109666,53.8009924241],[-1.6425605732,53.8009615628],[-1.6425972211,53.8009369546],[-1.6423486243,53.8007995987],[-1.6423425703,53.8007973337],[-1.64254428,53.8006446873],[-1.6425564832,53.8006379826],[-1.6425671605,53.8006321721],[-1.6425808667,53.8006272694],[-1.6425839071,53.800626829],[-1.642600646,53.8006223847],[-1.6426203986,53.8006206457],[-1.6426333076,53.8006202346],[-1.6426712526,53.8006216955],[-1.6426833834,53.8006235291],[-1.6423785062,53.8004985894],[-1.6422904437,53.8004987772],[-1.6419816089,53.8003931489],[-1.6416041932,53.8002573407],[-1.6415909203,53.8002719965],[-1.6415694777,53.8002939533],[-1.641526604,53.8003365186],[-1.6414377777,53.8004265835],[-1.6414758818,53.800498601],[-1.6414289,53.8004885743],[-1.6414023841,53.8004822037],[-1.641394049,53.8004803813],[-1.6413735678,53.8004785227],[-1.6413705313,53.8004785136],[-1.6413614256,53.8004780371],[-1.6413439772,53.8004766369],[-1.6413401816,53.8004766256],[-1.6413249876,53.8004779286],[-1.641309786,53.8004801303],[-1.6413014203,53.8004819029],[-1.6412884731,53.8004868078],[-1.6412762812,53.8004921642],[-1.6412648484,53.800497523],[-1.6412549148,53.8005051332],[-1.6412685026,53.8005141617],[-1.6412036633,53.8005508193],[-1.6412368929,53.8005711413],[-1.6412693672,53.8005910117],[-1.6413026007,53.8006108843],[-1.6413358304,53.8006312063],[-1.6413690639,53.8006510789],[-1.6414015345,53.8006713987],[-1.6414347681,53.8006912713],[-1.6414672349,53.8007120404],[-1.6415004686,53.8007319129],[-1.6415329393,53.8007522326],[-1.6416008304,53.8007137864],[-1.6416159443,53.8007219206],[-1.641695989,53.8006826116],[-1.6417546901,53.8006535753],[-1.6417594257,53.8006555488],[-1.6417546482,53.8006585186],[-1.6416897785,53.8006987715],[-1.6416386457,53.8007305267],[-1.6416043091,53.8007510969],[-1.6418844433,53.8009289942],[-1.6418798694,53.8009312276],[-1.6418371671,53.8009535706],[-1.6417761843,53.8009830495],[-1.6417746546,53.8009843932],[-1.6417180516,53.8009451269],[-1.6416531784,53.8008963986],[-1.6415127435,53.8008061005],[-1.6414364329,53.8008526109],[-1.6413761519,53.8008888327],[-1.6412802312,53.8008310237],[-1.6411850737,53.8007727675],[-1.6411684531,53.8007632806],[-1.6410929339,53.8007167672],[-1.6408594038,53.800861227],[-1.640819516,53.8008382785],[-1.6410581975,53.8006950925],[-1.6409532447,53.8006282683],[-1.6409502235,53.8006264617],[-1.6409662493,53.8006166227],[-1.6408687733,53.8005633027],[-1.6408173823,53.8005361854],[-1.6407780914,53.8005144969],[-1.6407697716,53.8005108769],[-1.6406475915,53.8005949995],[-1.6405826787,53.8006401951],[-1.6405284626,53.8006773334],[-1.640502008,53.8006637724],[-1.6404475729,53.8006375447],[-1.6404279122,53.8006284979],[-1.6406662078,53.8004593362],[-1.6405603745,53.8004068898],[-1.6404908224,53.8003729771],[-1.6404590656,53.8003580521],[-1.6402268274,53.8005290291],[-1.6400941026,53.8006032328],[-1.640079169,53.8006629584],[-1.6399091855,53.8006552597],[-1.6398014313,53.8006499939],[-1.6396503454,53.8006517888],[-1.6396607505,53.8006778851],[-1.6399261728,53.8007995679],[-1.6401015169,53.8008018899],[-1.6401858687,53.8008807871],[-1.6402702285,53.8009587854],[-1.640328981,53.801012889],[-1.6403678311,53.800997276],[-1.6404742207,53.80089558],[-1.6404757504,53.8008942363],[-1.6405146808,53.8008691862],[-1.6405093937,53.8008660246],[-1.6405612982,53.8008329239],[-1.640566649,53.8008357352],[-1.6406111788,53.8008591381],[-1.6406761464,53.8008966322],[-1.6407199618,53.8009219294],[-1.6407720549,53.8009557899],[-1.6408679408,53.8010176438],[-1.6409388978,53.8010650424],[-1.6410022866,53.8011097221],[-1.6410732248,53.8011593676],[-1.6410394899,53.8011983648],[-1.6406923401,53.8011344132],[-1.6406734727,53.8011213243],[-1.6406071252,53.8011566289],[-1.6406871267,53.8012116945],[-1.6407337033,53.8012693567],[-1.6407667571,53.8013103508],[-1.6406434814,53.8013445867],[-1.6406369498,53.8013466883],[-1.6405087952,53.8013814848],[-1.6404775976,53.8013899302],[-1.6403933952,53.8014161843],[-1.6403862552,53.801418419],[-1.6403755965,53.8014219824],[-1.6402675145,53.8014549151],[-1.6402050549,53.8014739717],[-1.6402832879,53.801563717],[-1.6403795197,53.8016741075],[-1.6403658167,53.8016785606],[-1.6403936484,53.8017087536],[-1.6404312572,53.8017497613],[-1.6405492356,53.8017137122],[-1.640659607,53.8016794379],[-1.6406626475,53.8016789975],[-1.6406243139,53.8016339431],[-1.6405987557,53.8016042064],[-1.6406139769,53.8015997579],[-1.6405207851,53.8014889272],[-1.6406045017,53.8014644601],[-1.6406288517,53.8014577918],[-1.6406611579,53.8014974355],[-1.640705488,53.8015514958],[-1.6407242676,53.8015749206],[-1.6407806217,53.8016433976],[-1.6408019237,53.8016380684],[-1.640849098,53.8016256259],[-1.6409008348,53.8016122982],[-1.6409092084,53.8016096268],[-1.6409662822,53.8015936186],[-1.6410187857,53.8015793944],[-1.6411306479,53.8015482699],[-1.6411367364,53.8015464904],[-1.6411572754,53.8015416083],[-1.6412402058,53.8015202842],[-1.6412729331,53.8015104949],[-1.6412504149,53.801480318],[-1.6412046309,53.8014186138],[-1.6411625854,53.8013636616],[-1.6411371072,53.8013244879],[-1.6411416697,53.8013236027],[-1.6412048238,53.8013067137],[-1.6412634153,53.8012907099],[-1.6412976684,53.8012800264],[-1.6412999038,53.8012849764],[-1.6413599777,53.8013624522],[-1.6414042894,53.8014187592],[-1.6414380994,53.8014602047],[-1.6415073267,53.8014433337],[-1.6415765615,53.8014255638],[-1.6415044745,53.8013323234],[-1.6414563365,53.8012796002],[-1.6414217408,53.8012412982],[-1.6414894953,53.80121903],[-1.6415283184,53.8012065624],[-1.641546595,53.8011998758],[-1.6416207512,53.8012747329],[-1.6416730422,53.8013283312],[-1.641669235,53.8013296681],[-1.6417105908,53.8013765288],[-1.6417169867,53.8013743008],[-1.6417844452,53.8013511328],[-1.6418202432,53.8013373079],[-1.641838516,53.8013310706],[-1.6418682371,53.801317677],[-1.64191699,53.8012980485],[-1.641952807,53.8012819766],[-1.6419962344,53.8012636803],[-1.6420716678,53.8012310984]]]}},{"type":"Feature","properties":{"sourceMemberOrdinal":109271,"distanceToWupPointM":15.543147,"containsWupPoint":false},"geometry":{"type":"Polygon","coordinates":[[[-1.6423005678,53.8010057305],[-1.6423390818,53.8010296631],[-1.6423927061,53.8010621792],[-1.6424194016,53.8010474283],[-1.6424506863,53.8010286465],[-1.6424957039,53.8010018161],[-1.6424002957,53.8009496001],[-1.6423710219,53.8009335864],[-1.6422954514,53.8008929159],[-1.642242556,53.8008639971],[-1.642212023,53.80088368],[-1.6421730974,53.8009082813],[-1.6421639421,53.8009136469],[-1.6423165897,53.8009963407],[-1.6423005678,53.8010057305]]]}}]}
