{
  "type": "FeatureCollection",
  "name": "Lille official IGN Cadastre PCI code_insee=59350 sample",
  "coordinateReferenceSystem": "OGC:CRS84 / EPSG:4326; full uncut parcel geometries",
  "features": [
    {
      "type": "Feature",
      "id": "parcelle.221",
      "properties": {
        "idu": "59350000DR0010",
        "code_insee": "59350",
        "nom_com": "Lille",
        "section": "DR",
        "numero": "0010"
      },
      "geometry": {
        "type": "MultiPolygon",
        "coordinates": [
          [
            [
              [
                3.04583241,
                50.61480001
              ],
              [
                3.04560131,
                50.61473889
              ],
              [
                3.04556018,
                50.61480388
              ],
              [
                3.04566515,
                50.61483121
              ],
              [
                3.04570775,
                50.61484224
              ],
              [
                3.04572031,
                50.61484573
              ],
              [
                3.04574359,
                50.61485236
              ],
              [
                3.04577181,
                50.61486034
              ],
              [
                3.04579057,
                50.61486581
              ],
              [
                3.04581593,
                50.61482568
              ],
              [
                3.04583241,
                50.61480001
              ]
            ]
          ]
        ]
      }
    },
    {
      "type": "Feature",
      "id": "parcelle.1432",
      "properties": {
        "idu": "59350000MT0014",
        "code_insee": "59350",
        "nom_com": "Lille",
        "section": "MT",
        "numero": "0014"
      },
      "geometry": {
        "type": "MultiPolygon",
        "coordinates": [
          [
            [
              [
                3.05521936,
                50.61957447
              ],
              [
                3.05515061,
                50.6196568
              ],
              [
                3.05512525,
                50.61968679
              ],
              [
                3.05512976,
                50.61968813
              ],
              [
                3.05519482,
                50.61970901
              ],
              [
                3.05520468,
                50.61969689
              ],
              [
                3.05521186,
                50.61968836
              ],
              [
                3.05523821,
                50.61965676
              ],
              [
                3.05530682,
                50.61957408
              ],
              [
                3.05521936,
                50.61957447
              ]
            ]
          ]
        ]
      }
    },
    {
      "type": "Feature",
      "id": "parcelle.1694",
      "properties": {
        "idu": "59350000NZ0150",
        "code_insee": "59350",
        "nom_com": "Lille",
        "section": "NZ",
        "numero": "0150"
      },
      "geometry": {
        "type": "MultiPolygon",
        "coordinates": [
          [
            [
              [
                3.05683975,
                50.63201528
              ],
              [
                3.05693575,
                50.63205418
              ],
              [
                3.05701339,
                50.63208565
              ],
              [
                3.05702016,
                50.63208161
              ],
              [
                3.05704342,
                50.63206742
              ],
              [
                3.05706556,
                50.63205376
              ],
              [
                3.05705525,
                50.63204829
              ],
              [
                3.05698127,
                50.63200884
              ],
              [
                3.05688542,
                50.6319694
              ],
              [
                3.05683975,
                50.63201528
              ]
            ]
          ]
        ]
      }
    }
  ]
}
