{"type":"FeatureCollection","features":[{"type":"Feature","geometry":{"type":"Polygon","coordinates":[[[-87.9562377791783,43.0469165016586],[-87.9563640886762,43.046916880686],[-87.9563634427874,43.0471634813529],[-87.9562362357702,43.0471633086098],[-87.9562377791783,43.0469165016586]]]},"properties":{"Parcel_Key":null}},{"type":"Feature","geometry":{"type":"Polygon","coordinates":[[[-87.9559743621021,43.0471629951456],[-87.9559766999264,43.0467517891543],[-87.9561035554518,43.046752204409],[-87.9561039765872,43.0468342579017],[-87.9561022185166,43.0469165675603],[-87.9562377791783,43.0469165016586],[-87.9562362357702,43.0471633086098],[-87.9559743621021,43.0471629951456]]]},"properties":{"Parcel_Key":null}},{"type":"Feature","geometry":{"type":"Polygon","coordinates":[[[-87.9558457646925,43.0467516290601],[-87.9559766999264,43.0467517891543],[-87.9559743621021,43.0471629951456],[-87.9558434266368,43.0471628890877],[-87.9558457646925,43.0467516290601]]]},"properties":{"Parcel_Key":null}}]}
