{"type":"FeatureCollection","name":"Nottingham City Council HMLR INSPIRE index-polygon exact-point sample","source":"Nottingham City Council ArcGIS Housing_and_Property MapServer layer 22; HM Land Registry INSPIRE Index Polygons; Open Government Licence dataset","coordinateReferenceSystem":"OGC:CRS84 GeoJSON coordinates, requested from source native EPSG:27700","features":[{"type":"Feature","properties":{"INSPIRE_ID":"29114768"},"geometry":{"type":"Polygon","coordinates":[[[-1.1808510274394206,52.958220131595056],[-1.1807852435670483,52.958045224796116],[-1.1807253544641452,52.95805096051813],[-1.1805242270986402,52.958070257826336],[-1.1804966833761084,52.95807289947498],[-1.1804579092820382,52.95807667720713],[-1.1802427712914592,52.958078788951546],[-1.1802594351118534,52.958142277755826],[-1.1802621402806375,52.95815667913453],[-1.1802971993802964,52.95819197885024],[-1.1803240253850817,52.95822025513597],[-1.1803327311727025,52.9582416645309],[-1.1803789651385466,52.958355247316305],[-1.1803846556215782,52.95836921982042],[-1.180526484931725,52.95834727549636],[-1.180699646486388,52.958321501893],[-1.1808787952684225,52.95829397147449],[-1.1808510274394206,52.958220131595056]]]}}]}
