{"type":"FeatureCollection","name":"palermo_geometry_only_sample","attribution":"Regione Siciliana SITR / Agenzia delle Entrate, CC BY 4.0","sourceUrl":"https://map.sitr.regione.sicilia.it/gis/rest/services/catasto/cartografia_catastale/MapServer/4","license":"CC BY 4.0","crs":{"type":"name","properties":{"name":"urn:ogc:def:crs:OGC:1.3:CRS84"}},"features":[{"type":"Feature","id":5685467,"properties":{"OBJECTID":5685467},"geometry":{"type":"Polygon","coordinates":[[[13.348075565747868,38.120871627807055],[13.347763884952098,38.12081064056256],[13.347815082353746,38.12067902225804],[13.3478413292316,38.12068466337273],[13.34786917772497,38.120609121549556],[13.347997915936547,38.12063571482687],[13.348089740976604,38.120654660465064],[13.34807777326308,38.12069622586058],[13.348074753795824,38.120706700181145],[13.348065174806559,38.120739963242464],[13.348063319268393,38.120746371580765],[13.348051103346172,38.12078882565139],[13.34810071471865,38.12079741775813],[13.34809747708645,38.120806942770265],[13.348075565747868,38.120871627807055]]]}}]}
