{
  "type": "FeatureCollection",
  "features": [
    {
      "type": "Feature",
      "id": "72795",
      "properties": {
        "MSLINK": "72795",
        "SECCION": "9",
        "MANZANA": "184",
        "GRAFICO": "32",
        "SD": "2",
        "SP": "0"
      },
      "geometry": {
        "type": "Polygon",
        "coordinates": [
          [
            [
              -60.676578,
              -32.94818
            ],
            [
              -60.676554,
              -32.948084
            ],
            [
              -60.676475,
              -32.948098
            ],
            [
              -60.676463,
              -32.948101
            ],
            [
              -60.676487,
              -32.948196
            ],
            [
              -60.676577,
              -32.94818
            ],
            [
              -60.676578,
              -32.94818
            ]
          ]
        ]
      }
    },
    {
      "type": "Feature",
      "id": "72768",
      "properties": {
        "MSLINK": "72768",
        "SECCION": "9",
        "MANZANA": "184",
        "GRAFICO": "45",
        "SD": "0",
        "SP": "0"
      },
      "geometry": {
        "type": "Polygon",
        "coordinates": [
          [
            [
              -60.676635,
              -32.948409
            ],
            [
              -60.676577,
              -32.94818
            ],
            [
              -60.676487,
              -32.948196
            ],
            [
              -60.676486,
              -32.948196
            ],
            [
              -60.676515,
              -32.948309
            ],
            [
              -60.676544,
              -32.948425
            ],
            [
              -60.676635,
              -32.948409
            ]
          ]
        ]
      }
    },
    {
      "type": "Feature",
      "id": "72792",
      "properties": {
        "MSLINK": "72792",
        "SECCION": "9",
        "MANZANA": "184",
        "GRAFICO": "33",
        "SD": "2",
        "SP": "0"
      },
      "geometry": {
        "type": "Polygon",
        "coordinates": [
          [
            [
              -60.676487,
              -32.948196
            ],
            [
              -60.676463,
              -32.948101
            ],
            [
              -60.676455,
              -32.94807
            ],
            [
              -60.676378,
              -32.948084
            ],
            [
              -60.676352,
              -32.94798
            ],
            [
              -60.676339,
              -32.947983
            ],
            [
              -60.676357,
              -32.948063
            ],
            [
              -60.67639,
              -32.948214
            ],
            [
              -60.676399,
              -32.948212
            ],
            [
              -60.676486,
              -32.948196
            ],
            [
              -60.676487,
              -32.948196
            ]
          ]
        ]
      }
    }
  ]
}
