{"type":"FeatureCollection","name":"Sendai chibanzu sample near WUP 2025 point","crs":{"type":"name","properties":{"name":"urn:ogc:def:crs:OGC:1.3:CRS84"}},"features":[{"type":"Feature","id":309577,"properties":{"sourceShapeRecordNumber":309577,"containsWupPoint":true,"distanceToWupPointM":0.0,"sourceGeometryType":"Polygon","sourceCRS":"EPSG:6678"},"geometry":{"type":"Polygon","coordinates":[[[140.90768955766,38.27473590953],[140.90770315756,38.27464540676],[140.90770332205,38.27462738711],[140.90770331724,38.27440976508],[140.90770597497,38.27438218448],[140.90770560524,38.27438219508],[140.90768419161,38.27438280194],[140.90754397242,38.27442162372],[140.90749198815,38.27442853104],[140.9074593317,38.27439154854],[140.90746868148,38.27438101922],[140.90759010803,38.2743167388],[140.90761998589,38.27430752992],[140.90770696022,38.27430604227],[140.90770189533,38.2743043066],[140.90768121253,38.27427456043],[140.90767650535,38.27423132551],[140.90765651515,38.27405129589],[140.90763774541,38.27387997793],[140.90763782769,38.27387099514],[140.90763731265,38.27369081802],[140.90763682044,38.27351061385],[140.90763621406,38.27333051787],[140.9076362139,38.27320698486],[140.90750098242,38.27311335976],[140.90725227824,38.27311486816],[140.90703343616,38.2731146184],[140.90662335499,38.27311613663],[140.9064449473,38.27310320177],[140.90633349236,38.27310351443],[140.90610502801,38.27310414287],[140.90591625633,38.27310465622],[140.90591540293,38.27332661254],[140.90591581355,38.27350662396],[140.9059162749,38.27370889669],[140.90526776448,38.27370607056],[140.90526517005,38.27370603611],[140.90523229393,38.27370617745],[140.90521625389,38.27370624629],[140.90519651598,38.27370632145],[140.90487347409,38.27370677112],[140.90487261684,38.27374164848],[140.90487275516,38.27378943623],[140.904900059,38.27378922137],[140.90489919102,38.27385973238],[140.90489731534,38.27438243549],[140.90445917562,38.27437965029],[140.90445941732,38.27443410836],[140.9044605529,38.2746902136],[140.90489590213,38.27468930018],[140.90568992094,38.27468644366],[140.90638395465,38.2746812925],[140.9063844065,38.27468739184],[140.90708075197,38.27465140368],[140.90716738322,38.27463800573],[140.90724055929,38.27454274439],[140.90727025337,38.27449869492],[140.90733593413,38.27442841333],[140.9073801311,38.27442877287],[140.90740039043,38.27446925901],[140.90737530132,38.27448973604],[140.90730594179,38.27452764786],[140.90719406875,38.27467021688],[140.90706139525,38.27470091553],[140.90699425299,38.27470524635],[140.90699453847,38.27471631017],[140.90638472006,38.27473798151],[140.90699629818,38.27473855419],[140.90764926167,38.27473927768],[140.90768955766,38.27473590953]]]}},{"type":"Feature","id":303660,"properties":{"sourceShapeRecordNumber":303660,"containsWupPoint":false,"distanceToWupPointM":3.459697,"sourceGeometryType":"Polygon","sourceCRS":"EPSG:6678"},"geometry":{"type":"Polygon","coordinates":[[[140.90703343616,38.2731146184],[140.90725227824,38.27311486816],[140.90750098242,38.27311335976],[140.90760080708,38.27311288126],[140.90755221691,38.27307421638],[140.90612562883,38.27308308101],[140.90627234075,38.27308828675],[140.9064449473,38.27310320177],[140.90662335499,38.27311613663],[140.90703343616,38.2731146184]]]}},{"type":"Feature","id":644804,"properties":{"sourceShapeRecordNumber":644804,"containsWupPoint":false,"distanceToWupPointM":7.608304,"sourceGeometryType":"Polygon","sourceCRS":"EPSG:6678"},"geometry":{"type":"Polygon","coordinates":[[[140.90791046639,38.27312916149],[140.90795950616,38.2729296057],[140.9078466045,38.27291361483],[140.90770329412,38.27289331708],[140.90765858444,38.27290650823],[140.90746343413,38.2729698794],[140.90736807848,38.27296876879],[140.90717567511,38.27296653037],[140.90717168636,38.27296647882],[140.90710546428,38.27296542173],[140.90710032074,38.27296547902],[140.90694031223,38.27296727379],[140.90662074536,38.27296392533],[140.90658253686,38.27296352618],[140.90635798637,38.27296430673],[140.90626771812,38.27296469669],[140.90620517673,38.27296475357],[140.90594302113,38.27296335874],[140.90574833378,38.27296230869],[140.90571236558,38.27296212365],[140.90560161454,38.27296152565],[140.90559994592,38.27296152667],[140.90548503531,38.2729609131],[140.90545490723,38.27296067079],[140.90536301528,38.27296025917],[140.90523331498,38.27295956433],[140.90521902815,38.27295948299],[140.90521580517,38.27295946694],[140.90516832727,38.27295909959],[140.90500996012,38.27295586372],[140.90480782895,38.27295170828],[140.90473837613,38.27295491344],[140.90453312832,38.27295486788],[140.90416960794,38.27295478292],[140.90379120592,38.2729546882],[140.90344258945,38.27295461005],[140.90339903203,38.27295460003],[140.90339899063,38.27295908692],[140.90327113071,38.27295872263],[140.90308691284,38.27295821106],[140.90303313804,38.27295829752],[140.90280476931,38.27295867712],[140.90257164595,38.27295886987],[140.90239394394,38.27295979538],[140.90226809808,38.27296213129],[140.90226066882,38.2729622708],[140.90198672474,38.27296735164],[140.90196502039,38.27296773419],[140.90194159127,38.27296856778],[140.90189245724,38.27296931728],[140.90167588776,38.2729740305],[140.90122850039,38.27297622912],[140.90121309119,38.272973022],[140.90119881289,38.27296982278],[140.901193109,38.27296890708],[140.90076905837,38.27296860376],[140.90076853218,38.2729810826],[140.90077304686,38.27299371126],[140.90078341132,38.27301731091],[140.90101646845,38.27309701908],[140.90118446761,38.27309607424],[140.90137479951,38.27309572887],[140.90200182345,38.2730947212],[140.902041209,38.27309493239],[140.90219891206,38.27309610041],[140.90232474695,38.27309398983],[140.902532693,38.27309468637],[140.90308703347,38.27308969738],[140.90331226985,38.27308803071],[140.90397568307,38.27308599926],[140.90436865804,38.27308585932],[140.90487024283,38.27308322781],[140.90516239019,38.273085823],[140.9052172742,38.27308625789],[140.90522927517,38.27308625009],[140.90526644374,38.27308669582],[140.90574728776,38.27308747898],[140.90588233524,38.27308578235],[140.90591323989,38.27308537582],[140.90612578134,38.27308758535],[140.90612562883,38.27308308101],[140.90755221691,38.27307421638],[140.90760080708,38.27311288126],[140.90762225316,38.27312934566],[140.90765883221,38.2731574411],[140.90769975712,38.27318886739],[140.907700478,38.27320091255],[140.90770382039,38.27355332684],[140.90770460945,38.27366919743],[140.90770630856,38.27370018907],[140.90770805241,38.27386861216],[140.90770631756,38.27389447041],[140.90770777137,38.27427828355],[140.90770696022,38.27430604227],[140.90770597497,38.27438218448],[140.90770331724,38.27440976508],[140.90770332205,38.27462738711],[140.90770315756,38.27464540676],[140.90768955766,38.27473590953],[140.9076900419,38.27482017221],[140.90775787693,38.27477395502],[140.90774376327,38.27475295409],[140.90784848151,38.27475043562],[140.90789387612,38.27474934363],[140.90789687776,38.27468707699],[140.90789790306,38.27464917313],[140.90789867429,38.27461987377],[140.90790106694,38.27453153413],[140.90790135057,38.27441436502],[140.90790139551,38.27437895794],[140.90790189516,38.27437579519],[140.90790129937,38.27425868114],[140.90790080095,38.27421721939],[140.90790286372,38.274049398],[140.90790449314,38.27398700609],[140.90790330225,38.27369645022],[140.90790704209,38.27366094168],[140.90790390765,38.27337872153],[140.90790198594,38.27323182739],[140.90790188251,38.27316309685],[140.90791046639,38.27312916149]]]}}]}
