{
  "type": "FeatureCollection",
  "name": "sha-tin-nearby-land-department-lot",
  "crs": {
    "type": "name",
    "properties": {
      "name": "urn:ogc:def:crs:OGC:1.3:CRS84"
    }
  },
  "features": [
    {
      "type": "Feature",
      "properties": {
        "source": "Hong Kong Lands Department CSDI Lot dataset",
        "OBJECTID": 367394,
        "LotID": 1910159279,
        "LotCSUID": "732000590    &EXT",
        "distanceToWupPointMeters": 52.02,
        "containsWupPoint": false,
        "sourceCrs": "EPSG:2326"
      },
      "geometry": {
        "type": "Polygon",
        "coordinates": [
          [
            [
              114.20943823908509,
              22.40592467784049
            ],
            [
              114.20942461803662,
              22.405945432669984
            ],
            [
              114.20891207990977,
              22.405654563521683
            ],
            [
              114.20859300565728,
              22.405449887071526
            ],
            [
              114.20845078198954,
              22.40535462513347
            ],
            [
              114.20841053683621,
              22.405325249056883
            ],
            [
              114.20837416652033,
              22.405291192833296
            ],
            [
              114.20834221189031,
              22.405252962899183
            ],
            [
              114.20831514813067,
              22.40521112775659
            ],
            [
              114.20829337769572,
              22.405166309519178
            ],
            [
              114.20827722432493,
              22.40511917466102
            ],
            [
              114.20826692822857,
              22.405070424105723
            ],
            [
              114.20826264251578,
              22.405020782803284
            ],
            [
              114.20826443091768,
              22.40497098894964
            ],
            [
              114.20827226683967,
              22.40492178300926
            ],
            [
              114.20829090488961,
              22.404882722477367
            ],
            [
              114.20830174825433,
              22.40483155335862
            ],
            [
              114.20830622064861,
              22.40477943949327
            ],
            [
              114.2083042542608,
              22.404727171045895
            ],
            [
              114.20829587890579,
              22.404675540524877
            ],
            [
              114.208281221573,
              22.40462533076619
            ],
            [
              114.20826050450087,
              22.40457730306382
            ],
            [
              114.2082340418073,
              22.40453218562683
            ],
            [
              114.2082022347268,
              22.404490662538045
            ],
            [
              114.20762472021653,
              22.403836631270117
            ],
            [
              114.20753090033456,
              22.403908260974134
            ],
            [
              114.20755932504512,
              22.403951831244118
            ],
            [
              114.20758204129304,
              22.403998631935117
            ],
            [
              114.2075986879615,
              22.404047919063526
            ],
            [
              114.20760900042087,
              22.40409890911921
            ],
            [
              114.20761281473557,
              22.40415079152086
            ],
            [
              114.20761007026996,
              22.404202741501663
            ],
            [
              114.20760081065244,
              22.40425393322053
            ],
            [
              114.20758518308175,
              22.404303552890337
            ],
            [
              114.20756343598704,
              22.404350811714583
            ],
            [
              114.20753591507867,
              22.404394958426796
            ],
            [
              114.20750305785236,
              22.404435291233263
            ],
            [
              114.2074653866346,
              22.40447116896938
            ],
            [
              114.20742350027908,
              22.40450202129212
            ],
            [
              114.20737806464696,
              22.404527357746716
            ],
            [
              114.20736079139229,
              22.404457464946123
            ],
            [
              114.20732159715992,
              22.4044722264415
            ],
            [
              114.2072811171611,
              22.404482971640117
            ],
            [
              114.20723976180227,
              22.404489591601788
            ],
            [
              114.20719795036466,
              22.40449201921004
            ],
            [
              114.20698135682845,
              22.404359275283895
            ],
            [
              114.20642176854457,
              22.403988487017983
            ],
            [
              114.20633894959491,
              22.40392645550505
            ],
            [
              114.20625876747725,
              22.40386105126185
            ],
            [
              114.20603790929546,
              22.40366732386896
            ],
            [
              114.2057465087159,
              22.40339647929598
            ],
            [
              114.20559749657299,
              22.403187540092528
            ],
            [
              114.20534912195862,
              22.402921735175564
            ],
            [
              114.20495262970901,
              22.40258353107453
            ],
            [
              114.20480732927712,
              22.402422027699387
            ],
            [
              114.20463418815483,
              22.402224009630476
            ],
            [
              114.20447060253336,
              22.402028235516344
            ],
            [
              114.20431015383033,
              22.40182988236407
            ],
            [
              114.20415288269967,
              22.401629000431644
            ],
            [
              114.20399882899012,
              22.401425640617784
            ],
            [
              114.20380253316674,
              22.40115378309781
            ],
            [
              114.20363210924505,
              22.400906097368978
            ],
            [
              114.20346730640473,
              22.400654636522773
            ],
            [
              114.20330820823555,
              22.400399528102856
            ],
            [
              114.20315489543381,
              22.400140901502958
            ],
            [
              114.20300744576143,
              22.39987888790128
            ],
            [
              114.20296078693919,
              22.399802542531475
            ],
            [
              114.20276101700378,
              22.399416845705616
            ],
            [
              114.20261551443937,
              22.399128226933808
            ],
            [
              114.2025474039371,
              22.39916039540837
            ],
            [
              114.20215344314684,
              22.398547078540563
            ],
            [
              114.2022083840696,
              22.398511363307893
            ],
            [
              114.20187093642713,
              22.398055971353216
            ],
            [
              114.20165877134724,
              22.397729469970294
            ],
            [
              114.20163112670394,
              22.397695591749784
            ],
            [
              114.20096671883239,
              22.39666639501644
            ],
            [
              114.20074507708178,
              22.396381109030504
            ],
            [
              114.20034317740979,
              22.395761223524783
            ],
            [
              114.19982815963387,
              22.39493124021755
            ],
            [
              114.19977680721054,
              22.394815386065197
            ],
            [
              114.19969256511285,
              22.394652532740217
            ],
            [
              114.19961154227461,
              22.394489659352367
            ],
            [
              114.19953583350686,
              22.394324248883315
            ],
            [
              114.19946551814151,
              22.394156474659482
            ],
            [
              114.19940066985899,
              22.39398651248416
            ],
            [
              114.19934135661096,
              22.39381454045331
            ],
            [
              114.1992876405492,
              22.39364073876892
            ],
            [
              114.20003037802529,
              22.39306986044471
            ],
            [
              114.200789473976,
              22.39392481281853
            ],
            [
              114.20072407811357,
              22.39397524886619
            ],
            [
              114.20081540318935,
              22.394097562652973
            ],
            [
              114.20246049235482,
              22.395948176292926
            ],
            [
              114.20250563652309,
              22.395943175532395
            ],
            [
              114.2025604196355,
              22.39590029900094
            ],
            [
              114.20260476252157,
              22.39590696548678
            ],
            [
              114.20296222847439,
              22.395615502630687
            ],
            [
              114.20339325574132,
              22.39527416946767
            ],
            [
              114.2034764805995,
              22.394099927565122
            ],
            [
              114.2037746143056,
              22.393856000196635
            ],
            [
              114.20448915327327,
              22.39461237449991
            ],
            [
              114.2055682317724,
              22.395752974525685
            ],
            [
              114.20575981752431,
              22.395903623441313
            ],
            [
              114.20590676719685,
              22.395990976292193
            ],
            [
              114.21263865911624,
              22.403107911902335
            ],
            [
              114.21271659843362,
              22.40323062815209
            ],
            [
              114.21272003016368,
              22.403237142598535
            ],
            [
              114.21272235203907,
              22.403244129992785
            ],
            [
              114.21272350172639,
              22.403251402750364
            ],
            [
              114.212723448361,
              22.40325876562588
            ],
            [
              114.21272219337555,
              22.403266020954625
            ],
            [
              114.21271977046156,
              22.40327297395912
            ],
            [
              114.21271624466488,
              22.403279437978107
            ],
            [
              114.2127117106395,
              22.403285239477697
            ],
            [
              114.21270629010644,
              22.40329022271009
            ],
            [
              114.21255844921232,
              22.403410370126423
            ],
            [
              114.21259102142655,
              22.403443911233218
            ],
            [
              114.21231481722965,
              22.40367033059345
            ],
            [
              114.21044789412306,
              22.40519396700585
            ],
            [
              114.20977542544709,
              22.405745525689415
            ],
            [
              114.20968843324962,
              22.405818663330546
            ],
            [
              114.20964976289353,
              22.40584619740075
            ],
            [
              114.20960758365749,
              22.40586797889537
            ],
            [
              114.20956274537646,
              22.40588356895686
            ],
            [
              114.2095161514604,
              22.4058926534738
            ],
            [
              114.20946874069207,
              22.405895049409665
            ],
            [
              114.20942146831236,
              22.40589070849071
            ],
            [
              114.20943823908509,
              22.40592467784049
            ]
          ]
        ]
      }
    }
  ]
}
