{
  "type": "FeatureCollection",
  "name": "Stuttgart official ALKIS WFS sample from 40 m WUP-centered bbox",
  "coordinateReferenceSystem": "OGC:CRS84 transformed from EPSG:25832; full uncut parcel geometries",
  "features": [
    {
      "type": "Feature",
      "id": "v_al_flurstueck.643c9d54-9e7d-4b7f-bafc-8d6c8eb374d8",
      "properties": {
        "gml_id": "DEBWL52210005aIr",
        "flurstueckskennzeichen": "08146000000678000000",
        "gemeinde_id": 8111000,
        "gemeinde_name": "Stuttgart"
      },
      "geometry": {
        "type": "Polygon",
        "coordinates": [
          [
            [
              9.208027456,
              48.799004651
            ],
            [
              9.207904523,
              48.798979055
            ],
            [
              9.207766481,
              48.798954835
            ],
            [
              9.207628734,
              48.798936282
            ],
            [
              9.207491266,
              48.798919347
            ],
            [
              9.20735395,
              48.79890619
            ],
            [
              9.207216633,
              48.798892673
            ],
            [
              9.20707902,
              48.798873399
            ],
            [
              9.206940991,
              48.798852237
            ],
            [
              9.20680323,
              48.798830084
            ],
            [
              9.2066652,
              48.798808651
            ],
            [
              9.206527306,
              48.798787398
            ],
            [
              9.206389268,
              48.798763806
            ],
            [
              9.2062508,
              48.798735177
            ],
            [
              9.206112321,
              48.798703759
            ],
            [
              9.205835673,
              48.798650098
            ],
            [
              9.205521713,
              48.798595963
            ],
            [
              9.205364075,
              48.798574474
            ],
            [
              9.205243501,
              48.798559215
            ],
            [
              9.205123341,
              48.798545306
            ],
            [
              9.205002372,
              48.798533106
            ],
            [
              9.204880862,
              48.798521988
            ],
            [
              9.204759222,
              48.798512488
            ],
            [
              9.204637453,
              48.798504518
            ],
            [
              9.204551102,
              48.798499993
            ],
            [
              9.204515826,
              48.798498167
            ],
            [
              9.20434,
              48.798490922
            ],
            [
              9.204339316,
              48.798490114
            ],
            [
              9.204037723,
              48.798630715
            ],
            [
              9.203915484,
              48.798574257
            ],
            [
              9.203910848,
              48.798572646
            ],
            [
              9.20390567,
              48.798571845
            ],
            [
              9.203900496,
              48.798571944
            ],
            [
              9.203895462,
              48.798572943
            ],
            [
              9.203890975,
              48.79857475
            ],
            [
              9.203887309,
              48.798577275
            ],
            [
              9.203879169,
              48.798584756
            ],
            [
              9.203676983,
              48.798490926
            ],
            [
              9.202258447,
              48.79783663
            ],
            [
              9.202153119,
              48.797785448
            ],
            [
              9.202022,
              48.797720727
            ],
            [
              9.20191638,
              48.797664508
            ],
            [
              9.201812118,
              48.797607476
            ],
            [
              9.201709758,
              48.797549272
            ],
            [
              9.201609568,
              48.797488815
            ],
            [
              9.20150992,
              48.797427636
            ],
            [
              9.200765212,
              48.796948733
            ],
            [
              9.199407998,
              48.796080011
            ],
            [
              9.197727595,
              48.795006631
            ],
            [
              9.196111274,
              48.79397216
            ],
            [
              9.196143458,
              48.793950155
            ],
            [
              9.191434939,
              48.79094011
            ],
            [
              9.191316342,
              48.790865911
            ],
            [
              9.191195843,
              48.790792614
            ],
            [
              9.191074938,
              48.790719857
            ],
            [
              9.19095132,
              48.790649804
            ],
            [
              9.190825801,
              48.790580833
            ],
            [
              9.190698652,
              48.790512764
            ],
            [
              9.190570282,
              48.790446046
            ],
            [
              9.19044042,
              48.790380501
            ],
            [
              9.190308931,
              48.790316667
            ],
            [
              9.190175677,
              48.790254095
            ],
            [
              9.190040524,
              48.790193235
            ],
            [
              9.189903743,
              48.790133817
            ],
            [
              9.189766149,
              48.79007557
            ],
            [
              9.189628557,
              48.790017593
            ],
            [
              9.189490968,
              48.789960335
            ],
            [
              9.189355816,
              48.789899295
            ],
            [
              9.189223924,
              48.78983618
            ],
            [
              9.189095153,
              48.789770271
            ],
            [
              9.188969094,
              48.789701389
            ],
            [
              9.188846704,
              48.789630341
            ],
            [
              9.188726621,
              48.789557581
            ],
            [
              9.188610206,
              48.789482295
            ],
            [
              9.188557656,
              48.789446577
            ],
            [
              9.188525995,
              48.789426568
            ],
            [
              9.188519026,
              48.789419743
            ],
            [
              9.188511925,
              48.789413997
            ],
            [
              9.188506455,
              48.789407619
            ],
            [
              9.188502481,
              48.789400698
            ],
            [
              9.188500275,
              48.789393415
            ],
            [
              9.188499839,
              48.789386039
            ],
            [
              9.188501173,
              48.78937866
            ],
            [
              9.188504414,
              48.789371548
            ],
            [
              9.18850929,
              48.789364883
            ],
            [
              9.188515666,
              48.789358846
            ],
            [
              9.188523407,
              48.789353525
            ],
            [
              9.188532376,
              48.789349103
            ],
            [
              9.188542301,
              48.789345668
            ],
            [
              9.188552912,
              48.789343402
            ],
            [
              9.188564072,
              48.789342214
            ],
            [
              9.188575236,
              48.789342286
            ],
            [
              9.188577279,
              48.789342462
            ],
            [
              9.188870594,
              48.789357365
            ],
            [
              9.189093904,
              48.789292948
            ],
            [
              9.189120838,
              48.789286786
            ],
            [
              9.189147498,
              48.789280175
            ],
            [
              9.18917402,
              48.789273115
            ],
            [
              9.189200131,
              48.789265606
            ],
            [
              9.190616683,
              48.788857734
            ],
            [
              9.190661563,
              48.788844976
            ],
            [
              9.190706991,
              48.788833206
            ],
            [
              9.190752967,
              48.788822424
            ],
            [
              9.190799355,
              48.788812542
            ],
            [
              9.190846291,
              48.788803738
            ],
            [
              9.19089364,
              48.788795833
            ],
            [
              9.190930379,
              48.788790555
            ],
            [
              9.190967531,
              48.788786445
            ],
            [
              9.191004959,
              48.788783414
            ],
            [
              9.191042528,
              48.788781643
            ],
            [
              9.191080238,
              48.788781041
            ],
            [
              9.191117816,
              48.788781698
            ],
            [
              9.191155399,
              48.788783435
            ],
            [
              9.19115447,
              48.788789824
            ],
            [
              9.19118947,
              48.788792644
            ],
            [
              9.191224338,
              48.788796635
            ],
            [
              9.191258803,
              48.788801885
            ],
            [
              9.191292727,
              48.788808306
            ],
            [
              9.191326112,
              48.788815897
            ],
            [
              9.19135882,
              48.788824659
            ],
            [
              9.191390852,
              48.788834591
            ],
            [
              9.191421934,
              48.788845604
            ],
            [
              9.191452204,
              48.788857609
            ],
            [
              9.191481389,
              48.788870694
            ],
            [
              9.191509489,
              48.788884861
            ],
            [
              9.191536503,
              48.78889993
            ],
            [
              9.191562295,
              48.7889159
            ],
            [
              9.191586593,
              48.788932772
            ],
            [
              9.191609669,
              48.788950455
            ],
            [
              9.191818194,
              48.789115994
            ],
            [
              9.192321298,
              48.789555687
            ],
            [
              9.192384825,
              48.789612796
            ],
            [
              9.192449438,
              48.789669272
            ],
            [
              9.192515139,
              48.789725207
            ],
            [
              9.192582063,
              48.789780601
            ],
            [
              9.19265021,
              48.789835272
            ],
            [
              9.192719308,
              48.789889402
            ],
            [
              9.192789629,
              48.7899429
            ],
            [
              9.192861037,
              48.789995767
            ],
            [
              9.192906499,
              48.790028256
            ],
            [
              9.192952911,
              48.790060114
            ],
            [
              9.193000411,
              48.790091341
            ],
            [
              9.193048997,
              48.790121846
            ],
            [
              9.193098397,
              48.790151719
            ],
            [
              9.19383991,
              48.790588578
            ],
            [
              9.194590454,
              48.791033602
            ],
            [
              9.19532135,
              48.791464441
            ],
            [
              9.196061948,
              48.791901107
            ],
            [
              9.196799296,
              48.792338943
            ],
            [
              9.19690602,
              48.792403171
            ],
            [
              9.197011794,
              48.792468031
            ],
            [
              9.197116889,
              48.792533432
            ],
            [
              9.197221034,
              48.792599464
            ],
            [
              9.197323959,
              48.792666848
            ],
            [
              9.197425798,
              48.792734952
            ],
            [
              9.197526552,
              48.792803869
            ],
            [
              9.197626082,
              48.792873417
            ],
            [
              9.198340962,
              48.793372633
            ],
            [
              9.199066249,
              48.793883252
            ],
            [
              9.199188838,
              48.793963914
            ],
            [
              9.199907237,
              48.794415706
            ],
            [
              9.199983945,
              48.794462622
            ],
            [
              9.200061739,
              48.794508636
            ],
            [
              9.200140756,
              48.794553839
            ],
            [
              9.200220858,
              48.79459814
            ],
            [
              9.200302047,
              48.794641539
            ],
            [
              9.200384457,
              48.794684036
            ],
            [
              9.200468222,
              48.794724732
            ],
            [
              9.200553072,
              48.794764527
            ],
            [
              9.200638873,
              48.79480342
            ],
            [
              9.200725758,
              48.794841321
            ],
            [
              9.200813457,
              48.794878232
            ],
            [
              9.200902106,
              48.794914241
            ],
            [
              9.200992659,
              48.794949887
            ],
            [
              9.201542881,
              48.795220154
            ],
            [
              9.202092289,
              48.79548988
            ],
            [
              9.202643201,
              48.795759421
            ],
            [
              9.203194394,
              48.796029858
            ],
            [
              9.204847875,
              48.796841694
            ],
            [
              9.206405226,
              48.797608699
            ],
            [
              9.207040052,
              48.797974505
            ],
            [
              9.208027456,
              48.799004651
            ]
          ]
        ]
      }
    },
    {
      "type": "Feature",
      "id": "v_al_flurstueck.a2008187-3894-40b0-ba72-357b32073b87",
      "properties": {
        "gml_id": "DEBWL52210004WLp",
        "flurstueckskennzeichen": "08146000000688000200",
        "gemeinde_id": 8111000,
        "gemeinde_name": "Stuttgart"
      },
      "geometry": {
        "type": "Polygon",
        "coordinates": [
          [
            [
              9.200707408,
              48.794507874
            ],
            [
              9.200745329,
              48.79452508
            ],
            [
              9.200783793,
              48.794541835
            ],
            [
              9.200822528,
              48.79455814
            ],
            [
              9.200861806,
              48.794574085
            ],
            [
              9.201983098,
              48.795017964
            ],
            [
              9.201978083,
              48.795023551
            ],
            [
              9.201542881,
              48.795220154
            ],
            [
              9.200992659,
              48.794949887
            ],
            [
              9.200902106,
              48.794914241
            ],
            [
              9.200813457,
              48.794878232
            ],
            [
              9.200725758,
              48.794841321
            ],
            [
              9.200638873,
              48.79480342
            ],
            [
              9.200553072,
              48.794764527
            ],
            [
              9.200468222,
              48.794724732
            ],
            [
              9.200384457,
              48.794684036
            ],
            [
              9.200302047,
              48.794641539
            ],
            [
              9.200220858,
              48.79459814
            ],
            [
              9.200140756,
              48.794553839
            ],
            [
              9.200061739,
              48.794508636
            ],
            [
              9.199983945,
              48.794462622
            ],
            [
              9.199907237,
              48.794415706
            ],
            [
              9.199188838,
              48.793963914
            ],
            [
              9.199066249,
              48.793883252
            ],
            [
              9.198340962,
              48.793372633
            ],
            [
              9.197626082,
              48.792873417
            ],
            [
              9.197526552,
              48.792803869
            ],
            [
              9.197425798,
              48.792734952
            ],
            [
              9.197323959,
              48.792666848
            ],
            [
              9.197221034,
              48.792599464
            ],
            [
              9.197116889,
              48.792533432
            ],
            [
              9.197011794,
              48.792468031
            ],
            [
              9.19690602,
              48.792403171
            ],
            [
              9.196799296,
              48.792338943
            ],
            [
              9.196061948,
              48.791901107
            ],
            [
              9.19532135,
              48.791464441
            ],
            [
              9.194590454,
              48.791033602
            ],
            [
              9.19383991,
              48.790588578
            ],
            [
              9.193098397,
              48.790151719
            ],
            [
              9.193048997,
              48.790121846
            ],
            [
              9.193000411,
              48.790091341
            ],
            [
              9.192952911,
              48.790060114
            ],
            [
              9.192906499,
              48.790028256
            ],
            [
              9.192861037,
              48.789995767
            ],
            [
              9.192789629,
              48.7899429
            ],
            [
              9.192719308,
              48.789889402
            ],
            [
              9.19265021,
              48.789835272
            ],
            [
              9.192582063,
              48.789780601
            ],
            [
              9.192515139,
              48.789725207
            ],
            [
              9.192449438,
              48.789669272
            ],
            [
              9.192384825,
              48.789612796
            ],
            [
              9.192321298,
              48.789555687
            ],
            [
              9.191818194,
              48.789115994
            ],
            [
              9.191609669,
              48.788950455
            ],
            [
              9.191586593,
              48.788932772
            ],
            [
              9.191562295,
              48.7889159
            ],
            [
              9.191536503,
              48.78889993
            ],
            [
              9.191509489,
              48.788884861
            ],
            [
              9.191481389,
              48.788870694
            ],
            [
              9.191452204,
              48.788857609
            ],
            [
              9.191421934,
              48.788845604
            ],
            [
              9.191390852,
              48.788834591
            ],
            [
              9.19135882,
              48.788824659
            ],
            [
              9.191326112,
              48.788815897
            ],
            [
              9.191292727,
              48.788808306
            ],
            [
              9.191258803,
              48.788801885
            ],
            [
              9.191224338,
              48.788796635
            ],
            [
              9.19118947,
              48.788792644
            ],
            [
              9.19115447,
              48.788789824
            ],
            [
              9.191155399,
              48.788783435
            ],
            [
              9.190908004,
              48.788598618
            ],
            [
              9.190909907,
              48.788597895
            ],
            [
              9.190911946,
              48.788597172
            ],
            [
              9.19091385,
              48.78859645
            ],
            [
              9.190933287,
              48.788588321
            ],
            [
              9.190951769,
              48.788579384
            ],
            [
              9.190969158,
              48.78856955
            ],
            [
              9.190985455,
              48.788558818
            ],
            [
              9.19100066,
              48.788547458
            ],
            [
              9.191009204,
              48.788538897
            ],
            [
              9.191016521,
              48.788529709
            ],
            [
              9.191022203,
              48.788520164
            ],
            [
              9.191026386,
              48.788510262
            ],
            [
              9.19102907,
              48.788500092
            ],
            [
              9.191029984,
              48.788489835
            ],
            [
              9.1910294,
              48.788479491
            ],
            [
              9.191027184,
              48.788469329
            ],
            [
              9.191023334,
              48.78845935
            ],
            [
              9.191417844,
              48.788414525
            ],
            [
              9.191602011,
              48.788548169
            ],
            [
              9.191739627,
              48.788648695
            ],
            [
              9.192245584,
              48.788945438
            ],
            [
              9.192263919,
              48.788933893
            ],
            [
              9.192400916,
              48.789014268
            ],
            [
              9.192354895,
              48.789048709
            ],
            [
              9.19280089,
              48.789363902
            ],
            [
              9.192716543,
              48.78941613
            ],
            [
              9.193010122,
              48.789676971
            ],
            [
              9.19303512,
              48.789698789
            ],
            [
              9.193060663,
              48.789720337
            ],
            [
              9.193086612,
              48.789741614
            ],
            [
              9.19311297,
              48.78976271
            ],
            [
              9.193154753,
              48.789794576
            ],
            [
              9.193197487,
              48.78982581
            ],
            [
              9.193241444,
              48.789856412
            ],
            [
              9.193286488,
              48.789886293
            ],
            [
              9.193332481,
              48.789915453
            ],
            [
              9.193379562,
              48.789943891
            ],
            [
              9.193776518,
              48.790178289
            ],
            [
              9.196899902,
              48.792022743
            ],
            [
              9.197081133,
              48.792129665
            ],
            [
              9.197126578,
              48.792156665
            ],
            [
              9.197171751,
              48.792183846
            ],
            [
              9.197216925,
              48.792211026
            ],
            [
              9.197322562,
              48.792275886
            ],
            [
              9.197427113,
              48.792341377
            ],
            [
              9.197530715,
              48.79240768
            ],
            [
              9.19763323,
              48.792474614
            ],
            [
              9.197734659,
              48.79254227
            ],
            [
              9.197835001,
              48.792610646
            ],
            [
              9.197934258,
              48.792679745
            ],
            [
              9.198360244,
              48.792979567
            ],
            [
              9.199100817,
              48.793500685
            ],
            [
              9.199374166,
              48.793692996
            ],
            [
              9.199399425,
              48.793710584
            ],
            [
              9.199425091,
              48.793727902
            ],
            [
              9.199451165,
              48.793744949
            ],
            [
              9.199477647,
              48.793761816
            ],
            [
              9.20000494,
              48.794092492
            ],
            [
              9.199992452,
              48.79410205
            ],
            [
              9.200358001,
              48.794331891
            ],
            [
              9.200631294,
              48.794473642
            ],
            [
              9.200706865,
              48.794508235
            ],
            [
              9.200707408,
              48.794507874
            ]
          ]
        ]
      }
    },
    {
      "type": "Feature",
      "id": "v_al_flurstueck.9eaab51a-5db7-4fc2-befe-24e177442e5c",
      "properties": {
        "gml_id": "DEBWL52210005qHb",
        "flurstueckskennzeichen": "08146000001247000200",
        "gemeinde_id": 8111000,
        "gemeinde_name": "Stuttgart"
      },
      "geometry": {
        "type": "Polygon",
        "coordinates": [
          [
            [
              9.202127271,
              48.79491057
            ],
            [
              9.201100796,
              48.794308648
            ],
            [
              9.201073916,
              48.794328575
            ],
            [
              9.200694368,
              48.794106048
            ],
            [
              9.200689616,
              48.794109564
            ],
            [
              9.199343279,
              48.793320257
            ],
            [
              9.198543277,
              48.79285133
            ],
            [
              9.198695428,
              48.792729982
            ],
            [
              9.199020641,
              48.792920675
            ],
            [
              9.199663294,
              48.793297573
            ],
            [
              9.199818739,
              48.793388793
            ],
            [
              9.199966806,
              48.793473458
            ],
            [
              9.201084154,
              48.794130827
            ],
            [
              9.201230186,
              48.794216303
            ],
            [
              9.201420302,
              48.794327701
            ],
            [
              9.202078141,
              48.794713285
            ],
            [
              9.202254203,
              48.79481634
            ],
            [
              9.202127271,
              48.79491057
            ]
          ]
        ]
      }
    }
  ]
}
