{"type":"FeatureCollection","features":[{"type":"Feature","properties":{"idu":"31555827AD0628"},"geometry":{"type":"MultiPolygon","coordinates":[[[[1.42143408,43.60564556],[1.42250326,43.60538813],[1.42254587,43.60537894],[1.42286832,43.60529939],[1.42285139,43.60526216],[1.4229416,43.60523782],[1.4236524,43.60506931],[1.42379677,43.60503424],[1.42400383,43.60498505],[1.42451206,43.60486453],[1.42462611,43.60483793],[1.42484273,43.60478761],[1.42487532,43.60477783],[1.42490244,43.60480045],[1.42490387,43.60481181],[1.42490729,43.60482698],[1.42528355,43.60474514],[1.42530609,43.60473601],[1.42543698,43.60468211],[1.42544844,43.60467985],[1.42546612,43.6046766],[1.42602013,43.6046111],[1.42614219,43.60458605],[1.42617681,43.6045789],[1.42623192,43.60456989],[1.42645548,43.60454199],[1.42645242,43.60450919],[1.42647216,43.60450749],[1.42654468,43.60450503],[1.42666903,43.60449109],[1.42763364,43.60445069],[1.42775856,43.60446114],[1.42776934,43.60446544],[1.42778991,43.6044831],[1.42779219,43.60451283],[1.42784501,43.60451063],[1.42783848,43.60439642],[1.42783196,43.60439039],[1.42782926,43.60434877],[1.42785093,43.60434413],[1.42786927,43.60433459],[1.42788215,43.60432119],[1.42788853,43.60430544],[1.42788737,43.60428895],[1.4278228,43.60429972],[1.427728,43.60430618],[1.42772465,43.60424781],[1.4274808,43.60425688],[1.42655203,43.60430904],[1.4262825,43.60433322],[1.42601439,43.60436452],[1.42574807,43.60440278],[1.42548366,43.60444791],[1.42522179,43.60450009],[1.42496257,43.60455897],[1.42470652,43.60462464],[1.42242732,43.60517284],[1.42136264,43.60543339],[1.42143408,43.60564556]]]]}},{"type":"Feature","properties":{"idu":"31555828AB0562"},"geometry":{"type":"MultiPolygon","coordinates":[[[[1.42575287,43.60284199],[1.42568718,43.60286209],[1.42548865,43.60290313],[1.42539909,43.60292208],[1.42538055,43.60295709],[1.42531196,43.60293837],[1.42505243,43.60299112],[1.42504047,43.60299347],[1.42488555,43.60302947],[1.42487672,43.60303519],[1.4248645,43.60304303],[1.42483962,43.60305598],[1.42482233,43.60306338],[1.4247941,43.60307206],[1.42441094,43.60314426],[1.42440329,43.60312966],[1.42437289,43.60313606],[1.42438284,43.60316185],[1.42382381,43.6032792],[1.42376275,43.60327048],[1.42291003,43.6034489],[1.42257343,43.60352086],[1.42239003,43.60355636],[1.42172208,43.60367166],[1.42105276,43.60378217],[1.42094121,43.60380368],[1.42056691,43.60389975],[1.42053986,43.60391961],[1.42050713,43.60393452],[1.42047084,43.60394371],[1.42043248,43.60394693],[1.42043053,43.60394582],[1.42039581,43.60394298],[1.4205062,43.60405843],[1.42059894,43.60403629],[1.42088607,43.60397116],[1.42117483,43.60390976],[1.4253473,43.6030359],[1.425531,43.60299833],[1.42571368,43.60295697],[1.42569372,43.60294885],[1.42570701,43.60292484],[1.42575287,43.60284199]]]]}}]}
