{
  "description": "Three official Athens parcel samples, retaining only geometry, native KAEK and transport OBJECTID.",
  "type": "FeatureCollection",
  "features": [
    {
      "type": "Feature",
      "id": 1297965,
      "properties": {
        "OBJECTID": 1297965,
        "KAEK": "050096064001"
      },
      "geometry": {
        "type": "Polygon",
        "coordinates": [
          [
            [
              23.7282778269734,
              37.9879792960223
            ],
            [
              23.7284258747221,
              37.9880644037189
            ],
            [
              23.7284945284677,
              37.9879880256386
            ],
            [
              23.7284773760357,
              37.9879148278091
            ],
            [
              23.7282876383729,
              37.987944694022
            ],
            [
              23.7282778269734,
              37.9879792960223
            ]
          ]
        ]
      }
    },
    {
      "type": "Feature",
      "id": 1297966,
      "properties": {
        "OBJECTID": 1297966,
        "KAEK": "050096064002"
      },
      "geometry": {
        "type": "Polygon",
        "coordinates": [
          [
            [
              23.7284773760357,
              37.9879148278091
            ],
            [
              23.7284945284677,
              37.9879880256386
            ],
            [
              23.7286195470058,
              37.9880595411934
            ],
            [
              23.7288594070681,
              37.988025819272
            ],
            [
              23.7288182004477,
              37.9878601582498
            ],
            [
              23.7284773760357,
              37.9879148278091
            ]
          ]
        ]
      }
    },
    {
      "type": "Feature",
      "id": 1297967,
      "properties": {
        "OBJECTID": 1297967,
        "KAEK": "050096064003"
      },
      "geometry": {
        "type": "Polygon",
        "coordinates": [
          [
            [
              23.7284258747221,
              37.9880644037189
            ],
            [
              23.7285788272723,
              37.9881536679641
            ],
            [
              23.7286497016532,
              37.9880771604132
            ],
            [
              23.7286195470058,
              37.9880595411934
            ],
            [
              23.7284945284677,
              37.9879880256386
            ],
            [
              23.7284258747221,
              37.9880644037189
            ]
          ]
        ]
      }
    }
  ]
}
