{
  "type": "FeatureCollection",
  "features": [
    {
      "type": "Feature",
      "id": "TR-TKGM-147986-1065-16",
      "geometry": {
        "type": "Polygon",
        "coordinates": [
          [
            [
              28.94965,
              41.0141
            ],
            [
              28.94962,
              41.01412
            ],
            [
              28.9496,
              41.01414
            ],
            [
              28.94953,
              41.01416
            ],
            [
              28.94951,
              41.01416
            ],
            [
              28.94948,
              41.01417
            ],
            [
              28.94946,
              41.01412
            ],
            [
              28.94945,
              41.0141
            ],
            [
              28.94949,
              41.01407
            ],
            [
              28.94925,
              41.01392
            ],
            [
              28.94929,
              41.01388
            ],
            [
              28.94921,
              41.01383
            ],
            [
              28.94921,
              41.01383
            ],
            [
              28.94917,
              41.0138
            ],
            [
              28.9491,
              41.01375
            ],
            [
              28.94918,
              41.01368
            ],
            [
              28.94923,
              41.0137
            ],
            [
              28.94925,
              41.01366
            ],
            [
              28.94928,
              41.01361
            ],
            [
              28.94928,
              41.01361
            ],
            [
              28.94929,
              41.01361
            ],
            [
              28.94929,
              41.01361
            ],
            [
              28.94938,
              41.01365
            ],
            [
              28.94943,
              41.01367
            ],
            [
              28.94943,
              41.01368
            ],
            [
              28.94945,
              41.01368
            ],
            [
              28.94946,
              41.01368
            ],
            [
              28.94948,
              41.01368
            ],
            [
              28.94951,
              41.01368
            ],
            [
              28.94951,
              41.01371
            ],
            [
              28.94955,
              41.01371
            ],
            [
              28.9496,
              41.01371
            ],
            [
              28.94959,
              41.01367
            ],
            [
              28.94974,
              41.01364
            ],
            [
              28.94974,
              41.01366
            ],
            [
              28.94975,
              41.01368
            ],
            [
              28.94974,
              41.01368
            ],
            [
              28.94976,
              41.01373
            ],
            [
              28.94981,
              41.01371
            ],
            [
              28.94981,
              41.01371
            ],
            [
              28.94983,
              41.0137
            ],
            [
              28.94984,
              41.01372
            ],
            [
              28.94987,
              41.01371
            ],
            [
              28.94995,
              41.01382
            ],
            [
              28.95,
              41.01388
            ],
            [
              28.94993,
              41.01391
            ],
            [
              28.94982,
              41.01396
            ],
            [
              28.94981,
              41.01394
            ],
            [
              28.94972,
              41.01396
            ],
            [
              28.94972,
              41.01395
            ],
            [
              28.94962,
              41.014
            ],
            [
              28.94965,
              41.0141
            ]
          ]
        ]
      },
      "properties": {
        "nativeId": "147986-1065-16",
        "mahalleId": "147986",
        "adaNo": "1065",
        "parselNo": "16"
      }
    }
  ]
}
