{
  "description": "One registered Tbilisi parcel from anonymous public MSDA search, retaining only geometry and native cadastral code.",
  "type": "FeatureCollection",
  "features": [
    {
      "type": "Feature",
      "id": "01.16.06.023.021",
      "properties": {
        "cadCode": "01.16.06.023.021"
      },
      "geometry": {
        "type": "Polygon",
        "coordinates": [
          [
            [
              44.80672966388622,
              41.708941444187076
            ],
            [
              44.80666646292635,
              41.70899857722461
            ],
            [
              44.80656614161029,
              41.70894133479246
            ],
            [
              44.80655259169339,
              41.708933603691264
            ],
            [
              44.806565920829,
              41.70891834915187
            ],
            [
              44.80662768274834,
              41.70884766073413
            ],
            [
              44.8067449407609,
              41.70891718488199
            ],
            [
              44.80672132924812,
              41.70893659604853
            ],
            [
              44.80672966388622,
              41.708941444187076
            ]
          ]
        ]
      }
    }
  ]
}
