{
  "type": "FeatureCollection",
  "name": "batman-parcel-samples",
  "crs": {
    "type": "name",
    "properties": {
      "name": "EPSG:4326"
    }
  },
  "features": [
    {
      "type": "Feature",
      "id": "TR-94-969-206035-2851-4",
      "properties": {
        "id": "TR-94-969-206035-2851-4"
      },
      "geometry": {
        "type": "Polygon",
        "coordinates": [
          [
            [
              41.13058,
              37.8896
            ],
            [
              41.13062,
              37.88964
            ],
            [
              41.13044,
              37.88971
            ],
            [
              41.13043,
              37.88969
            ],
            [
              41.13037,
              37.88958
            ],
            [
              41.1304,
              37.88957
            ],
            [
              41.13052,
              37.88951
            ],
            [
              41.13053,
              37.88953
            ],
            [
              41.13058,
              37.8896
            ]
          ]
        ]
      }
    }
  ]
}
