{
  "type": "FeatureCollection",
  "features": [
    {
      "type": "Feature",
      "geometry": {"type": "Polygon", "coordinates": [[[11.338380209833943,44.494335722159086],[11.338350714921431,44.494345139815479],[11.33834365169584,44.49435974254277],[11.33824506717133,44.494382647788726],[11.338194887545329,44.494266048762697],[11.338193156953174,44.494261772005459],[11.338239655407708,44.494255156978667],[11.338235920611975,44.494241018507523],[11.338368572412202,44.494219567018227],[11.338369689236583,44.494221704744298],[11.338402026348103,44.494328667403586],[11.338380209833943,44.494335722159086]]]},
      "properties": {"id": "A944_ 187  296"}
    }
  ]
}
