{
  "type": "FeatureCollection",
  "features": [
    {"type":"Feature","properties":{"id":"761090102000005820011000000000"},"geometry":{"type":"Polygon","coordinates":[[[-76.998553462,3.868833733],[-76.998578036,3.868835032],[-76.998593943,3.868835877],[-76.998598028,3.868836091],[-76.998614057,3.86883694],[-76.998704875,3.86884174],[-76.998726584,3.868842891],[-76.998729692,3.868772173],[-76.99872992,3.868766923],[-76.998708902,3.868766662],[-76.998605101,3.868764001],[-76.998601926,3.868763916],[-76.998598517,3.868763828],[-76.998561303,3.868762867],[-76.998553462,3.868833733]]]}},
    {"type":"Feature","properties":{"id":"761090102000005820001000000000"},"geometry":{"type":"Polygon","coordinates":[[[-76.99855277,3.868907779],[-76.998572785,3.868910385],[-76.998588352,3.868910947],[-76.998623295,3.868912205],[-76.99872338,3.868915817],[-76.998726584,3.868842891],[-76.998704875,3.86884174],[-76.998614057,3.86883694],[-76.998598028,3.868836091],[-76.998593943,3.868835877],[-76.998578036,3.868835032],[-76.998553462,3.868833733],[-76.99855277,3.868907779]]]}},
    {"type":"Feature","properties":{"id":"761090102000005820006000000000"},"geometry":{"type":"Polygon","coordinates":[[[-76.998573781,3.868552017],[-76.998611603,3.868553379],[-76.998707182,3.868556812],[-76.998739544,3.868557977],[-76.998745636,3.868494061],[-76.998713296,3.868492652],[-76.998707856,3.868492418],[-76.998687098,3.868491512],[-76.998678511,3.868491206],[-76.998615609,3.868488943],[-76.998574992,3.868487481],[-76.998574575,3.868509701],[-76.998573781,3.868552017]]]}}
  ]
}
