{
  "type": "FeatureCollection",
  "features": [
    {
      "type": "Feature",
      "geometry": {"type": "Polygon", "coordinates": [[[15.070339035974703,37.527562560223373],[15.070297004623713,37.527721892015755],[15.069798731181491,37.527671512960659],[15.069840684341031,37.527512181390072],[15.070339035974703,37.527562560223373]]]},
      "properties": {"id": "C351A000600:678"}
    },
    {
      "type": "Feature",
      "geometry": {"type": "Polygon", "coordinates": [[[15.070965184802121,37.527132497218773],[15.070951219017822,37.527096766592692],[15.070983591768474,37.527101497319691],[15.071004915867452,37.527031737082595],[15.071025041565539,37.526999158759075],[15.071049927750261,37.527009897043335],[15.071070097551576,37.526988044897649],[15.071095404422437,37.526965044925902],[15.07112422216467,37.526944620730802],[15.071142640896602,37.526961879740213],[15.071171395412241,37.526946395037449],[15.071204848753192,37.526933070764478],[15.071241665424026,37.526921880682124],[15.071252340746053,37.526948698786256],[15.07128708909082,37.526976115287709],[15.071329471618666,37.526998073926052],[15.071378583746908,37.527015440547686],[15.071242594712523,37.527137404874431],[15.071236382218803,37.527174012946269],[15.071215455836349,37.527209557269686],[15.071184145480585,37.527239086748061],[15.071142766926602,37.527261429411965],[15.071094745294507,37.527272247636404],[15.07106084903651,37.52724834588011],[15.071030968493059,37.527222278429342],[15.071005092763617,37.527194486961093],[15.070983051543742,37.527164403722168],[15.070965184802121,37.527132497218773]]]},
      "properties": {"id": "C351A000600:756"}
    },
    {
      "type": "Feature",
      "geometry": {"type": "Polygon", "coordinates": [[[15.069555058106443,37.527728379447389],[15.069572239511473,37.527729649261772],[15.069578961076187,37.527667505387704],[15.06962462980503,37.527669614702162],[15.069623675713888,37.527739011145052],[15.069618228561717,37.527808473331135],[15.069606259628019,37.527887124241225],[15.069587172499428,37.527942127598678],[15.069570005385012,37.527980670947464],[15.069504188341035,37.528048942819275],[15.069341242629575,37.527970728252612],[15.069410278430578,37.527895045381442],[15.069490159962134,37.527810964405525],[15.069555058106443,37.527728379447389]]]},
      "properties": {"id": "C351A001200:1099"}
    }
  ]
}
