{
  "type": "FeatureCollection",
  "features": [
    {"type":"Feature","geometry":{"type":"Polygon","coordinates":[[[28.45218202864234,-26.131632031893258],[28.452146347375297,-26.13143558444795],[28.45200677443641,-26.131455361905864],[28.452043745339836,-26.131651814286016],[28.45206643151587,-26.131648569109487],[28.45217436919669,-26.13163312739552],[28.45218202864234,-26.131632031893258]]]},"properties":{"id":"C110010001401000000"}},
    {"type":"Feature","geometry":{"type":"Polygon","coordinates":[[[28.444900001316437,-26.1285230044574],[28.445006998483926,-26.12869599574913],[28.4451179958777,-26.128640995530805],[28.445009995739575,-26.12846799774886],[28.444900001316437,-26.1285230044574]]]},"properties":{"id":"C110000001321500000"}},
    {"type":"Feature","geometry":{"type":"Polygon","coordinates":[[[28.451523410930015,-26.131728573519702],[28.451570948919414,-26.13198545984952],[28.451679436212217,-26.131969099968558],[28.45163223639669,-26.131712762825806],[28.451523410930015,-26.131728573519702]]]},"properties":{"id":"C080010000180600000"}}
  ]
}
