{
  "type": "FeatureCollection",
  "features": [
    {
      "type": "Feature",
      "geometry": {"type": "Polygon", "coordinates": [[[6.136069876979403,46.19816266360669],[6.136185028112553,46.19826142533104],[6.136300819900645,46.19836028699703],[6.136393117680386,46.198439262425175],[6.136271500474353,46.19850707206074],[6.136172031819931,46.19842169525923],[6.136062047307461,46.198327479905984],[6.1359540179729935,46.198234467404667],[6.135847340919991,46.198143540586223],[6.13596817131308,46.19807530217394],[6.136069876979403,46.19816266360669]]]},
      "properties": {"id": "CH428339656353"}
    },
    {
      "type": "Feature",
      "geometry": {"type": "Polygon", "coordinates": [[[6.135908006854544,46.19841416621338],[6.1360098314375315,46.19851205807245],[6.136032972070042,46.198533674778986],[6.136103104879309,46.198600764293964],[6.136104016803697,46.198601638519875],[6.135705081194827,46.19882379707462],[6.135682501308195,46.19880419307283],[6.135536487403735,46.19867743244182],[6.135487837410386,46.19863519709442],[6.135485806551064,46.1986334372442],[6.1356805506818501,46.198523600416578],[6.1356216129910335,46.198473051980706],[6.1357463948693025,46.198402592229748],[6.135840801736611,46.198349278621635],[6.135908006854544,46.19841416621338]]]},
      "properties": {"id": "CH216334658388"}
    },
    {
      "type": "Feature",
      "geometry": {"type": "Polygon", "coordinates": [[[6.136172031819931,46.19842169525923],[6.136271500474353,46.19850707206074],[6.1362724780250985,46.198507911055586],[6.136104016803697,46.198601638519875],[6.136103104879309,46.198600764293964],[6.136032972070042,46.198533674778986],[6.1360098314375315,46.19851205807245],[6.136061939905025,46.19848330036155],[6.136172031819931,46.19842169525923]]]},
      "properties": {"id": "CH356765836385"}
    }
  ]
}
