{"type":"FeatureCollection","features":[{"type":"Feature","properties":{"id":"T0LS01020002103000000"},"geometry":{"type":"Polygon","coordinates":[[[29.477297038350351,-23.863253472689234],[29.477561598216838,-23.863455188870972],[29.477649301301732,-23.863357868190452],[29.477384736571036,-23.863156145851107],[29.477297038350351,-23.863253472689234]]]}},{"type":"Feature","properties":{"id":"T0LS01020002103300000"},"geometry":{"type":"Polygon","coordinates":[[[29.478010134184895,-23.862957462205486],[29.478234401376771,-23.862708597938365],[29.477969803589311,-23.862506841473106],[29.477745549033333,-23.862755717964237],[29.478010134184895,-23.862957462205486]]]}},{"type":"Feature","properties":{"id":"T0LS01020002103400000"},"geometry":{"type":"Polygon","coordinates":[[[29.47829951675666,-23.862636340973705],[29.478555206445112,-23.862352401757498],[29.478450898327498,-23.862272903800214],[29.478290646654251,-23.862150766696868],[29.477969803589311,-23.862506841473106],[29.478234401376771,-23.862708597938365],[29.47830624365147,-23.862702411410467],[29.47829951675666,-23.862636340973705]]]}}]}
