{
  "type": "FeatureCollection",
  "crs": {"type": "name", "properties": {"name": "EPSG:4326"}},
  "features": [
    {"type":"Feature","properties":{"id":"37466"},"geometry":{"type":"Polygon","coordinates":[[[-79.8546607936943,43.2334059691118],[-79.8542072110912,43.233299548356],[-79.8542360080261,43.2332342652552],[-79.8542503990485,43.2332016254282],[-79.8547039871641,43.2333080460688],[-79.8546895914312,43.2333406859055],[-79.8546607936943,43.2334059691118]]]}},
    {"type":"Feature","properties":{"id":"37468"},"geometry":{"type":"Polygon","coordinates":[[[-79.8546101058459,43.2335208772221],[-79.8541565212558,43.2334144562464],[-79.8541784140935,43.2333648314481],[-79.8542072110912,43.233299548356],[-79.8546607936943,43.2334059691118],[-79.854631993432,43.2334712522849],[-79.8546101058459,43.2335208772221]]]}},
    {"type":"Feature","properties":{"id":"37476"},"geometry":{"type":"Polygon","coordinates":[[[-79.8544880120429,43.2337976718306],[-79.8540344194762,43.2336912502931],[-79.8540632180193,43.2336259672568],[-79.8545168089254,43.233732388664],[-79.8544880120429,43.2337976718306]]]}}
  ]
}
