{
  "type": "FeatureCollection",
  "features": [
    {"type":"Feature","id":0,"geometry":{"type":"Polygon","coordinates":[[[102.17262337606729,2.5005191162578275],[102.17237219498973,2.5006243108943234],[102.17228413500648,2.500400555566309],[102.17253757331126,2.500294646798146],[102.17261300388152,2.500491969795224],[102.17262337606729,2.5005191162578275]]]},"properties":{"id":"0504770003923"}},
    {"type":"Feature","id":1,"geometry":{"type":"Polygon","coordinates":[[[102.17245239090308,2.50007181353045],[102.17219677691575,2.500178600263244],[102.17211012079618,2.4999583988620815],[102.17236782888727,2.4998505902279398],[102.17242050895328,2.4999884021945027],[102.17245239090308,2.50007181353045]]]},"properties":{"id":"0504770003925"}},
    {"type":"Feature","id":2,"geometry":{"type":"Polygon","coordinates":[[[102.17228397851484,2.4996312474559645],[102.17202413881762,2.4997399250874444],[102.17201038472083,2.499704992441539],[102.17196019726701,2.4996278337423155],[102.17196361105576,2.4995611377958133],[102.17211385459471,2.4993750597955624],[102.17225183610238,2.4995471492567796],[102.17228397851484,2.4996312474559645]]]},"properties":{"id":"0504770003927"}}
  ]
}
