{
  "type": "FeatureCollection",
  "name": "surrey-parcel-samples",
  "features": [
    {
      "type": "Feature",
      "id": 27,
      "geometry": {
        "type": "Polygon",
        "coordinates": [
          [
            [
              -122.84553027562674,
              49.16646422600519
            ],
            [
              -122.84544673423413,
              49.16646438408934
            ],
            [
              -122.84446536210034,
              49.16646693091563
            ],
            [
              -122.84453259584193,
              49.16650534168485
            ],
            [
              -122.84442996067804,
              49.166731434978566
            ],
            [
              -122.8448665279743,
              49.16705945427022
            ],
            [
              -122.84500761884382,
              49.16736938992342
            ],
            [
              -122.84553682194945,
              49.1673677619798
            ],
            [
              -122.84553027562674,
              49.16646422600519
            ]
          ]
        ]
      },
      "properties": {
        "id": 27
      }
    },
    {
      "type": "Feature",
      "id": 54,
      "geometry": {
        "type": "Polygon",
        "coordinates": [
          [
            [
              -122.84111519650561,
              49.169966025251114
            ],
            [
              -122.84111261889862,
              49.16965946178796
            ],
            [
              -122.840867737846,
              49.16966029040704
            ],
            [
              -122.84084716407482,
              49.169659001805826
            ],
            [
              -122.84084973434302,
              49.169966915468216
            ],
            [
              -122.84111519650561,
              49.169966025251114
            ]
          ]
        ]
      },
      "properties": {
        "id": 54
      }
    },
    {
      "type": "Feature",
      "id": 157,
      "geometry": {
        "type": "Polygon",
        "coordinates": [
          [
            [
              -122.83906050390173,
              49.1634960817089
            ],
            [
              -122.83960355839828,
              49.16349531075401
            ],
            [
              -122.83960277370277,
              49.16331441286121
            ],
            [
              -122.83905971844095,
              49.16331518381067
            ],
            [
              -122.83906050390173,
              49.1634960817089
            ]
          ]
        ]
      },
      "properties": {
        "id": 157
      }
    }
  ]
}
