{
  "type": "FeatureCollection",
  "name": "vladivostok-parcel-samples",
  "crs": {
    "type": "name",
    "properties": {
      "name": "EPSG:4326"
    }
  },
  "features": [
    {
      "type": "Feature",
      "id": "Участки_ЕГРН_1.26467",
      "properties": {
        "id": "Участки_ЕГРН_1.26467"
      },
      "geometry": {
        "type": "Polygon",
        "coordinates": [
          [
            [
              131.92217714,
              43.12751271
            ],
            [
              131.92219694,
              43.12748065
            ],
            [
              131.92212602,
              43.12745661
            ],
            [
              131.92210622,
              43.12748867
            ],
            [
              131.92217714,
              43.12751271
            ]
          ]
        ]
      }
    },
    {
      "type": "Feature",
      "id": "Участки_ЕГРН_1.26369",
      "properties": {
        "id": "Участки_ЕГРН_1.26369"
      },
      "geometry": {
        "type": "Polygon",
        "coordinates": [
          [
            [
              131.92319522,
              43.12699826
            ],
            [
              131.92345262,
              43.12724353
            ],
            [
              131.92344074,
              43.1269105
            ],
            [
              131.92369418,
              43.12664776
            ],
            [
              131.9237417,
              43.12663922
            ],
            [
              131.92382306,
              43.1266249
            ],
            [
              131.92387094,
              43.12661636
            ],
            [
              131.92398218,
              43.12665722
            ],
            [
              131.9238803,
              43.12660546
            ],
            [
              131.92382306,
              43.12656197
            ],
            [
              131.92378022,
              43.12652072
            ],
            [
              131.92375718,
              43.12648131
            ],
            [
              131.92372838,
              43.12640183
            ],
            [
              131.92370786,
              43.12633063
            ],
            [
              131.92356674,
              43.12649668
            ],
            [
              131.92344902,
              43.12664382
            ],
            [
              131.92333598,
              43.12679279
            ],
            [
              131.92319522,
              43.12699826
            ]
          ]
        ]
      }
    },
    {
      "type": "Feature",
      "id": "Участки_ЕГРН_1.26377",
      "properties": {
        "id": "Участки_ЕГРН_1.26377"
      },
      "geometry": {
        "type": "Polygon",
        "coordinates": [
          [
            [
              131.92382306,
              43.12656197
            ],
            [
              131.9238803,
              43.12660546
            ],
            [
              131.92398218,
              43.12665722
            ],
            [
              131.92434434,
              43.12678964
            ],
            [
              131.9243627,
              43.12679424
            ],
            [
              131.92442066,
              43.12666208
            ],
            [
              131.92448222,
              43.12652151
            ],
            [
              131.92458194,
              43.12629805
            ],
            [
              131.92468562,
              43.12606197
            ],
            [
              131.92473998,
              43.12594137
            ],
            [
              131.92476122,
              43.1258875
            ],
            [
              131.92460966,
              43.12584599
            ],
            [
              131.92459742,
              43.12577597
            ],
            [
              131.92454918,
              43.12569925
            ],
            [
              131.92452686,
              43.12558837
            ],
            [
              131.92452866,
              43.12558666
            ],
            [
              131.92442822,
              43.12557234
            ],
            [
              131.9243681,
              43.12563238
            ],
            [
              131.9240657,
              43.12593375
            ],
            [
              131.92393574,
              43.12607024
            ],
            [
              131.92381046,
              43.12620924
            ],
            [
              131.92370786,
              43.12633063
            ],
            [
              131.92372838,
              43.12640183
            ],
            [
              131.92375718,
              43.12648131
            ],
            [
              131.92378022,
              43.12652072
            ],
            [
              131.92382306,
              43.12656197
            ]
          ]
        ]
      }
    }
  ]
}
