{
  "type": "FeatureCollection",
  "features": [
    {
      "type": "Feature",
      "geometry": {
        "type": "Polygon",
        "coordinates": [
          [
            [
              -111.987321478597,
              40.6516435545139
            ],
            [
              -111.987322055315,
              40.6513278947582
            ],
            [
              -111.987595944459,
              40.6513281885024
            ],
            [
              -111.987595369537,
              40.6516438475752
            ],
            [
              -111.987321478597,
              40.6516435545139
            ]
          ]
        ]
      },
      "properties": {
        "PARCEL_ID": "21182290100000"
      }
    }
  ]
}
