{
  "type": "FeatureCollection",
  "features": [
    {
      "type": "Feature",
      "id": "BN-SD-BSB-4293",
      "geometry": {
        "type": "Polygon",
        "coordinates": [
          [
            [
              114.94009914558298,
              4.890247740274336
            ],
            [
              114.94007671000135,
              4.890239328919846
            ],
            [
              114.9400685540524,
              4.890215852313679
            ],
            [
              114.93988168666513,
              4.890203877067154
            ],
            [
              114.93990217311763,
              4.890188190174521
            ],
            [
              114.93990900011923,
              4.890161598356575
            ],
            [
              114.93991515715341,
              4.888699729025303
            ],
            [
              114.93986412847448,
              4.888584669567981
            ],
            [
              114.93979591712618,
              4.888480084746545
            ],
            [
              114.93970590767725,
              4.888374060213712
            ],
            [
              114.93960555316137,
              4.888282139978324
            ],
            [
              114.93948938443984,
              4.888209061911343
            ],
            [
              114.93936263297755,
              4.888155740317894
            ],
            [
              114.93923045028586,
              4.8881185244645655
            ],
            [
              114.9390948073672,
              4.888104119584612
            ],
            [
              114.93902268626391,
              4.888104005003637
            ],
            [
              114.93911507154648,
              4.887871840784223
            ],
            [
              114.93921607006108,
              4.887721207247704
            ],
            [
              114.93915544665768,
              4.887669205387076
            ],
            [
              114.93920590729313,
              4.887540485782083
            ],
            [
              114.93930406665093,
              4.887493031374275
            ],
            [
              114.93934676398086,
              4.887462439929818
            ],
            [
              114.93937967567933,
              4.887424829345081
            ],
            [
              114.93941781379881,
              4.8873675720947185
            ],
            [
              114.9392411072063,
              4.887245600220519
            ],
            [
              114.93952880385689,
              4.886814885032299
            ],
            [
              114.93970787309911,
              4.886935815784497
            ],
            [
              114.94003950882008,
              4.8864418099718
            ],
            [
              114.94005452739012,
              4.886370728945646
            ],
            [
              114.94005531731526,
              4.886306403620206
            ],
            [
              114.94003279618204,
              4.8862240272098765
            ],
            [
              114.94035898120997,
              4.885745542740276
            ],
            [
              114.94078673792953,
              4.886033632968905
            ],
            [
              114.94084701593125,
              4.885943848544886
            ],
            [
              114.94120107774079,
              4.886115984764007
            ],
            [
              114.94114035375104,
              4.886206448888062
            ],
            [
              114.94141603729692,
              4.8863924103114815
            ],
            [
              114.94147339278965,
              4.886305455699896
            ],
            [
              114.94179654765391,
              4.8865239052598515
            ],
            [
              114.94174093137832,
              4.8866082191188625
            ],
            [
              114.94187818007376,
              4.88659821842545
            ],
            [
              114.94187256074736,
              4.886717715840999
            ],
            [
              114.94191989590882,
              4.886760710648454
            ],
            [
              114.94197326892532,
              4.886808795452248
            ],
            [
              114.94196938179456,
              4.887007767687419
            ],
            [
              114.9419688253006,
              4.887032441717036
            ],
            [
              114.94195995554655,
              4.887057081975069
            ],
            [
              114.94193377468089,
              4.8870804124017475
            ],
            [
              114.94189734734671,
              4.887078949637087
            ],
            [
              114.94177708470419,
              4.887056092021355
            ],
            [
              114.94173814602884,
              4.887269298056425
            ],
            [
              114.94145370703308,
              4.887693598298806
            ],
            [
              114.94152073690259,
              4.8877820128236795
            ],
            [
              114.94151646709581,
              4.888348778813061
            ],
            [
              114.94124984972343,
              4.8883467447053155
            ],
            [
              114.94111379400769,
              4.888199110579693
            ],
            [
              114.94109066285328,
              4.888233344567824
            ],
            [
              114.94100905223378,
              4.8883739372578
            ],
            [
              114.94095365894253,
              4.888500045143749
            ],
            [
              114.94091809923492,
              4.888615416868562
            ],
            [
              114.94086388931767,
              4.888848512348749
            ],
            [
              114.94085890413096,
              4.888883451265119
            ],
            [
              114.94084765646643,
              4.890170963918994
            ],
            [
              114.94085539571896,
              4.890204287756382
            ],
            [
              114.94087371554264,
              4.890231122289169
            ],
            [
              114.94071408866613,
              4.8902270018842495
            ],
            [
              114.94069192558564,
              4.890243989994054
            ],
            [
              114.94066652060292,
              4.890253253077776
            ],
            [
              114.94009914558298,
              4.890247740274336
            ]
          ]
        ]
      },
      "properties": {
        "parcelId": "BN-SD-BSB-4293",
        "id": "BN-SD-BSB-4293",
        "sourceId": "bn-survey-cadas-bsb",
        "sourceParcelId": "4293",
        "parcelNumber": "48080",
        "cadMunicipalityName": null,
        "ownershipType": "unknown",
        "sourceProperties": {
          "OBJECTID": 4293,
          "LOTNUM": 48080,
          "DISTCODE": "BM",
          "BOOKCODE": "BD"
        }
      }
    },
    {
      "type": "Feature",
      "id": "BN-SD-BSB-1732",
      "geometry": {
        "type": "Polygon",
        "coordinates": [
          [
            [
              114.94284780708658,
              4.8875434627275025
            ],
            [
              114.94257302942972,
              4.887541225752875
            ],
            [
              114.94257345909479,
              4.887486110807244
            ],
            [
              114.94284824487191,
              4.887488355893732
            ],
            [
              114.94284780708658,
              4.8875434627275025
            ]
          ]
        ]
      },
      "properties": {
        "parcelId": "BN-SD-BSB-1732",
        "id": "BN-SD-BSB-1732",
        "sourceId": "bn-survey-cadas-bsb",
        "sourceParcelId": "1732",
        "parcelNumber": "56",
        "cadMunicipalityName": null,
        "ownershipType": "unknown",
        "sourceProperties": {
          "OBJECTID": 1732,
          "LOTNUM": 56,
          "DISTCODE": "BM",
          "BOOKCODE": "BT"
        }
      }
    },
    {
      "type": "Feature",
      "id": "BN-SD-BSB-12113",
      "geometry": {
        "type": "Polygon",
        "coordinates": [
          [
            [
              114.94246309011048,
              4.887540347664013
            ],
            [
              114.9424652609806,
              4.88726476291551
            ],
            [
              114.94252020945987,
              4.887265211069489
            ],
            [
              114.94251803051998,
              4.887540803984785
            ],
            [
              114.94246309011048,
              4.887540347664013
            ]
          ]
        ]
      },
      "properties": {
        "parcelId": "BN-SD-BSB-12113",
        "id": "BN-SD-BSB-12113",
        "sourceId": "bn-survey-cadas-bsb",
        "sourceParcelId": "12113",
        "parcelNumber": "61",
        "cadMunicipalityName": null,
        "ownershipType": "unknown",
        "sourceProperties": {
          "OBJECTID": 12113,
          "LOTNUM": 61,
          "DISTCODE": "BM",
          "BOOKCODE": "BT"
        }
      }
    }
  ]
}
