{
  "type": "FeatureCollection",
  "features": [
    {
      "type": "Feature",
      "id": "LB-BBED-Zo_15",
      "geometry": {
        "type": "Polygon",
        "coordinates": [
          [
            [
              35.4998235869872,
              33.895428081155
            ],
            [
              35.4998210680604,
              33.8954103116583
            ],
            [
              35.4998154819035,
              33.8953623618211
            ],
            [
              35.4998146402224,
              33.8953551220887
            ],
            [
              35.4998043893259,
              33.8952793017365
            ],
            [
              35.4997964416222,
              33.8952214527065
            ],
            [
              35.4997943198963,
              33.8952060300723
            ],
            [
              35.4997896327165,
              33.8951703919949
            ],
            [
              35.49978728996,
              33.8951525458917
            ],
            [
              35.4996333316904,
              33.8951683153816
            ],
            [
              35.499627476496,
              33.8951689174996
            ],
            [
              35.4996298490901,
              33.8951928973549
            ],
            [
              35.4996397216082,
              33.8952928327702
            ],
            [
              35.4996438747533,
              33.895319697597
            ],
            [
              35.4996296159402,
              33.8953213042867
            ],
            [
              35.4996308350308,
              33.8953302511647
            ],
            [
              35.4996313804239,
              33.8953595612941
            ],
            [
              35.4996326556728,
              33.895370024392
            ],
            [
              35.4996438708283,
              33.895461991425
            ],
            [
              35.4996608137598,
              33.895462593207
            ],
            [
              35.499719555234,
              33.8954668344434
            ],
            [
              35.4997524002629,
              33.8954689002906
            ],
            [
              35.4998126039995,
              33.8954713086333
            ],
            [
              35.4998287381495,
              33.8954721296686
            ],
            [
              35.4998235869872,
              33.895428081155
            ]
          ]
        ]
      },
      "properties": {
        "parcelId": "LB-BBED-Zo_15",
        "id": "LB-BBED-Zo_15",
        "sourceId": "lb-bbed-beirut-parcels",
        "sourceParcelId": "Zo_15",
        "parcelNumber": "Zo_15",
        "cadMunicipalityName": null,
        "ownershipType": "unknown",
        "sourceProperties": {
          "OBJECTID_1": 16962,
          "PID": "Zo_15",
          "GlobalID": "dbc9d9f4-0848-4511-aec2-691804b95d1a"
        }
      }
    },
    {
      "type": "Feature",
      "id": "LB-BBED-Zo_939",
      "geometry": {
        "type": "Polygon",
        "coordinates": [
          [
            [
              35.4995902659587,
              33.8954600485836
            ],
            [
              35.4996073124035,
              33.8954597521005
            ],
            [
              35.4996243130651,
              33.895460553768
            ],
            [
              35.499624202707,
              33.8954598473662
            ],
            [
              35.4996162334079,
              33.8954093655761
            ],
            [
              35.4996159347109,
              33.8954069851566
            ],
            [
              35.4996147837627,
              33.895397706015
            ],
            [
              35.4996114391777,
              33.8953709104223
            ],
            [
              35.499607755833,
              33.8953413989337
            ],
            [
              35.4996066663912,
              33.8953327081768
            ],
            [
              35.49960595195,
              33.8953281597821
            ],
            [
              35.499602568719,
              33.8953065580773
            ],
            [
              35.4996024583352,
              33.8953058507744
            ],
            [
              35.4995968531277,
              33.8952656134301
            ],
            [
              35.4995652930034,
              33.8952668951684
            ],
            [
              35.4995652391623,
              33.8952669025725
            ],
            [
              35.4994584370472,
              33.8952742683563
            ],
            [
              35.4994366755948,
              33.8952752997542
            ],
            [
              35.4994344474514,
              33.8952853768732
            ],
            [
              35.4994309804717,
              33.8953010518103
            ],
            [
              35.4994190260491,
              33.8953551179459
            ],
            [
              35.4994150051251,
              33.8953732978996
            ],
            [
              35.4994102094121,
              33.8953949727808
            ],
            [
              35.4994101340272,
              33.8953952051157
            ],
            [
              35.4994096769622,
              33.8953968065855
            ],
            [
              35.4994092150019,
              33.8953987588694
            ],
            [
              35.4994092014267,
              33.8953988123383
            ],
            [
              35.4994089254764,
              33.8954002108821
            ],
            [
              35.4994086524532,
              33.8954020430267
            ],
            [
              35.4994084455125,
              33.8954041019297
            ],
            [
              35.4994084372525,
              33.8954043004451
            ],
            [
              35.499408354775,
              33.8954059934846
            ],
            [
              35.4994083619975,
              33.8954078334639
            ],
            [
              35.4994084524654,
              33.895409784451
            ],
            [
              35.4994086228181,
              33.8954116202172
            ],
            [
              35.4994086403388,
              33.8954117019053
            ],
            [
              35.4994088383321,
              33.895413151234
            ],
            [
              35.4994091715519,
              33.8954149737766
            ],
            [
              35.4994095918983,
              33.8954167810268
            ],
            [
              35.4994096207501,
              33.8954168805165
            ],
            [
              35.4994101076955,
              33.8954186359263
            ],
            [
              35.4994107117281,
              33.8954204394477
            ],
            [
              35.4994108572579,
              33.8954208322873
            ],
            [
              35.499411393717,
              33.8954222098312
            ],
            [
              35.4994114725573,
              33.8954223921532
            ],
            [
              35.4994121825163,
              33.8954240096018
            ],
            [
              35.4994130290359,
              33.8954257126331
            ],
            [
              35.4994130690105,
              33.8954257857513
            ],
            [
              35.4994139918252,
              33.8954274728085
            ],
            [
              35.499414921791,
              33.8954289974361
            ],
            [
              35.4994150339166,
              33.8954291718697
            ],
            [
              35.499416000203,
              33.895430607405
            ],
            [
              35.4994161118288,
              33.8954307647188
            ],
            [
              35.499417071691,
              33.8954320912933
            ],
            [
              35.4994182930235,
              33.8954336343487
            ],
            [
              35.4994196638846,
              33.8954352257587
            ],
            [
              35.4994197776999,
              33.8954353469648
            ],
            [
              35.4994210608158,
              33.895436710253
            ],
            [
              35.4994224932501,
              33.8954381146875
            ],
            [
              35.4994240555294,
              33.8954395227972
            ],
            [
              35.4994253180798,
              33.8954405889813
            ],
            [
              35.4994269194236,
              33.8954418538481
            ],
            [
              35.4994285873663,
              33.8954430668745
            ],
            [
              35.4994305433511,
              33.895444369621
            ],
            [
              35.4994306588034,
              33.8954444357975
            ],
            [
              35.4994323671825,
              33.8954454785057
            ],
            [
              35.4994342049069,
              33.8954465077693
            ],
            [
              35.4994360775536,
              33.8954474741148
            ],
            [
              35.4994379970346,
              33.8954483782021
            ],
            [
              35.4994399623219,
              33.8954492218552
            ],
            [
              35.4994409605824,
              33.8954496045967
            ],
            [
              35.4994419622685,
              33.8954499935797
            ],
            [
              35.4994420158183,
              33.895450013229
            ],
            [
              35.4994440190632,
              33.8954507127601
            ],
            [
              35.4994877195694,
              33.8954558788293
            ],
            [
              35.4994944955866,
              33.8954562281248
            ],
            [
              35.49954563826,
              33.8954588602142
            ],
            [
              35.4995902659587,
              33.8954600485836
            ]
          ]
        ]
      },
      "properties": {
        "parcelId": "LB-BBED-Zo_939",
        "id": "LB-BBED-Zo_939",
        "sourceId": "lb-bbed-beirut-parcels",
        "sourceParcelId": "Zo_939",
        "parcelNumber": "Zo_939",
        "cadMunicipalityName": null,
        "ownershipType": "unknown",
        "sourceProperties": {
          "OBJECTID_1": 16963,
          "PID": "Zo_939",
          "GlobalID": "c4959238-1e6b-4eae-9a7e-0f1b8b759597"
        }
      }
    },
    {
      "type": "Feature",
      "id": "LB-BBED-Zo_1019",
      "geometry": {
        "type": "Polygon",
        "coordinates": [
          [
            [
              35.4996308350308,
              33.8953302511647
            ],
            [
              35.4996296159402,
              33.8953213042867
            ],
            [
              35.4996438747533,
              33.895319697597
            ],
            [
              35.4996397216082,
              33.8952928327702
            ],
            [
              35.4996298490901,
              33.8951928973549
            ],
            [
              35.499627476496,
              33.8951689174996
            ],
            [
              35.4995822583909,
              33.8951739791619
            ],
            [
              35.4995807698374,
              33.8951573941534
            ],
            [
              35.4995775635892,
              33.8951217818985
            ],
            [
              35.4994717058795,
              33.8951244943925
            ],
            [
              35.4994638453241,
              33.8951246945363
            ],
            [
              35.4993910004562,
              33.8951265600728
            ],
            [
              35.4993641714007,
              33.8951272471444
            ],
            [
              35.499325269485,
              33.8951282396868
            ],
            [
              35.4993420096101,
              33.8951807487263
            ],
            [
              35.4993612021583,
              33.8952401591659
            ],
            [
              35.4993635616652,
              33.8952474708713
            ],
            [
              35.4993649472323,
              33.8952517513986
            ],
            [
              35.4993723757022,
              33.8952784154134
            ],
            [
              35.4994326648072,
              33.8952754938716
            ],
            [
              35.4994366755948,
              33.8952752997542
            ],
            [
              35.4994584370472,
              33.8952742683563
            ],
            [
              35.4995652391623,
              33.8952669025725
            ],
            [
              35.4995652930034,
              33.8952668951684
            ],
            [
              35.4995968531277,
              33.8952656134301
            ],
            [
              35.4996024583352,
              33.8953058507744
            ],
            [
              35.499602568719,
              33.8953065580773
            ],
            [
              35.49960595195,
              33.8953281597821
            ],
            [
              35.4996066663912,
              33.8953327081768
            ],
            [
              35.4996308350308,
              33.8953302511647
            ]
          ]
        ]
      },
      "properties": {
        "parcelId": "LB-BBED-Zo_1019",
        "id": "LB-BBED-Zo_1019",
        "sourceId": "lb-bbed-beirut-parcels",
        "sourceParcelId": "Zo_1019",
        "parcelNumber": "Zo_1019",
        "cadMunicipalityName": null,
        "ownershipType": "unknown",
        "sourceProperties": {
          "OBJECTID_1": 16964,
          "PID": "Zo_1019",
          "GlobalID": "efbab910-af8f-4ea8-9ad2-6fd7c1eec369"
        }
      }
    }
  ]
}
