{
  "type": "FeatureCollection",
  "features": [
    {
      "type": "Feature",
      "id": "me-water:1444055",
      "geometry": {
        "type": "MultiPolygon",
        "coordinates": [
          [
            [
              [
                18.92153859,
                42.38970196
              ],
              [
                18.92167283,
                42.38965506
              ],
              [
                18.92172855,
                42.38962805
              ],
              [
                18.92171888,
                42.38961453
              ],
              [
                18.92168712,
                42.38962685
              ],
              [
                18.92162922,
                42.38964614
              ],
              [
                18.92156876,
                42.38966373
              ],
              [
                18.92148377,
                42.38968233
              ],
              [
                18.92146329,
                42.38968573
              ],
              [
                18.92141918,
                42.38969203
              ],
              [
                18.92137981,
                42.38973259
              ],
              [
                18.92130541,
                42.38975219
              ],
              [
                18.9212976,
                42.3897581
              ],
              [
                18.92126587,
                42.38980572
              ],
              [
                18.92121791,
                42.38981511
              ],
              [
                18.92114135,
                42.38979546
              ],
              [
                18.92109442,
                42.38975902
              ],
              [
                18.92107502,
                42.38972784
              ],
              [
                18.92107527,
                42.38971218
              ],
              [
                18.921075,
                42.38969336
              ],
              [
                18.92107798,
                42.38968136
              ],
              [
                18.92111383,
                42.38962445
              ],
              [
                18.92113074,
                42.38958506
              ],
              [
                18.92114231,
                42.38956254
              ],
              [
                18.92113414,
                42.3895519
              ],
              [
                18.92106469,
                42.38958667
              ],
              [
                18.92103891,
                42.38959237
              ],
              [
                18.92103384,
                42.38957827
              ],
              [
                18.92104186,
                42.38957038
              ],
              [
                18.92107181,
                42.38952575
              ],
              [
                18.92106973,
                42.38949966
              ],
              [
                18.9210122,
                42.38957701
              ],
              [
                18.92101255,
                42.38959204
              ],
              [
                18.92101483,
                42.38959868
              ],
              [
                18.92102983,
                42.38960288
              ],
              [
                18.92106529,
                42.38960278
              ],
              [
                18.92111853,
                42.38957237
              ],
              [
                18.92109163,
                42.38961832
              ],
              [
                18.9210624,
                42.38967096
              ],
              [
                18.92105767,
                42.38967964
              ],
              [
                18.92102803,
                42.38970373
              ],
              [
                18.92101829,
                42.38971056
              ],
              [
                18.9209964,
                42.38972506
              ],
              [
                18.92102553,
                42.38974886
              ],
              [
                18.92107232,
                42.38978423
              ],
              [
                18.92109173,
                42.38979893
              ],
              [
                18.92112843,
                42.38981709
              ],
              [
                18.92119182,
                42.38983296
              ],
              [
                18.92124685,
                42.38983432
              ],
              [
                18.92127131,
                42.38982062
              ],
              [
                18.92129004,
                42.38980615
              ],
              [
                18.92132213,
                42.38975818
              ],
              [
                18.92138634,
                42.38974722
              ],
              [
                18.92146856,
                42.38970523
              ],
              [
                18.92150084,
                42.38970371
              ],
              [
                18.92153859,
                42.38970196
              ]
            ]
          ]
        ]
      },
      "properties": {
        "parcelId": "me-water:1444055",
        "id": "me-water:1444055",
        "sourceId": "me-water-cadastral-parcels",
        "sourceParcelId": "1444055",
        "parcelNumber": "3384",
        "cadMunicipalityName": null,
        "ownershipType": "unknown",
        "sourceProperties": {
          "id": 1444055,
          "ko": 6,
          "br_parcele": "3384",
          "naziv_ko": "CETINJE I",
          "naziv_po": "Cetinje"
        }
      }
    },
    {
      "type": "Feature",
      "id": "me-water:1445182",
      "geometry": {
        "type": "MultiPolygon",
        "coordinates": [
          [
            [
              [
                18.91983288,
                42.38990763
              ],
              [
                18.92009116,
                42.38989566
              ],
              [
                18.92014355,
                42.38989055
              ],
              [
                18.92044988,
                42.38985091
              ],
              [
                18.92062457,
                42.38982888
              ],
              [
                18.92071191,
                42.38982998
              ],
              [
                18.92092173,
                42.38983478
              ],
              [
                18.92102364,
                42.38983576
              ],
              [
                18.92088834,
                42.38976923
              ],
              [
                18.92087705,
                42.38971971
              ],
              [
                18.92082974,
                42.38969029
              ],
              [
                18.92074145,
                42.38964086
              ],
              [
                18.92071594,
                42.38963242
              ],
              [
                18.9206888,
                42.38963687
              ],
              [
                18.9206694,
                42.38963901
              ],
              [
                18.92065364,
                42.38964066
              ],
              [
                18.92063715,
                42.38964305
              ],
              [
                18.9206232,
                42.38964388
              ],
              [
                18.92059271,
                42.38964349
              ],
              [
                18.92055274,
                42.38964282
              ],
              [
                18.92054021,
                42.38960826
              ],
              [
                18.92052786,
                42.38958567
              ],
              [
                18.92051923,
                42.38957728
              ],
              [
                18.92051465,
                42.38957147
              ],
              [
                18.9205086,
                42.3895644
              ],
              [
                18.92050388,
                42.38955733
              ],
              [
                18.92050158,
                42.38954924
              ],
              [
                18.920501,
                42.38954313
              ],
              [
                18.92050078,
                42.38952809
              ],
              [
                18.9204636,
                42.3895021
              ],
              [
                18.92051415,
                42.38948702
              ],
              [
                18.9205663,
                42.38947382
              ],
              [
                18.92058865,
                42.38945725
              ],
              [
                18.92060619,
                42.38944459
              ],
              [
                18.92061716,
                42.38943874
              ],
              [
                18.92062996,
                42.38939246
              ],
              [
                18.9206254,
                42.38933793
              ],
              [
                18.92062401,
                42.38930958
              ],
              [
                18.92061798,
                42.38930378
              ],
              [
                18.92060501,
                42.38929767
              ],
              [
                18.92058983,
                42.38928906
              ],
              [
                18.92056844,
                42.38928005
              ],
              [
                18.92054,
                42.38927002
              ],
              [
                18.92051375,
                42.38926059
              ],
              [
                18.92049324,
                42.38925383
              ],
              [
                18.92047495,
                42.38924875
              ],
              [
                18.92044729,
                42.38924213
              ],
              [
                18.92042633,
                42.38923771
              ],
              [
                18.92041365,
                42.3892343
              ],
              [
                18.9203955,
                42.38923057
              ],
              [
                18.92037283,
                42.38922544
              ],
              [
                18.92035854,
                42.38921953
              ],
              [
                18.92034957,
                42.38921249
              ],
              [
                18.9203457,
                42.38920558
              ],
              [
                18.92033937,
                42.38919636
              ],
              [
                18.92033913,
                42.38918772
              ],
              [
                18.92034127,
                42.38917672
              ],
              [
                18.9203468,
                42.38916461
              ],
              [
                18.92035065,
                42.38915351
              ],
              [
                18.92035111,
                42.3891436
              ],
              [
                18.92034927,
                42.38913425
              ],
              [
                18.92034733,
                42.3891258
              ],
              [
                18.92034345,
                42.38911809
              ],
              [
                18.92033727,
                42.38911076
              ],
              [
                18.92032952,
                42.38910389
              ],
              [
                18.92032155,
                42.38909891
              ],
              [
                18.92031081,
                42.38909549
              ],
              [
                18.92029363,
                42.38909175
              ],
              [
                18.92027865,
                42.38908854
              ],
              [
                18.92026535,
                42.38908424
              ],
              [
                18.92025323,
                42.38907812
              ],
              [
                18.92024343,
                42.38907226
              ],
              [
                18.92023298,
                42.38906316
              ],
              [
                18.92022449,
                42.38905567
              ],
              [
                18.9202162,
                42.38904574
              ],
              [
                18.92020852,
                42.38903509
              ],
              [
                18.92020061,
                42.38902561
              ],
              [
                18.92019237,
                42.3890191
              ],
              [
                18.92018588,
                42.38901492
              ],
              [
                18.92017642,
                42.38900753
              ],
              [
                18.92016584,
                42.3889987
              ],
              [
                18.92015836,
                42.38899336
              ],
              [
                18.92014807,
                42.38898786
              ],
              [
                18.92013318,
                42.38898239
              ],
              [
                18.92012416,
                42.38898022
              ],
              [
                18.92010919,
                42.38897809
              ],
              [
                18.91999991,
                42.38900525
              ],
              [
                18.91986826,
                42.38903845
              ],
              [
                18.91985955,
                42.38904068
              ],
              [
                18.91971775,
                42.38910277
              ],
              [
                18.91963257,
                42.38918305
              ],
              [
                18.9195723,
                42.3892389
              ],
              [
                18.91955532,
                42.38925686
              ],
              [
                18.91953761,
                42.38935865
              ],
              [
                18.91950083,
                42.38948445
              ],
              [
                18.91948072,
                42.38955394
              ],
              [
                18.91947766,
                42.38956909
              ],
              [
                18.91944061,
                42.38963502
              ],
              [
                18.91937691,
                42.38974735
              ],
              [
                18.91938422,
                42.38978231
              ],
              [
                18.9194104,
                42.389895
              ],
              [
                18.91937859,
                42.38995396
              ],
              [
                18.91935544,
                42.38999862
              ],
              [
                18.91934668,
                42.39009755
              ],
              [
                18.91933074,
                42.39026135
              ],
              [
                18.91931461,
                42.39042903
              ],
              [
                18.91929946,
                42.39058113
              ],
              [
                18.91928266,
                42.39075232
              ],
              [
                18.91927751,
                42.39079927
              ],
              [
                18.91930655,
                42.39065904
              ],
              [
                18.91932435,
                42.39056346
              ],
              [
                18.91934542,
                42.39053457
              ],
              [
                18.91937499,
                42.3904967
              ],
              [
                18.91940946,
                42.39033707
              ],
              [
                18.91944321,
                42.39024478
              ],
              [
                18.91949554,
                42.39010301
              ],
              [
                18.91963962,
                42.38996366
              ],
              [
                18.91983288,
                42.38990763
              ]
            ]
          ]
        ]
      },
      "properties": {
        "parcelId": "me-water:1445182",
        "id": "me-water:1445182",
        "sourceId": "me-water-cadastral-parcels",
        "sourceParcelId": "1445182",
        "parcelNumber": "3392",
        "cadMunicipalityName": null,
        "ownershipType": "unknown",
        "sourceProperties": {
          "id": 1445182,
          "ko": 6,
          "br_parcele": "3392",
          "naziv_ko": "CETINJE I",
          "naziv_po": "Cetinje"
        }
      }
    },
    {
      "type": "Feature",
      "id": "me-water:1445377",
      "geometry": {
        "type": "MultiPolygon",
        "coordinates": [
          [
            [
              [
                18.92101259,
                42.38964489
              ],
              [
                18.92105767,
                42.38967964
              ],
              [
                18.9210624,
                42.38967096
              ],
              [
                18.92109163,
                42.38961832
              ],
              [
                18.92111853,
                42.38957237
              ],
              [
                18.92106529,
                42.38960278
              ],
              [
                18.92102983,
                42.38960288
              ],
              [
                18.92101483,
                42.38959868
              ],
              [
                18.92101255,
                42.38959204
              ],
              [
                18.9210122,
                42.38957701
              ],
              [
                18.92106973,
                42.38949966
              ],
              [
                18.92104587,
                42.38952074
              ],
              [
                18.92095214,
                42.38956407
              ],
              [
                18.92095775,
                42.38956547
              ],
              [
                18.92096312,
                42.38956732
              ],
              [
                18.9209679,
                42.38957079
              ],
              [
                18.92096919,
                42.38957573
              ],
              [
                18.92097435,
                42.38958829
              ],
              [
                18.92098091,
                42.38962155
              ],
              [
                18.92099712,
                42.38963367
              ],
              [
                18.92101259,
                42.38964489
              ]
            ]
          ]
        ]
      },
      "properties": {
        "parcelId": "me-water:1445377",
        "id": "me-water:1445377",
        "sourceId": "me-water-cadastral-parcels",
        "sourceParcelId": "1445377",
        "parcelNumber": "3403/2",
        "cadMunicipalityName": null,
        "ownershipType": "unknown",
        "sourceProperties": {
          "id": 1445377,
          "ko": 6,
          "br_parcele": "3403/2",
          "naziv_ko": "CETINJE I",
          "naziv_po": "Cetinje"
        }
      }
    }
  ]
}
