{
  "type": "FeatureCollection",
  "features": [
    {
      "type": "Feature",
      "id": "md-geodata:01002050023",
      "geometry": {
        "type": "Polygon",
        "coordinates": [
          [
            [
              28.831568516247057,
              47.02105127752302
            ],
            [
              28.831290865857355,
              47.02123689259084
            ],
            [
              28.831233836311547,
              47.02119852901597
            ],
            [
              28.831361309046986,
              47.021113031497634
            ],
            [
              28.831302392140767,
              47.021070601445444
            ],
            [
              28.831452542845557,
              47.02097048490783
            ],
            [
              28.83145971229984,
              47.02097548032821
            ],
            [
              28.831568516247057,
              47.02105127752302
            ]
          ]
        ]
      },
      "properties": {
        "parcelId": "md-geodata:01002050023",
        "id": "md-geodata:01002050023",
        "sourceId": "md-geodata-cadastral-parcels",
        "sourceParcelId": "01002050023",
        "parcelNumber": " 0023",
        "cadMunicipalityName": null,
        "ownershipType": "unknown",
        "sourceProperties": {
          "codcadastral": "01002050023",
          "cod_parcel": " 0023"
        }
      }
    },
    {
      "type": "Feature",
      "id": "md-geodata:01002050034",
      "geometry": {
        "type": "Polygon",
        "coordinates": [
          [
            [
              28.831174347178475,
              47.021157007843584
            ],
            [
              28.83118163521038,
              47.02115209572752
            ],
            [
              28.831302392140767,
              47.021070601445444
            ],
            [
              28.831361309046986,
              47.021113031497634
            ],
            [
              28.831233836311547,
              47.02119852901597
            ],
            [
              28.831174347178475,
              47.021157007843584
            ]
          ]
        ]
      },
      "properties": {
        "parcelId": "md-geodata:01002050034",
        "id": "md-geodata:01002050034",
        "sourceId": "md-geodata-cadastral-parcels",
        "sourceParcelId": "01002050034",
        "parcelNumber": " 0034",
        "cadMunicipalityName": null,
        "ownershipType": "unknown",
        "sourceProperties": {
          "codcadastral": "01002050034",
          "cod_parcel": " 0034"
        }
      }
    },
    {
      "type": "Feature",
      "id": "md-geodata:01002050178",
      "geometry": {
        "type": "Polygon",
        "coordinates": [
          [
            [
              28.832339254591158,
              47.02243568040048
            ],
            [
              28.831952148975663,
              47.022159128858675
            ],
            [
              28.83118141422482,
              47.02160834003039
            ],
            [
              28.831187764415567,
              47.02160460131768
            ],
            [
              28.83117749397692,
              47.02159688566714
            ],
            [
              28.831200118945667,
              47.02158045492257
            ],
            [
              28.831191903852392,
              47.02157465486241
            ],
            [
              28.83146210092018,
              47.021392727029905
            ],
            [
              28.831581760109287,
              47.02147534274308
            ],
            [
              28.83202482986867,
              47.021781081745075
            ],
            [
              28.831917560243962,
              47.021848529573965
            ],
            [
              28.832199133576502,
              47.02204290833022
            ],
            [
              28.832206646187228,
              47.02203829085853
            ],
            [
              28.83241779249981,
              47.02218701305185
            ],
            [
              28.83241299100462,
              47.02219030406298
            ],
            [
              28.832340960491877,
              47.022239638586065
            ],
            [
              28.83241669026696,
              47.02229160819454
            ],
            [
              28.832488044348292,
              47.02233942266373
            ],
            [
              28.832457552832604,
              47.02236069475481
            ],
            [
              28.832359053460017,
              47.02242598929235
            ],
            [
              28.832356025239193,
              47.02242402902439
            ],
            [
              28.832339254591158,
              47.02243568040048
            ]
          ]
        ]
      },
      "properties": {
        "parcelId": "md-geodata:01002050178",
        "id": "md-geodata:01002050178",
        "sourceId": "md-geodata-cadastral-parcels",
        "sourceParcelId": "01002050178",
        "parcelNumber": " 0178",
        "cadMunicipalityName": null,
        "ownershipType": "unknown",
        "sourceProperties": {
          "codcadastral": "01002050178",
          "cod_parcel": " 0178"
        }
      }
    }
  ]
}
