{
  "type": "FeatureCollection",
  "features": [
    {
      "type": "Feature",
      "id": "IL-EAST-JERUSALEM-ROW-786512",
      "geometry": {
        "type": "MultiPolygon",
        "coordinates": [
          [
            [
              [
                35.24193460047494,
                31.791637147854896
              ],
              [
                35.24186726443355,
                31.791678513411586
              ],
              [
                35.2418044378738,
                31.791724764673287
              ],
              [
                35.24174660318884,
                31.791775545278497
              ],
              [
                35.24171238818783,
                31.791812123987253
              ],
              [
                35.241682430494734,
                31.791851333005944
              ],
              [
                35.24165700555361,
                31.79189281061947
              ],
              [
                35.24162795444947,
                31.791949532172207
              ],
              [
                35.241604870922934,
                31.792008220688114
              ],
              [
                35.24158793324538,
                31.792068417984073
              ],
              [
                35.241577275339104,
                31.79212965687061
              ],
              [
                35.24157370647936,
                31.79219306441177
              ],
              [
                35.241577642882284,
                31.79225645533047
              ],
              [
                35.241588706536824,
                31.792325058599214
              ],
              [
                35.24160694560265,
                31.79239253427353
              ],
              [
                35.241623116596315,
                31.79243203009285
              ],
              [
                35.241659572376435,
                31.792500469004167
              ],
              [
                35.24169739540851,
                31.792555305066408
              ],
              [
                35.2417384910584,
                31.79260839600018
              ],
              [
                35.241849629929156,
                31.79275392015236
              ],
              [
                35.242021937895025,
                31.792978968328867
              ],
              [
                35.242246762845994,
                31.793296799877098
              ],
              [
                35.24245466038033,
                31.793569225784243
              ],
              [
                35.24256581741916,
                31.793714887264237
              ],
              [
                35.24251725714906,
                31.79374285882071
              ],
              [
                35.24244156558876,
                31.793784456237436
              ],
              [
                35.2423017949107,
                31.793861875709
              ],
              [
                35.242297227409836,
                31.793865351854112
              ],
              [
                35.24229337288484,
                31.793869409472688
              ],
              [
                35.24229033160413,
                31.793873943019964
              ],
              [
                35.24228818060094,
                31.793878834332034
              ],
              [
                35.24225070721411,
                31.793906802485136
              ],
              [
                35.24214630076572,
                31.793963468970006
              ],
              [
                35.241889032538516,
                31.794105043517792
              ],
              [
                35.241798560678305,
                31.794154220348773
              ],
              [
                35.24178114512388,
                31.794171617425736
              ],
              [
                35.241767164250014,
                31.79419114543855
              ],
              [
                35.24175696947979,
                31.794212313685
              ],
              [
                35.241750817188716,
                31.794234591809456
              ],
              [
                35.24174886131765,
                31.794257419725636
              ],
              [
                35.24175115126722,
                31.794280224751375
              ],
              [
                35.24175610941144,
                31.794305399927914
              ],
              [
                35.2417644662807,
                31.79432991125483
              ],
              [
                35.24187174525857,
                31.79444016466699
              ],
              [
                35.24192921610878,
                31.794488445703777
              ],
              [
                35.24199173446365,
                31.794531910306617
              ],
              [
                35.24220993576333,
                31.79465443259803
              ],
              [
                35.24323320347861,
                31.795205739481474
              ],
              [
                35.24328817036299,
                31.79522259699881
              ],
              [
                35.243345333974986,
                31.79523281809185
              ],
              [
                35.24339010337462,
                31.795236029358275
              ],
              [
                35.24343501994785,
                31.795235162449828
              ],
              [
                35.24347957473682,
                31.79523022654085
              ],
              [
                35.24352326302739,
                31.795221277700936
              ],
              [
                35.24356321943554,
                31.795209266448875
              ],
              [
                35.24360219396776,
                31.795195096485067
              ],
              [
                35.24430541025614,
                31.79465740555053
              ],
              [
                35.244302750322035,
                31.794686708926427
              ],
              [
                35.24430188462494,
                31.79469689907289
              ],
              [
                35.24430295336474,
                31.794707074183403
              ],
              [
                35.24430593003007,
                31.794716969125677
              ],
              [
                35.244310736372036,
                31.794726324194492
              ],
              [
                35.24431724663107,
                31.79473489412917
              ],
              [
                35.24432529070883,
                31.7947424562285
              ],
              [
                35.2443346573353,
                31.794748810350313
              ],
              [
                35.24434510146582,
                31.794753790633017
              ],
              [
                35.24435634850495,
                31.794757267297758
              ],
              [
                35.244368105923634,
                31.794759149350448
              ],
              [
                35.24438006431483,
                31.794759386385255
              ],
              [
                35.2443919111237,
                31.794757973089244
              ],
              [
                35.244403334869176,
                31.79475494653582
              ],
              [
                35.24476014464703,
                31.794480003956735
              ],
              [
                35.24499144439702,
                31.794275204892582
              ],
              [
                35.24533381966373,
                31.794012706155446
              ],
              [
                35.24538340884906,
                31.793980200553317
              ],
              [
                35.24542837108599,
                31.79394310967148
              ],
              [
                35.24546812688921,
                31.793901908970774
              ],
              [
                35.24550216437925,
                31.793857128902467
              ],
              [
                35.24554658274296,
                31.79375100780604
              ],
              [
                35.2455960394638,
                31.79364652460458
              ],
              [
                35.24565045435653,
                31.79354385427504
              ],
              [
                35.24570973456472,
                31.793443169092455
              ],
              [
                35.24574660464292,
                31.793398123797566
              ],
              [
                35.245788100897315,
                31.79335611618423
              ],
              [
                35.24583388347936,
                31.79331749266476
              ],
              [
                35.24588357451747,
                31.793282570805136
              ],
              [
                35.24590200696201,
                31.793274477104973
              ],
              [
                35.24592179539218,
                31.793269213831916
              ],
              [
                35.24594234857441,
                31.793266938098288
              ],
              [
                35.24596305306123,
                31.79326771684009
              ],
              [
                35.245983293253076,
                31.793271526810642
              ],
              [
                35.24600246195772,
                31.79327825638061
              ],
              [
                35.246019989953815,
                31.793287701920992
              ],
              [
                35.24604403195797,
                31.79332099806342
              ],
              [
                35.24606280397979,
                31.793356681290113
              ],
              [
                35.24607598580338,
                31.793394144770662
              ],
              [
                35.24623397233085,
                31.793776221882098
              ],
              [
                35.24633783459888,
                31.793801826074702
              ],
              [
                35.24643906128695,
                31.793834230917394
              ],
              [
                35.24653704095441,
                31.79387324091968
              ],
              [
                35.24663118431363,
                31.793918621806572
              ],
              [
                35.2467209252853,
                31.793970099615564
              ],
              [
                35.24685454622809,
                31.794064073605586
              ],
              [
                35.24722650858818,
                31.79434917531822
              ],
              [
                35.247443040961606,
                31.794513431708253
              ],
              [
                35.247502933316866,
                31.79456282137535
              ],
              [
                35.247566755183634,
                31.794608480578283
              ],
              [
                35.247634188621895,
                31.79465018035223
              ],
              [
                35.24770489774978,
                31.794687715186615
              ],
              [
                35.247778530852855,
                31.7947208967116
              ],
              [
                35.247854720386506,
                31.794749560011237
              ],
              [
                35.24792924357909,
                31.79477115432208
              ],
              [
                35.2480060095533,
                31.79478594705566
              ],
              [
                35.248084170312104,
                31.794793773462683
              ],
              [
                35.24817453550582,
                31.794797329025982
              ],
              [
                35.24826495921669,
                31.794795100112065
              ],
              [
                35.24835493353681,
                31.794787100423818
              ],
              [
                35.24844395585204,
                31.794773372522418
              ],
              [
                35.248519144789206,
                31.79475350603014
              ],
              [
                35.24859194884089,
                31.794727968658396
              ],
              [
                35.24866178205909,
                31.79469696623422
              ],
              [
                35.24872437909587,
                31.79466169698772
              ],
              [
                35.24878295077755,
                31.794621700774115
              ],
              [
                35.24883700836959,
                31.79457730964606
              ],
              [
                35.248909529673654,
                31.79449988039434
              ],
              [
                35.24896483430249,
                31.79444476410961
              ],
              [
                35.24901588740559,
                31.794386732744655
              ],
              [
                35.249062477917306,
                31.794326023562007
              ],
              [
                35.24910601225011,
                31.794255913766936
              ],
              [
                35.24914268278535,
                31.794182996239968
              ],
              [
                35.24917224268862,
                31.794107760772192
              ],
              [
                35.24919449476247,
                31.794030710663826
              ],
              [
                35.249209290390695,
                31.793952364528394
              ],
              [
                35.24921652847716,
                31.793873246372144
              ],
              [
                35.24920562599458,
                31.793737142901115
              ],
              [
                35.249187830032376,
                31.79366336522532
              ],
              [
                35.24916338573282,
                31.793590989538338
              ],
              [
                35.24911097118449,
                31.793504611805222
              ],
              [
                35.24905899141519,
                31.793443846119064
              ],
              [
                35.24899190774263,
                31.793373616396153
              ],
              [
                35.24896846378173,
                31.793367582287694
              ],
              [
                35.24882226506923,
                31.793238760629436
              ],
              [
                35.248792265333,
                31.793213429425034
              ],
              [
                35.248510231449934,
                31.792985993537705
              ],
              [
                35.24819714354743,
                31.79273304566536
              ],
              [
                35.24778802361565,
                31.7923666784439
              ],
              [
                35.247548024617096,
                31.792150949962853
              ],
              [
                35.24735144197416,
                31.791974706926954
              ],
              [
                35.24729229734393,
                31.79192186647945
              ],
              [
                35.247238124274446,
                31.791865269974796
              ],
              [
                35.24718924813307,
                31.79180525820508
              ],
              [
                35.24714596472882,
                31.79174219181255
              ],
              [
                35.24711553631502,
                31.7916918902304
              ],
              [
                35.24708866137085,
                31.791640132782373
              ],
              [
                35.247065435005084,
                31.791587102512075
              ],
              [
                35.24703962009182,
                31.791523557660494
              ],
              [
                35.24702123988216,
                31.791458154328613
              ],
              [
                35.24701795418845,
                31.79143101007178
              ],
              [
                35.247008564037166,
                31.791366160161246
              ],
              [
                35.24700522389495,
                31.79130087894885
              ],
              [
                35.24700655060333,
                31.79120077436079
              ],
              [
                35.247015925611535,
                31.790922102920945
              ],
              [
                35.24702717583816,
                31.79058832846361
              ],
              [
                35.24703317389426,
                31.7905438657805
              ],
              [
                35.24703852620504,
                31.790472799055436
              ],
              [
                35.247041644448906,
                31.79036529877178
              ],
              [
                35.24704504921008,
                31.790191964122787
              ],
              [
                35.24704366113348,
                31.79015832598246
              ],
              [
                35.2470400050837,
                31.79014084324895
              ],
              [
                35.24703292310808,
                31.7901241462631
              ],
              [
                35.2470226192133,
                31.790108720145493
              ],
              [
                35.24700939558517,
                31.790095015713902
              ],
              [
                35.246993635686636,
                31.790083431452107
              ],
              [
                35.24697579897389,
                31.790074304493235
              ],
              [
                35.246956405054235,
                31.790067900705356
              ],
              [
                35.2469179015478,
                31.790058047451428
              ],
              [
                35.24687846086344,
                31.7900514266906
              ],
              [
                35.24683845574594,
                31.79004809962292
              ],
              [
                35.24666886565919,
                31.790043337528743
              ],
              [
                35.24649920486263,
                31.790045596952883
              ],
              [
                35.24640998689344,
                31.790051578571223
              ],
              [
                35.246326892080184,
                31.790055664247518
              ],
              [
                35.24621145844571,
                31.790067349474977
              ],
              [
                35.246096408127485,
                31.79008153256711
              ],
              [
                35.245971825278865,
                31.790102495991487
              ],
              [
                35.245846189244595,
                31.7901295921441
              ],
              [
                35.24572629643692,
                31.79016004475766
              ],
              [
                35.245607609746514,
                31.790193766936927
              ],
              [
                35.24549025057152,
                31.790230723474465
              ],
              [
                35.24540050859185,
                31.790262879538
              ],
              [
                35.245313056518086,
                31.79029934829938
              ],
              [
                35.245228177261254,
                31.79034001062962
              ],
              [
                35.24512980278494,
                31.79039976194501
              ],
              [
                35.24503448012694,
                31.790463019462532
              ],
              [
                35.2449423802838,
                31.790529668600733
              ],
              [
                35.244853667916274,
                31.790599589369666
              ],
              [
                35.24472310216012,
                31.79070469507275
              ],
              [
                35.24455084513197,
                31.790846969574787
              ],
              [
                35.244425118651904,
                31.790961476919165
              ],
              [
                35.24428172212002,
                31.791074390714773
              ],
              [
                35.24421745028219,
                31.791117396100706
              ],
              [
                35.244149774633875,
                31.791156407369602
              ],
              [
                35.244079036145,
                31.791191229612433
              ],
              [
                35.24400558846678,
                31.791221687757456
              ],
              [
                35.24392585563673,
                31.791250953776977
              ],
              [
                35.24384433034538,
                31.791276363135992
              ],
              [
                35.24376126703505,
                31.791297836390537
              ],
              [
                35.24367692860057,
                31.791315305818568
              ],
              [
                35.24330474351093,
                31.791376000275733
              ],
              [
                35.24270891611542,
                31.79146809285357
              ],
              [
                35.242438734079585,
                31.791512544377984
              ],
              [
                35.24217699771156,
                31.791554197121016
              ],
              [
                35.242123775047254,
                31.79156503948642
              ],
              [
                35.24207169202514,
                31.791579362591264
              ],
              [
                35.24202106114676,
                31.79159708066973
              ],
              [
                35.24197629035977,
                31.79161468877735
              ],
              [
                35.24193460047494,
                31.791637147854896
              ]
            ]
          ]
        ]
      },
      "properties": {
        "parcelId": "IL-EAST-JERUSALEM-ROW-786512",
        "id": "IL-EAST-JERUSALEM-ROW-786512",
        "sourceId": "govmap-parcel-all-east-jerusalem-rowid",
        "sourceParcelId": "786512",
        "parcelNumber": "786512",
        "cadMunicipalityName": null,
        "ownershipType": "unknown",
        "sourceProperties": {
          "OBJECTID": 786512,
          "PARCEL_ID": 781036,
          "GUSH_NUM": 30529,
          "GUSH_SUFFI": 0,
          "PARCEL": 33
        }
      }
    },
    {
      "type": "Feature",
      "id": "IL-EAST-JERUSALEM-ROW-786513",
      "geometry": {
        "type": "MultiPolygon",
        "coordinates": [
          [
            [
              [
                35.24733830939584,
                31.7917818368453
              ],
              [
                35.24726320346435,
                31.79167950883822
              ],
              [
                35.24719999126602,
                31.791559066955333
              ],
              [
                35.247156700754935,
                31.79143676867579
              ],
              [
                35.24713884867292,
                31.791305391141652
              ],
              [
                35.247143202637226,
                31.79120570849829
              ],
              [
                35.2471529287384,
                31.790929103946308
              ],
              [
                35.24716779430712,
                31.790745477277575
              ],
              [
                35.247202827909966,
                31.79060053813512
              ],
              [
                35.24722961763222,
                31.79045432114232
              ],
              [
                35.24724810031774,
                31.790307169024597
              ],
              [
                35.247224732990766,
                31.789970870194967
              ],
              [
                35.24718414821502,
                31.789593997967692
              ],
              [
                35.24718456777515,
                31.78958795550285
              ],
              [
                35.24719314666204,
                31.789528426710888
              ],
              [
                35.247138111257215,
                31.78949225889735
              ],
              [
                35.24695967176519,
                31.789388026373725
              ],
              [
                35.246945482544426,
                31.789504254767255
              ],
              [
                35.2469606140195,
                31.78952717717104
              ],
              [
                35.24697134547652,
                31.789551845202027
              ],
              [
                35.246963228749124,
                31.789668603648522
              ],
              [
                35.24694921904329,
                31.789784954627475
              ],
              [
                35.246956405054235,
                31.790067900705356
              ],
              [
                35.24697579897389,
                31.790074304493235
              ],
              [
                35.246993635686636,
                31.790083431452107
              ],
              [
                35.24700939558517,
                31.790095015713902
              ],
              [
                35.2470226192133,
                31.790108720145493
              ],
              [
                35.24703292310808,
                31.7901241462631
              ],
              [
                35.2470400050837,
                31.79014084324895
              ],
              [
                35.24704366113348,
                31.79015832598246
              ],
              [
                35.24704504921008,
                31.790191964122787
              ],
              [
                35.247041644448906,
                31.79036529877178
              ],
              [
                35.24703852620504,
                31.790472799055436
              ],
              [
                35.24703317389426,
                31.7905438657805
              ],
              [
                35.24702717583816,
                31.79058832846361
              ],
              [
                35.247015925611535,
                31.790922102920945
              ],
              [
                35.24700655060333,
                31.79120077436079
              ],
              [
                35.24700522389495,
                31.79130087894885
              ],
              [
                35.247008564037166,
                31.791366160161246
              ],
              [
                35.24701795418845,
                31.79143101007178
              ],
              [
                35.24702123988216,
                31.791458154328613
              ],
              [
                35.24703962009182,
                31.791523557660494
              ],
              [
                35.247065435005084,
                31.791587102512075
              ],
              [
                35.24708866137085,
                31.791640132782373
              ],
              [
                35.24711553631502,
                31.7916918902304
              ],
              [
                35.24714596472882,
                31.79174219181255
              ],
              [
                35.24718924813307,
                31.79180525820508
              ],
              [
                35.247238124274446,
                31.791865269974796
              ],
              [
                35.24729229734393,
                31.79192186647945
              ],
              [
                35.24735144197416,
                31.791974706926954
              ],
              [
                35.247548024617096,
                31.792150949962853
              ],
              [
                35.24778802361565,
                31.7923666784439
              ],
              [
                35.24819714354743,
                31.79273304566536
              ],
              [
                35.248510231449934,
                31.792985993537705
              ],
              [
                35.248792265333,
                31.793213429425034
              ],
              [
                35.24882226506923,
                31.793238760629436
              ],
              [
                35.24896846378173,
                31.793367582287694
              ],
              [
                35.24899190774263,
                31.793373616396153
              ],
              [
                35.24905899141519,
                31.793443846119064
              ],
              [
                35.24911097118449,
                31.793504611805222
              ],
              [
                35.24916338573282,
                31.793590989538338
              ],
              [
                35.249187830032376,
                31.79366336522532
              ],
              [
                35.24920562599458,
                31.793737142901115
              ],
              [
                35.24921652847716,
                31.793873246372144
              ],
              [
                35.249209290390695,
                31.793952364528394
              ],
              [
                35.24919449476247,
                31.794030710663826
              ],
              [
                35.24917224268862,
                31.794107760772192
              ],
              [
                35.24914268278535,
                31.794182996239968
              ],
              [
                35.24910601225011,
                31.794255913766936
              ],
              [
                35.249062477917306,
                31.794326023562007
              ],
              [
                35.24901588740559,
                31.794386732744655
              ],
              [
                35.24896483430249,
                31.79444476410961
              ],
              [
                35.248909529673654,
                31.79449988039434
              ],
              [
                35.24883700836959,
                31.79457730964606
              ],
              [
                35.24878295077755,
                31.794621700774115
              ],
              [
                35.24872437909587,
                31.79466169698772
              ],
              [
                35.24866178205909,
                31.79469696623422
              ],
              [
                35.24859194884089,
                31.794727968658396
              ],
              [
                35.248519144789206,
                31.79475350603014
              ],
              [
                35.24844395585204,
                31.794773372522418
              ],
              [
                35.24835493353681,
                31.794787100423818
              ],
              [
                35.24826495921669,
                31.794795100112065
              ],
              [
                35.24817453550582,
                31.794797329025982
              ],
              [
                35.248084170312104,
                31.794793773462683
              ],
              [
                35.2480060095533,
                31.79478594705566
              ],
              [
                35.24792924357909,
                31.79477115432208
              ],
              [
                35.247854720386506,
                31.794749560011237
              ],
              [
                35.247778530852855,
                31.7947208967116
              ],
              [
                35.24770489774978,
                31.794687715186615
              ],
              [
                35.247634188621895,
                31.79465018035223
              ],
              [
                35.247566755183634,
                31.794608480578283
              ],
              [
                35.247502933316866,
                31.79456282137535
              ],
              [
                35.247443040961606,
                31.794513431708253
              ],
              [
                35.24722650858818,
                31.79434917531822
              ],
              [
                35.24685454622809,
                31.794064073605586
              ],
              [
                35.2467209252853,
                31.793970099615564
              ],
              [
                35.24663118431363,
                31.793918621806572
              ],
              [
                35.24653704095441,
                31.79387324091968
              ],
              [
                35.24643906128695,
                31.793834230917394
              ],
              [
                35.24633783459888,
                31.793801826074702
              ],
              [
                35.24623397233085,
                31.793776221882098
              ],
              [
                35.2463034488037,
                31.793944244956837
              ],
              [
                35.24638645270782,
                31.793971933811257
              ],
              [
                35.24646687831861,
                31.794004706226914
              ],
              [
                35.246544300034685,
                31.794042387392828
              ],
              [
                35.24661830808054,
                31.79408477814378
              ],
              [
                35.24674454063785,
                31.794173631352425
              ],
              [
                35.24711264025372,
                31.79445577574524
              ],
              [
                35.24733094618961,
                31.79462139170055
              ],
              [
                35.247396284874306,
                31.79467282675347
              ],
              [
                35.24746441633427,
                31.794721547194865
              ],
              [
                35.24753518635202,
                31.794767442146604
              ],
              [
                35.247617927067814,
                31.79481260881782
              ],
              [
                35.24770471771886,
                31.794851839958746
              ],
              [
                35.24779497635909,
                31.79488487422658
              ],
              [
                35.24786211600927,
                31.794905110219084
              ],
              [
                35.24793091450426,
                31.794920763366733
              ],
              [
                35.24800094308528,
                31.79493173731704
              ],
              [
                35.2480717666703,
                31.79493796367761
              ],
              [
                35.248174920483414,
                31.794941970280064
              ],
              [
                35.2482781355964,
                31.79493937531915
              ],
              [
                35.24838083334842,
                31.794930191620594
              ],
              [
                35.248482440376975,
                31.794914470788907
              ],
              [
                35.24856266503922,
                31.79489446003653
              ],
              [
                35.24864046977888,
                31.7948683951303
              ],
              [
                35.24871523063397,
                31.794836485518513
              ],
              [
                35.24878634689801,
                31.79479898843979
              ],
              [
                35.248850162195396,
                31.794760904068763
              ],
              [
                35.24890992793311,
                31.794718294753807
              ],
              [
                35.24896520394,
                31.79467147359261
              ],
              [
                35.24903642040699,
                31.7945946904431
              ],
              [
                35.249093731459475,
                31.794542183320637
              ],
              [
                35.2491546049855,
                31.7944828480006
              ],
              [
                35.249210149553356,
                31.794419813381392
              ],
              [
                35.24926005700892,
                31.794353428589925
              ],
              [
                35.249280886073656,
                31.79431647562119
              ],
              [
                35.24929921953625,
                31.794278570285645
              ],
              [
                35.24936867372351,
                31.79406789969024
              ],
              [
                35.249377104588255,
                31.794033987575027
              ],
              [
                35.249386873924976,
                31.793975244660174
              ],
              [
                35.249393730904245,
                31.793916201559455
              ],
              [
                35.24939184461588,
                31.793847761683562
              ],
              [
                35.249384689470595,
                31.79377957618416
              ],
              [
                35.24936626971287,
                31.793682635025274
              ],
              [
                35.24935949823796,
                31.79365440986363
              ],
              [
                35.24935000039968,
                31.793623969846546
              ],
              [
                35.24934416379618,
                31.793605265065736
              ],
              [
                35.24932462202587,
                31.793526479211316
              ],
              [
                35.24930755301553,
                31.793447275830893
              ],
              [
                35.24930859727291,
                31.793423196366117
              ],
              [
                35.249327009985684,
                31.79337270402898
              ],
              [
                35.24927548235274,
                31.793354018971982
              ],
              [
                35.24920286246846,
                31.793325332713295
              ],
              [
                35.24913241283503,
                31.793292939092723
              ],
              [
                35.249064391156566,
                31.7932569579679
              ],
              [
                35.248979804027634,
                31.79320451773796
              ],
              [
                35.24888706578686,
                31.793126365267533
              ],
              [
                35.248634532210396,
                31.79291788591142
              ],
              [
                35.248284810600886,
                31.79263291946357
              ],
              [
                35.247889540638845,
                31.792288558068478
              ],
              [
                35.2477465123698,
                31.792158832229067
              ],
              [
                35.2475496518307,
                31.791983009851347
              ],
              [
                35.24733830939584,
                31.7917818368453
              ]
            ]
          ]
        ]
      },
      "properties": {
        "parcelId": "IL-EAST-JERUSALEM-ROW-786513",
        "id": "IL-EAST-JERUSALEM-ROW-786513",
        "sourceId": "govmap-parcel-all-east-jerusalem-rowid",
        "sourceParcelId": "786513",
        "parcelNumber": "786513",
        "cadMunicipalityName": null,
        "ownershipType": "unknown",
        "sourceProperties": {
          "OBJECTID": 786513,
          "PARCEL_ID": 781037,
          "GUSH_NUM": 30529,
          "GUSH_SUFFI": 0,
          "PARCEL": 39
        }
      }
    },
    {
      "type": "Feature",
      "id": "IL-EAST-JERUSALEM-ROW-786514",
      "geometry": {
        "type": "MultiPolygon",
        "coordinates": [
          [
            [
              [
                35.250781168430045,
                31.794007790268196
              ],
              [
                35.25084606122275,
                31.794034571054247
              ],
              [
                35.25090726228792,
                31.794067080733768
              ],
              [
                35.25096407982566,
                31.79410495071305
              ],
              [
                35.25101587374341,
                31.794147754662696
              ],
              [
                35.25106205987976,
                31.794195009417297
              ],
              [
                35.25110211634335,
                31.79424618218771
              ],
              [
                35.251135660650846,
                31.79430080145851
              ],
              [
                35.2511622119967,
                31.794358159467947
              ],
              [
                35.251181465937634,
                31.794417603401072
              ],
              [
                35.25119320671493,
                31.79447846056885
              ],
              [
                35.25119729986382,
                31.794540038410677
              ],
              [
                35.251193698557096,
                31.794601638921357
              ],
              [
                35.251181586653864,
                31.79466136402998
              ],
              [
                35.251162494431604,
                31.79471974255123
              ],
              [
                35.25113661481331,
                31.79477618280495
              ],
              [
                35.25110421253539,
                31.794830110218786
              ],
              [
                35.25106561570432,
                31.794880975447754
              ],
              [
                35.25102121685769,
                31.794928263392777
              ],
              [
                35.25097151800584,
                31.794970768105916
              ],
              [
                35.25091691624682,
                31.79500863102457
              ],
              [
                35.250858003750345,
                31.79504144249166
              ],
              [
                35.25079541600959,
                31.795068846945245
              ],
              [
                35.250729832898514,
                31.795090547427563
              ],
              [
                35.25066196494667,
                31.795106309197745
              ],
              [
                35.25059235036656,
                31.795115488144106
              ],
              [
                35.25052202544534,
                31.79511891357986
              ],
              [
                35.2504516406294,
                31.795116553703906
              ],
              [
                35.25038184744751,
                31.795108430826833
              ],
              [
                35.25031328900652,
                31.79509461866844
              ],
              [
                35.25024660210392,
                31.7950752468659
              ],
              [
                35.249290109962054,
                31.79448124370549
              ],
              [
                35.24927636677675,
                31.794471608798585
              ],
              [
                35.24926457620332,
                31.794460244377138
              ],
              [
                35.24925502981138,
                31.79444743351628
              ],
              [
                35.24924962274945,
                31.794423977696137
              ],
              [
                35.249248659827245,
                31.794400084721556
              ],
              [
                35.2492521687911,
                31.79437636693139
              ],
              [
                35.24926005700892,
                31.794353428589925
              ],
              [
                35.249210149553356,
                31.794419813381392
              ],
              [
                35.2491546049855,
                31.7944828480006
              ],
              [
                35.249093731459475,
                31.794542183320637
              ],
              [
                35.24910440810434,
                31.794536159797904
              ],
              [
                35.24911612878372,
                31.79453177635193
              ],
              [
                35.249128552498654,
                31.794529161163428
              ],
              [
                35.249141316050924,
                31.794528390114305
              ],
              [
                35.24915404671408,
                31.794529486783336
              ],
              [
                35.24916637384584,
                31.794532417932874
              ],
              [
                35.249211398648185,
                31.79455533584509
              ],
              [
                35.250178136899436,
                31.795156206110924
              ],
              [
                35.25025653202285,
                31.795182170680157
              ],
              [
                35.25033758051082,
                31.795201292896046
              ],
              [
                35.250420463910345,
                31.795213380957893
              ],
              [
                35.25050435007416,
                31.79521831341541
              ],
              [
                35.25058839105111,
                31.795216040973326
              ],
              [
                35.25067174314816,
                31.79520658468019
              ],
              [
                35.25074518224226,
                31.79519084973529
              ],
              [
                35.25081654242496,
                31.795169235518728
              ],
              [
                35.25088517966867,
                31.795141937968328
              ],
              [
                35.25095047637043,
                31.795109201712386
              ],
              [
                35.251011841354234,
                31.795071322775573
              ],
              [
                35.25106872359439,
                31.79502864226058
              ],
              [
                35.251120607992796,
                31.794981546349216
              ],
              [
                35.25116702699007,
                31.794930459083563
              ],
              [
                35.251207562676484,
                31.794875840560803
              ],
              [
                35.25124184890293,
                31.794818185128726
              ],
              [
                35.25126923919486,
                31.79476116080811
              ],
              [
                35.251290226432886,
                31.79470218816332
              ],
              [
                35.251304625050935,
                31.794641791234145
              ],
              [
                35.25131230756551,
                31.79458050486003
              ],
              [
                35.251313205630346,
                31.794518873777882
              ],
              [
                35.251307312142735,
                31.794457442700995
              ],
              [
                35.25129467807604,
                31.794396758123895
              ],
              [
                35.25127615460783,
                31.79433701272459
              ],
              [
                35.25125126169761,
                31.794278978651118
              ],
              [
                35.25122021184501,
                31.794223152734702
              ],
              [
                35.25118326927574,
                31.794170008339233
              ],
              [
                35.251140747830966,
                31.79411999896908
              ],
              [
                35.251093009907066,
                31.79407355015377
              ],
              [
                35.25104046223048,
                31.794031056743723
              ],
              [
                35.2509913536211,
                31.793996815680824
              ],
              [
                35.250939090733546,
                31.793966169579583
              ],
              [
                35.25088403267986,
                31.79393932933515
              ],
              [
                35.25082655862025,
                31.793916480584542
              ],
              [
                35.249327009985684,
                31.79337270402898
              ],
              [
                35.24930859727291,
                31.793423196366117
              ],
              [
                35.24930755301553,
                31.793447275830893
              ],
              [
                35.24932462202587,
                31.793526479211316
              ],
              [
                35.24934416379618,
                31.793605265065736
              ],
              [
                35.24935000039968,
                31.793623969846546
              ],
              [
                35.24935166465622,
                31.793609008655146
              ],
              [
                35.249356215974736,
                31.793594491050374
              ],
              [
                35.24936352678468,
                31.793580820199143
              ],
              [
                35.24937339347956,
                31.793568376748716
              ],
              [
                35.24938554274606,
                31.79355750529764
              ],
              [
                35.249399637896495,
                31.793548508080242
              ],
              [
                35.24941528625554,
                31.793541635044217
              ],
              [
                35.24943205393896,
                31.793537076630347
              ],
              [
                35.24944947429936,
                31.793534960162727
              ],
              [
                35.24946706587318,
                31.793535343529246
              ],
              [
                35.249484337661045,
                31.793538216983535
              ],
              [
                35.24950081024412,
                31.79354350043201
              ],
              [
                35.250781168430045,
                31.794007790268196
              ]
            ]
          ]
        ]
      },
      "properties": {
        "parcelId": "IL-EAST-JERUSALEM-ROW-786514",
        "id": "IL-EAST-JERUSALEM-ROW-786514",
        "sourceId": "govmap-parcel-all-east-jerusalem-rowid",
        "sourceParcelId": "786514",
        "parcelNumber": "786514",
        "cadMunicipalityName": null,
        "ownershipType": "unknown",
        "sourceProperties": {
          "OBJECTID": 786514,
          "PARCEL_ID": 781038,
          "GUSH_NUM": 30529,
          "GUSH_SUFFI": 0,
          "PARCEL": 38
        }
      }
    }
  ]
}
