{
  "type": "FeatureCollection",
  "features": [
    {
      "type": "Feature",
      "id": "IL-JERUSALEM-ROW-714145",
      "geometry": {
        "type": "MultiPolygon",
        "coordinates": [
          [
            [
              [
                35.213165365336984,
                31.78101800290723
              ],
              [
                35.21328389328151,
                31.780968566591866
              ],
              [
                35.21320642635637,
                31.780820693555945
              ],
              [
                35.21309327595513,
                31.780863145578095
              ],
              [
                35.212736757588424,
                31.781000790359105
              ],
              [
                35.21261984424919,
                31.781045927887877
              ],
              [
                35.212555082741225,
                31.78107108079019
              ],
              [
                35.21250570104525,
                31.78109018673944
              ],
              [
                35.212434124680115,
                31.781117246505886
              ],
              [
                35.21219682589621,
                31.781206958362972
              ],
              [
                35.212150637651696,
                31.781224934873567
              ],
              [
                35.21202132560681,
                31.781266734894906
              ],
              [
                35.21204525617333,
                31.781286407110798
              ],
              [
                35.2121450073127,
                31.7814025644563
              ],
              [
                35.212494883819794,
                31.78126102310648
              ],
              [
                35.21264002002042,
                31.781213633774357
              ],
              [
                35.21266449921387,
                31.78120413670417
              ],
              [
                35.21273623704157,
                31.78117630572423
              ],
              [
                35.21289917173047,
                31.78111309393638
              ],
              [
                35.21316153439411,
                31.781011306102407
              ],
              [
                35.213165365336984,
                31.78101800290723
              ]
            ]
          ]
        ]
      },
      "properties": {
        "parcelId": "IL-JERUSALEM-ROW-714145",
        "id": "IL-JERUSALEM-ROW-714145",
        "sourceId": "govmap-parcel-all-jerusalem-rowid",
        "sourceParcelId": "714145",
        "parcelNumber": "714145",
        "cadMunicipalityName": null,
        "ownershipType": "unknown",
        "sourceProperties": {
          "OBJECTID": 714145,
          "PARCEL_ID": 713579,
          "GUSH_NUM": 31756,
          "GUSH_SUFFI": 0,
          "PARCEL": 11
        }
      }
    },
    {
      "type": "Feature",
      "id": "IL-JERUSALEM-ROW-715071",
      "geometry": {
        "type": "MultiPolygon",
        "coordinates": [
          [
            [
              [
                35.21293155405143,
                31.78131864019141
              ],
              [
                35.21285179676457,
                31.78134866689454
              ],
              [
                35.21287777133846,
                31.78140127944879
              ],
              [
                35.21292906406303,
                31.781382176835358
              ],
              [
                35.21301401826739,
                31.781549939614465
              ],
              [
                35.21316056632294,
                31.78149249046525
              ],
              [
                35.213095542192676,
                31.781364607617128
              ],
              [
                35.213049563531044,
                31.781274180488026
              ],
              [
                35.21299576883187,
                31.781294447595858
              ],
              [
                35.21293155405143,
                31.78131864019141
              ]
            ]
          ]
        ]
      },
      "properties": {
        "parcelId": "IL-JERUSALEM-ROW-715071",
        "id": "IL-JERUSALEM-ROW-715071",
        "sourceId": "govmap-parcel-all-jerusalem-rowid",
        "sourceParcelId": "715071",
        "parcelNumber": "715071",
        "cadMunicipalityName": null,
        "ownershipType": "unknown",
        "sourceProperties": {
          "OBJECTID": 715071,
          "PARCEL_ID": 715611,
          "GUSH_NUM": 31421,
          "GUSH_SUFFI": 0,
          "PARCEL": 5
        }
      }
    },
    {
      "type": "Feature",
      "id": "IL-JERUSALEM-ROW-715315",
      "geometry": {
        "type": "MultiPolygon",
        "coordinates": [
          [
            [
              [
                35.21276163760656,
                31.78144452950044
              ],
              [
                35.21282796454704,
                31.781576744873394
              ],
              [
                35.21284903058177,
                31.781614341209274
              ],
              [
                35.2129276193137,
                31.78158380865498
              ],
              [
                35.21301401826739,
                31.781549939614465
              ],
              [
                35.21292906406303,
                31.781382176835358
              ],
              [
                35.21287777133846,
                31.78140127944879
              ],
              [
                35.21276163760656,
                31.78144452950044
              ]
            ]
          ]
        ]
      },
      "properties": {
        "parcelId": "IL-JERUSALEM-ROW-715315",
        "id": "IL-JERUSALEM-ROW-715315",
        "sourceId": "govmap-parcel-all-jerusalem-rowid",
        "sourceParcelId": "715315",
        "parcelNumber": "715315",
        "cadMunicipalityName": null,
        "ownershipType": "unknown",
        "sourceProperties": {
          "OBJECTID": 715315,
          "PARCEL_ID": 715619,
          "GUSH_NUM": 31421,
          "GUSH_SUFFI": 0,
          "PARCEL": 4
        }
      }
    }
  ]
}
