{
  "type": "FeatureCollection",
  "features": [
    {
      "type": "Feature",
      "id": "MV-HDC-PARCELVIEW-OID-14632",
      "geometry": {
        "type": "Polygon",
        "coordinates": [
          [
            [
              73.44837669655408,
              4.183356845188904
            ],
            [
              73.44831969806859,
              4.183498851115802
            ],
            [
              73.44827190107243,
              4.1836048820557235
            ],
            [
              73.4482752581446,
              4.183606229871717
            ],
            [
              73.44823166486815,
              4.183711332236249
            ],
            [
              73.4482068446964,
              4.183700623381585
            ],
            [
              73.44801034159076,
              4.183615833831397
            ],
            [
              73.44800968821488,
              4.183615552185486
            ],
            [
              73.44783267482376,
              4.183539172873451
            ],
            [
              73.44785268571036,
              4.1835134204590405
            ],
            [
              73.44790126629047,
              4.183450898609215
            ],
            [
              73.44778413515145,
              4.18340020870507
            ],
            [
              73.44789570526433,
              4.183140192775922
            ],
            [
              73.44807434897406,
              4.1832206593342915
            ],
            [
              73.44808272876782,
              4.183222336353256
            ],
            [
              73.44810341058192,
              4.1832085317542145
            ],
            [
              73.4481292653209,
              4.18318327022842
            ],
            [
              73.44815931549073,
              4.183137043281381
            ],
            [
              73.44818049382856,
              4.183091547533384
            ],
            [
              73.44843585423999,
              4.183202390597127
            ],
            [
              73.44837669655408,
              4.183356845188904
            ]
          ]
        ]
      },
      "properties": {
        "parcelId": "MV-HDC-PARCELVIEW-OID-14632",
        "id": "MV-HDC-PARCELVIEW-OID-14632",
        "sourceId": "mv-hdc-parcels-public-view",
        "sourceParcelId": "14632",
        "parcelNumber": "14632",
        "cadMunicipalityName": null,
        "ownershipType": "unknown",
        "sourceProperties": {
          "OBJECTID": 14632
        }
      }
    }
  ]
}
