{
  "type": "FeatureCollection",
  "features": [
    {
      "type": "Feature",
      "id": 4167,
      "properties": {
        "OBJECTID": 4167
      },
      "geometry": {
        "type": "Polygon",
        "coordinates": [
          [
            [
              73.44736328479583,
              4.184577979341452
            ],
            [
              73.44736064471917,
              4.184578453405361
            ],
            [
              73.44712631048591,
              4.184391004188713
            ],
            [
              73.44747335925487,
              4.184182127823848
            ],
            [
              73.44747417702331,
              4.184181718871622
            ],
            [
              73.4474750028591,
              4.184181329831144
            ],
            [
              73.44747583856903,
              4.184180957992983
            ],
            [
              73.44747668144738,
              4.184180605160435
            ],
            [
              73.44747753149414,
              4.184180271333517
            ],
            [
              73.44747838960828,
              4.1841799574183645
            ],
            [
              73.44747925399187,
              4.184179661602706
            ],
            [
              73.44748012464136,
              4.184179385695237
            ],
            [
              73.44748100155856,
              4.184179128791608
            ],
            [
              73.44748188384092,
              4.18417889179438
            ],
            [
              73.44748277058773,
              4.184178674701764
            ],
            [
              73.44748366269972,
              4.184178477515547
            ],
            [
              73.44748455927439,
              4.1841783011382905
            ],
            [
              73.44748545851203,
              4.184178144662068
            ],
            [
              73.44748636131519,
              4.184178007184322
            ],
            [
              73.44748726767851,
              4.184177891418095
            ],
            [
              73.44748817580587,
              4.184177794646766
            ],
            [
              73.44748908569373,
              4.184177718679032
            ],
            [
              73.44748999734207,
              4.184177663514891
            ],
            [
              73.44749090985374,
              4.18417762734388
            ],
            [
              73.44749182322337,
              4.184177612879003
            ],
            [
              73.4474927356531,
              4.184177618308008
            ],
            [
              73.4474936489408,
              4.184177645443183
            ],
            [
              73.44749456129038,
              4.184177691567877
            ],
            [
              73.44749547179754,
              4.184177758489025
            ],
            [
              73.44749638136301,
              4.184177846208405
            ],
            [
              73.44749728728637,
              4.1841779538162855
            ],
            [
              73.44749819226803,
              4.184178082222411
            ],
            [
              73.4474990936094,
              4.184178229612706
            ],
            [
              73.44749999040614,
              4.184178397794076
            ],
            [
              73.44750088446153,
              4.1841785858657365
            ],
            [
              73.4475017739741,
              4.184178793824141
            ],
            [
              73.44750265894204,
              4.1841790225736215
            ],
            [
              73.44750353847002,
              4.1841792693993485
            ],
            [
              73.44750441165014,
              4.184179537916922
            ],
            [
              73.44750527939028,
              4.184179824510724
            ],
            [
              73.44750613988543,
              4.184180130985907
            ],
            [
              73.44750699313735,
              4.184180456438106
            ],
            [
              73.44750783914782,
              4.1841807999629586
            ],
            [
              73.44750867791329,
              4.184181163369192
            ],
            [
              73.4475095085348,
              4.1841815457506355
            ],
            [
              73.44751033011343,
              4.184181946201173
            ],
            [
              73.44751114264915,
              4.1841823647208045
            ],
            [
              73.44751194524125,
              4.18418280130774
            ],
            [
              73.44784841955928,
              4.1843351472692945
            ],
            [
              73.44784886502593,
              4.18433534801546
            ],
            [
              73.44779387323132,
              4.184462220773012
            ],
            [
              73.44778153540686,
              4.1844565323208665
            ],
            [
              73.447755379119,
              4.184516878469389
            ],
            [
              73.44767021555137,
              4.184482280697907
            ],
            [
              73.44756291101147,
              4.184725313988271
            ],
            [
              73.44736328479583,
              4.184577979341452
            ]
          ]
        ]
      }
    },
    {
      "type": "Feature",
      "id": 14446,
      "properties": {
        "OBJECTID": 14446
      },
      "geometry": {
        "type": "Polygon",
        "coordinates": [
          [
            [
              73.44699244676119,
              4.184336496189039
            ],
            [
              73.44677304917363,
              4.184404281989957
            ],
            [
              73.44650010924747,
              4.184488609547119
            ],
            [
              73.44644792414654,
              4.184421158782313
            ],
            [
              73.44644253910766,
              4.184249112338817
            ],
            [
              73.44653449113254,
              4.184126148535815
            ],
            [
              73.44665359422946,
              4.183966877369991
            ],
            [
              73.44699244676119,
              4.184336496189039
            ]
          ]
        ]
      }
    }
  ]
}
