{"type":"FeatureCollection","features":[{"type":"Feature","properties":{},"geometry":{"type":"Polygon","coordinates":[[[33.32523540687185,35.3410641384249,0],[33.32519685683236,35.341069235737564,0],[33.3251713623046,35.34105921886261,0],[33.32516928857478,35.34104546318894,0],[33.32518731790633,35.34102661296493,0],[33.32512410014492,35.34099740908324,0],[33.325124514603985,35.34099239994368,0],[33.32508699661772,35.3409618352533,0],[33.325066672485626,35.34085570012844,0],[33.32509941872757,35.340848735498696,0],[33.32509588379237,35.340750581044404,0],[33.32509961461005,35.34074658964932,0],[33.32514354447192,35.3406900365748,0],[33.32513508462725,35.34059492668087,0],[33.32514020950191,35.340525653242246,0],[33.32512528458416,35.340507144040316,0],[33.32506164967644,35.34045195828211,0],[33.325064134022554,35.34042020165856,0],[33.325038845805196,35.34040780728005,0],[33.32501273115159,35.340402205156856,0],[33.325020605129055,35.340385393220785,0],[33.32501355647498,35.34037095866437,0],[33.32499635577648,35.340376394214324,0],[33.32497355400965,35.34035720670406,0],[33.3249269219162,35.34035619181694,0],[33.324920910126586,35.340346851729365,0],[33.32491158161772,35.340338871713264,0],[33.32490743471085,35.34031119179524,0],[33.32488732661756,35.34028860696673,0],[33.32487592834225,35.34028707912627,0],[33.324829706290146,35.340260421756604,0],[33.32477498788024,35.340239368494,0],[33.32475902445533,35.34020761456413,0],[33.324749070881744,35.340164651243676,0],[33.32468482706785,35.340206260804564,0],[33.324651664697775,35.34019879186052,0],[33.32462576261347,35.340237512272154,0],[33.32461809320767,35.340237003761324,0],[33.32461000545993,35.34019268155767,0],[33.32457622090058,35.34017926790917,0],[33.3245401573752,35.340178592256066,0],[33.32452233489615,35.340183687787814,0],[33.3244875150091,35.34018233184969,0],[33.324487514134205,35.34017248255467,0],[33.32444606093428,35.340163145629965,0],[33.324438600966914,35.3401624670876,0],[33.3244382596597,35.340066350145264,0],[33.324539729854905,35.340066171519915,0],[33.32453909814335,35.33995935696566,0],[33.32457349777269,35.33993184305518,0],[33.32472438150034,35.339937861032126,0],[33.32558277031513,35.33996980977774,0],[33.32564669183848,35.33997223626033,0],[33.32569036636992,35.33997397002146,0],[33.3257606700362,35.339977130993766,0],[33.32616420008807,35.339988599934,0],[33.326196760488195,35.340064971901036,0],[33.32621992885671,35.34011647509868,0],[33.326247445086565,35.340180399187844,0],[33.32627395495068,35.34023997956817,0],[33.326206525181256,35.34032734138251,0],[33.326183523757265,35.34035434456876,0],[33.326153262424384,35.3403486150694,0],[33.326136683929704,35.340361863100284,0],[33.32610911771523,35.340355581889874,0],[33.326098961315616,35.340346921860146,0],[33.326050883700745,35.34039107907851,0],[33.32606104327462,35.340425721163754,0],[33.32607368861413,35.34044575881671,0],[33.32607845728177,35.34045696623777,0],[33.32605089354501,35.34047157251058,0],[33.325983120738535,35.34046733315201,0],[33.32595058209251,35.34047854472808,0],[33.325938775320616,35.34052898130775,0],[33.32596364699055,35.34053950807547,0],[33.32597255973925,35.340545280768474,0],[33.32598209607359,35.34056854561489,0],[33.32596717661006,35.34058349093963,0],[33.32594500241452,35.340597927619264,0],[33.3259365101871,35.34064564663676,0],[33.32591744271926,35.340646157745105,0],[33.325886354885675,35.34065159480619,0],[33.3258807621107,35.34067842571174,0],[33.32588387254315,35.34068623763358,0],[33.325882423710745,35.34069608722989,0],[33.32586252983615,35.340720373352696,0],[33.32584014707186,35.34074041440725,0],[33.32582605560179,35.3407478878096,0],[33.32581776680437,35.34075943599874,0],[33.32578004873586,35.34078813819738,0],[33.32575165970592,35.34082465087576,0],[33.32568762680398,35.34090922611321,0],[33.32565861223204,35.34092502150953,0],[33.32562338400704,35.34095796962615,0],[33.32558960019196,35.3409596704736,0],[33.32555022272662,35.34097512689575,0],[33.32549799845675,35.34100807657814,0],[33.325438720285284,35.34100145875702,0],[33.3254036935872,35.341001291649484,0],[33.32537509400863,35.34102540823158,0],[33.32536659679846,35.341026427118656,0],[33.32534027349633,35.34101658016516,0],[33.325286181186684,35.341033056795546,0],[33.32523540687185,35.3410641384249,0]]]}},{"type":"Feature","properties":{},"geometry":{"type":"Polygon","coordinates":[[[33.32249444796364,35.34028770586412,0],[33.3224562579034,35.34028949781221,0],[33.32245678535821,35.34027578652878,0],[33.32245544948621,35.34025408684375,0],[33.32244765323725,35.3401601765059,0],[33.3224476493462,35.34012735393546,0],[33.32245275918091,35.340035448976614,0],[33.322451642244104,35.33998329583365,0],[33.32245242575393,35.33996038265507,0],[33.32245363912593,35.33992494465886,0],[33.32244628765209,35.33983194531845,0],[33.322438052027294,35.33979328758322,0],[33.32243317088594,35.33973812397826,0],[33.3224327317838,35.339732262621816,0],[33.32243021739396,35.33967945159573,0],[33.32242717011781,35.339615446040746,0],[33.32242992490027,35.339578961043415,0],[33.32243777964677,35.33954860890327,0],[33.32245966624857,35.33948467835626,0],[33.32249255795164,35.339365453485215,0],[33.322531165105104,35.339276337230146,0],[33.322549286160246,35.33922459515743,0],[33.32256700873663,35.33912490562328,0],[33.322578038369414,35.339101818176964,0],[33.322612111645036,35.33899211852507,0],[33.32262235289166,35.33894643035531,0],[33.32263952544302,35.338878878015706,0],[33.32271016553581,35.33886150839913,0],[33.322705833074764,35.338887661576976,0],[33.32267890432632,35.33903019361735,0],[33.32267142116726,35.33907345965194,0],[33.322645026797,35.33914401023528,0],[33.322622776551626,35.33927082245029,0],[33.322592836144636,35.33933515850528,0],[33.32254625442804,35.33948202987747,0],[33.32250439955919,35.339610659258035,0],[33.32250692687568,35.339679447078595,0],[33.32250740920053,35.33969258600216,0],[33.32250902848465,35.33973356349038,0],[33.32251125682316,35.339771401675314,0],[33.32252071771985,35.33981443500484,0],[33.32252335283268,35.33983227785645,0],[33.322529866164835,35.339954345990336,0],[33.3230407982798,35.33990592197866,0],[33.323052441779424,35.34020787410946,0],[33.32305256194291,35.34021097901676,0],[33.32305340953146,35.34023295041152,0],[33.32296450802007,35.340242727180154,0],[33.32285881510501,35.340254951789234,0],[33.322653211683935,35.34027374631042,0],[33.3225478525528,35.34028195864905,0],[33.32249444796364,35.34028770586412,0]]]}}]}