{
  "type": "FeatureCollection",
  "features": [
    {
      "type": "Feature",
      "id": "me-water:507240",
      "geometry": {
        "type": "MultiPolygon",
        "coordinates": [
          [
            [
              [
                19.25863686,
                42.44744341
              ],
              [
                19.25867301,
                42.4475
              ],
              [
                19.25869578,
                42.44755674
              ],
              [
                19.25877141,
                42.44758193
              ],
              [
                19.2588872,
                42.44765745
              ],
              [
                19.25902564,
                42.44772948
              ],
              [
                19.25913407,
                42.44779563
              ],
              [
                19.25920163,
                42.44785476
              ],
              [
                19.25924886,
                42.44790646
              ],
              [
                19.25940419,
                42.44795994
              ],
              [
                19.25949428,
                42.44798452
              ],
              [
                19.25955922,
                42.44804016
              ],
              [
                19.25967655,
                42.44819291
              ],
              [
                19.25970523,
                42.44823464
              ],
              [
                19.25970176,
                42.4482679
              ],
              [
                19.25976471,
                42.44832744
              ],
              [
                19.25977091,
                42.44838175
              ],
              [
                19.25984874,
                42.44846228
              ],
              [
                19.25985281,
                42.44851337
              ],
              [
                19.25982052,
                42.44855226
              ],
              [
                19.25980343,
                42.44857279
              ],
              [
                19.2598514,
                42.448655
              ],
              [
                19.25987627,
                42.44871946
              ],
              [
                19.2599519,
                42.44879263
              ],
              [
                19.25997126,
                42.44883068
              ],
              [
                19.26004792,
                42.44890717
              ],
              [
                19.26006233,
                42.44896499
              ],
              [
                19.26003934,
                42.44900045
              ],
              [
                19.26006636,
                42.44901438
              ],
              [
                19.26010206,
                42.44904855
              ],
              [
                19.26012048,
                42.44909427
              ],
              [
                19.26014332,
                42.44910563
              ],
              [
                19.26016465,
                42.44914465
              ],
              [
                19.26019255,
                42.44920196
              ],
              [
                19.2602302,
                42.44928509
              ],
              [
                19.26028372,
                42.44933537
              ],
              [
                19.26034324,
                42.44943555
              ],
              [
                19.2605018,
                42.44958883
              ],
              [
                19.26054392,
                42.4496947
              ],
              [
                19.26052351,
                42.44976199
              ],
              [
                19.2605509,
                42.44979437
              ],
              [
                19.26054861,
                42.4498377
              ],
              [
                19.26052735,
                42.44991104
              ],
              [
                19.2605255,
                42.45003683
              ],
              [
                19.26052248,
                42.45009836
              ],
              [
                19.26053098,
                42.45017056
              ],
              [
                19.26054383,
                42.45019265
              ],
              [
                19.26054051,
                42.45023942
              ],
              [
                19.26056917,
                42.45028033
              ],
              [
                19.26061956,
                42.45033191
              ],
              [
                19.26063348,
                42.45048012
              ],
              [
                19.26061233,
                42.45055895
              ],
              [
                19.26059605,
                42.45062593
              ],
              [
                19.26060066,
                42.45071654
              ],
              [
                19.26063602,
                42.45081861
              ],
              [
                19.26068805,
                42.45090311
              ],
              [
                19.26069505,
                42.45094283
              ],
              [
                19.26073139,
                42.45109395
              ],
              [
                19.26071684,
                42.45113804
              ],
              [
                19.26070007,
                42.45118666
              ],
              [
                19.26074783,
                42.45125249
              ],
              [
                19.26082844,
                42.45130139
              ],
              [
                19.26085969,
                42.45139269
              ],
              [
                19.26089887,
                42.45149121
              ],
              [
                19.26091852,
                42.45157985
              ],
              [
                19.26096674,
                42.4516743
              ],
              [
                19.2610265,
                42.45175656
              ],
              [
                19.26107927,
                42.45195638
              ],
              [
                19.26107847,
                42.45196513
              ],
              [
                19.26109881,
                42.45205799
              ],
              [
                19.26121249,
                42.45204
              ],
              [
                19.26121487,
                42.45208012
              ],
              [
                19.26125898,
                42.45215742
              ],
              [
                19.26130623,
                42.4521858
              ],
              [
                19.26136614,
                42.45221467
              ],
              [
                19.26140575,
                42.45226222
              ],
              [
                19.26141246,
                42.45234821
              ],
              [
                19.26142686,
                42.45237498
              ],
              [
                19.26148019,
                42.45237898
              ],
              [
                19.26155686,
                42.45246132
              ],
              [
                19.26158032,
                42.4525158
              ],
              [
                19.26159801,
                42.45254919
              ],
              [
                19.26163691,
                42.45258513
              ],
              [
                19.26169843,
                42.45264612
              ],
              [
                19.26173654,
                42.45269711
              ],
              [
                19.26173743,
                42.45274131
              ],
              [
                19.26173985,
                42.45278341
              ],
              [
                19.26172903,
                42.45281963
              ],
              [
                19.26170744,
                42.45293115
              ],
              [
                19.26182333,
                42.45293248
              ],
              [
                19.26180222,
                42.45306785
              ],
              [
                19.26180491,
                42.45308664
              ],
              [
                19.26182542,
                42.45320552
              ],
              [
                19.26182771,
                42.4532957
              ],
              [
                19.26182862,
                42.45341949
              ],
              [
                19.26184429,
                42.45350349
              ],
              [
                19.26185015,
                42.45356528
              ],
              [
                19.26185133,
                42.45362369
              ],
              [
                19.26182872,
                42.45365437
              ],
              [
                19.26184408,
                42.45372299
              ],
              [
                19.26180591,
                42.45374718
              ],
              [
                19.26180546,
                42.45379751
              ],
              [
                19.26179106,
                42.45385492
              ],
              [
                19.26180604,
                42.45394101
              ],
              [
                19.2617671,
                42.45400608
              ],
              [
                19.26171251,
                42.45416918
              ],
              [
                19.26167829,
                42.45419648
              ],
              [
                19.261686,
                42.45425933
              ],
              [
                19.26166392,
                42.45434654
              ],
              [
                19.26165495,
                42.4544021
              ],
              [
                19.26162422,
                42.45440955
              ],
              [
                19.26162625,
                42.45449235
              ],
              [
                19.26169315,
                42.45451259
              ],
              [
                19.26168012,
                42.45459583
              ],
              [
                19.26165385,
                42.45467427
              ],
              [
                19.26155997,
                42.4548424
              ],
              [
                19.26152985,
                42.45492241
              ],
              [
                19.26145429,
                42.45500418
              ],
              [
                19.26143168,
                42.45503495
              ],
              [
                19.26142819,
                42.45509098
              ],
              [
                19.26145153,
                42.45513907
              ],
              [
                19.26143581,
                42.45518588
              ],
              [
                19.26138997,
                42.45521592
              ],
              [
                19.26133399,
                42.45527379
              ],
              [
                19.26123991,
                42.45547415
              ],
              [
                19.26121267,
                42.45551011
              ],
              [
                19.26119593,
                42.45556665
              ],
              [
                19.26117362,
                42.45564855
              ],
              [
                19.2612025,
                42.45570603
              ],
              [
                19.261206,
                42.45574687
              ],
              [
                19.26116147,
                42.45583622
              ],
              [
                19.26119555,
                42.45588644
              ],
              [
                19.26117643,
                42.4559332
              ],
              [
                19.26119534,
                42.45599133
              ],
              [
                19.26114577,
                42.4560774
              ],
              [
                19.26110132,
                42.45614019
              ],
              [
                19.26112595,
                42.45626479
              ],
              [
                19.26108065,
                42.45641285
              ],
              [
                19.26107234,
                42.45644679
              ],
              [
                19.26093739,
                42.45666516
              ],
              [
                19.26084622,
                42.45681102
              ],
              [
                19.26081836,
                42.45685256
              ],
              [
                19.26077995,
                42.45688927
              ],
              [
                19.26073375,
                42.4569194
              ],
              [
                19.26066525,
                42.45692898
              ],
              [
                19.26057905,
                42.45691111
              ],
              [
                19.26049134,
                42.45698122
              ],
              [
                19.26042391,
                42.45704417
              ],
              [
                19.26050867,
                42.45715983
              ],
              [
                19.26053839,
                42.457211
              ],
              [
                19.26056693,
                42.45727604
              ],
              [
                19.26056147,
                42.45737946
              ],
              [
                19.2606153,
                42.4574932
              ],
              [
                19.26065323,
                42.45751097
              ],
              [
                19.2607165,
                42.45753179
              ],
              [
                19.26068794,
                42.45756254
              ],
              [
                19.26059326,
                42.45761859
              ],
              [
                19.26057314,
                42.45773684
              ],
              [
                19.26049156,
                42.4578762
              ],
              [
                19.26047123,
                42.45793531
              ],
              [
                19.26050553,
                42.45810562
              ],
              [
                19.26048715,
                42.45812878
              ],
              [
                19.26048774,
                42.45815804
              ],
              [
                19.26051029,
                42.45819092
              ],
              [
                19.26053329,
                42.45819805
              ],
              [
                19.2605921,
                42.45826925
              ],
              [
                19.26059801,
                42.45831492
              ],
              [
                19.26062793,
                42.45836401
              ],
              [
                19.26062551,
                42.45839501
              ],
              [
                19.26050475,
                42.45842362
              ],
              [
                19.26049697,
                42.45846611
              ],
              [
                19.26057723,
                42.45854571
              ],
              [
                19.26057314,
                42.45859023
              ],
              [
                19.2605056,
                42.45861744
              ],
              [
                19.26050426,
                42.45863537
              ],
              [
                19.26065453,
                42.45879865
              ],
              [
                19.26059792,
                42.45885528
              ],
              [
                19.26059875,
                42.45887264
              ],
              [
                19.26066917,
                42.45892228
              ],
              [
                19.26067719,
                42.45895227
              ],
              [
                19.26062792,
                42.45895659
              ],
              [
                19.26060392,
                42.45900295
              ],
              [
                19.26059589,
                42.45911143
              ],
              [
                19.26057283,
                42.45913771
              ],
              [
                19.26049019,
                42.45917607
              ],
              [
                19.26054241,
                42.45931837
              ],
              [
                19.26051639,
                42.45932415
              ],
              [
                19.26050558,
                42.4593429
              ],
              [
                19.26043256,
                42.4593817
              ],
              [
                19.26046891,
                42.45946017
              ],
              [
                19.26049525,
                42.45951281
              ],
              [
                19.26053776,
                42.45955907
              ],
              [
                19.26055969,
                42.45961564
              ],
              [
                19.26053605,
                42.45970989
              ],
              [
                19.26049632,
                42.45984429
              ],
              [
                19.26049389,
                42.45992922
              ],
              [
                19.26048684,
                42.45996576
              ],
              [
                19.26048644,
                42.45998791
              ],
              [
                19.26044129,
                42.46003432
              ],
              [
                19.26043625,
                42.46006787
              ],
              [
                19.26043788,
                42.4601857
              ],
              [
                19.260426,
                42.46021743
              ],
              [
                19.26044366,
                42.46026774
              ],
              [
                19.26043262,
                42.46030523
              ],
              [
                19.2604328,
                42.46032602
              ],
              [
                19.26040213,
                42.46035481
              ],
              [
                19.26034691,
                42.46046912
              ],
              [
                19.26035194,
                42.46054388
              ],
              [
                19.26034904,
                42.46057507
              ],
              [
                19.26035681,
                42.46062306
              ],
              [
                19.26027959,
                42.46065866
              ],
              [
                19.26029786,
                42.46070878
              ],
              [
                19.26031656,
                42.4607255
              ],
              [
                19.26032403,
                42.46077665
              ],
              [
                19.26031427,
                42.46079323
              ],
              [
                19.26027653,
                42.46081489
              ],
              [
                19.26027197,
                42.46084258
              ],
              [
                19.26028982,
                42.4608712
              ],
              [
                19.26024267,
                42.46091511
              ],
              [
                19.26021371,
                42.46099871
              ],
              [
                19.26013666,
                42.46103115
              ],
              [
                19.26012547,
                42.46105487
              ],
              [
                19.26012534,
                42.46109718
              ],
              [
                19.26013821,
                42.4611868
              ],
              [
                19.26009539,
                42.46120411
              ],
              [
                19.26008438,
                42.46121863
              ],
              [
                19.26008434,
                42.46124132
              ],
              [
                19.26009678,
                42.46126702
              ],
              [
                19.26012573,
                42.46129821
              ],
              [
                19.26015756,
                42.46136944
              ],
              [
                19.26014979,
                42.46139428
              ],
              [
                19.2601211,
                42.46140675
              ],
              [
                19.2600835,
                42.46141095
              ],
              [
                19.2600435,
                42.46142966
              ],
              [
                19.26002971,
                42.46144539
              ],
              [
                19.26005484,
                42.46151002
              ],
              [
                19.26003342,
                42.46153898
              ],
              [
                19.26003569,
                42.46160396
              ],
              [
                19.26002977,
                42.46162401
              ],
              [
                19.26003725,
                42.46163896
              ],
              [
                19.26007946,
                42.46165785
              ],
              [
                19.26012962,
                42.46172176
              ],
              [
                19.26011217,
                42.46174896
              ],
              [
                19.26007404,
                42.46176973
              ],
              [
                19.26011392,
                42.46181818
              ],
              [
                19.26008109,
                42.46187237
              ],
              [
                19.26011745,
                42.46193941
              ],
              [
                19.26013759,
                42.46200374
              ],
              [
                19.26015285,
                42.46203103
              ],
              [
                19.26021946,
                42.46209647
              ],
              [
                19.26025747,
                42.4621669
              ],
              [
                19.26025998,
                42.46218866
              ],
              [
                19.26024474,
                42.46222322
              ],
              [
                19.2602464,
                42.46226344
              ],
              [
                19.26024875,
                42.46228359
              ],
              [
                19.26024269,
                42.46230868
              ],
              [
                19.26028267,
                42.46233804
              ],
              [
                19.26031811,
                42.46238294
              ],
              [
                19.26034326,
                42.46244235
              ],
              [
                19.26032813,
                42.46245809
              ],
              [
                19.26035299,
                42.46248519
              ],
              [
                19.26036472,
                42.46251801
              ],
              [
                19.26038894,
                42.46256158
              ],
              [
                19.26038238,
                42.46260451
              ],
              [
                19.26038128,
                42.46267088
              ],
              [
                19.26036948,
                42.46268847
              ],
              [
                19.26036505,
                42.46273425
              ],
              [
                19.2603747,
                42.46278493
              ],
              [
                19.26040654,
                42.46284489
              ],
              [
                19.26040056,
                42.46292239
              ],
              [
                19.26037831,
                42.46298313
              ],
              [
                19.26037829,
                42.46300627
              ],
              [
                19.2604144,
                42.46303621
              ],
              [
                19.26047083,
                42.46307934
              ],
              [
                19.26050534,
                42.46313244
              ],
              [
                19.26052083,
                42.46318323
              ],
              [
                19.26052025,
                42.46320907
              ],
              [
                19.26050266,
                42.46322331
              ],
              [
                19.26054648,
                42.46333456
              ],
              [
                19.26059137,
                42.46339618
              ],
              [
                19.26058475,
                42.46341759
              ],
              [
                19.26060627,
                42.46343581
              ],
              [
                19.26062051,
                42.46348481
              ],
              [
                19.26061314,
                42.46349912
              ],
              [
                19.26061848,
                42.46351094
              ],
              [
                19.26064105,
                42.46352663
              ],
              [
                19.26066242,
                42.46354944
              ],
              [
                19.26069158,
                42.46356614
              ],
              [
                19.26067684,
                42.46360753
              ],
              [
                19.26068375,
                42.46364275
              ],
              [
                19.2606735,
                42.46367716
              ],
              [
                19.26067478,
                42.46371649
              ],
              [
                19.26069173,
                42.46376132
              ],
              [
                19.26074235,
                42.46386592
              ],
              [
                19.26075111,
                42.46390282
              ],
              [
                19.26074901,
                42.46394336
              ],
              [
                19.26084402,
                42.4640544
              ],
              [
                19.26084483,
                42.46407086
              ],
              [
                19.26082439,
                42.46410656
              ],
              [
                19.26085904,
                42.46422727
              ],
              [
                19.2608797,
                42.46431743
              ],
              [
                19.26091884,
                42.46440136
              ],
              [
                19.26095912,
                42.46443918
              ],
              [
                19.26108436,
                42.46454187
              ],
              [
                19.26148119,
                42.46450878
              ],
              [
                19.26169826,
                42.46432822
              ],
              [
                19.26176846,
                42.46426983
              ],
              [
                19.26162258,
                42.46418104
              ],
              [
                19.26150766,
                42.46398659
              ],
              [
                19.26142658,
                42.46381876
              ],
              [
                19.26141633,
                42.46371399
              ],
              [
                19.2614165,
                42.46369824
              ],
              [
                19.26131499,
                42.46356026
              ],
              [
                19.26128613,
                42.4635215
              ],
              [
                19.26123733,
                42.46345308
              ],
              [
                19.26121013,
                42.46338829
              ],
              [
                19.26113924,
                42.46328562
              ],
              [
                19.26110257,
                42.4632032
              ],
              [
                19.26107551,
                42.46312139
              ],
              [
                19.26103498,
                42.46301038
              ],
              [
                19.26102095,
                42.46296597
              ],
              [
                19.26100239,
                42.46290135
              ],
              [
                19.26098023,
                42.46282111
              ],
              [
                19.26095432,
                42.4626633
              ],
              [
                19.26093689,
                42.46258256
              ],
              [
                19.26088778,
                42.46252269
              ],
              [
                19.26082023,
                42.46234995
              ],
              [
                19.2608159,
                42.46221306
              ],
              [
                19.26081639,
                42.46220144
              ],
              [
                19.2607566,
                42.46208776
              ],
              [
                19.26073888,
                42.46205302
              ],
              [
                19.26069763,
                42.46190034
              ],
              [
                19.2606844,
                42.4618109
              ],
              [
                19.26066584,
                42.46167957
              ],
              [
                19.26067698,
                42.46148976
              ],
              [
                19.26068295,
                42.46130909
              ],
              [
                19.26073014,
                42.46113995
              ],
              [
                19.26075667,
                42.4610688
              ],
              [
                19.260823,
                42.46092654
              ],
              [
                19.2608697,
                42.46076974
              ],
              [
                19.26089407,
                42.46060273
              ],
              [
                19.26096548,
                42.46044124
              ],
              [
                19.26100354,
                42.46035683
              ],
              [
                19.26108312,
                42.46027492
              ],
              [
                19.26110846,
                42.46024115
              ],
              [
                19.26129297,
                42.4602384
              ],
              [
                19.26133219,
                42.45981843
              ],
              [
                19.26132518,
                42.45960244
              ],
              [
                19.2614105,
                42.45944358
              ],
              [
                19.26142897,
                42.45917698
              ],
              [
                19.26151052,
                42.45891527
              ],
              [
                19.2614938,
                42.45881525
              ],
              [
                19.26151268,
                42.45868377
              ],
              [
                19.26143493,
                42.45870534
              ],
              [
                19.26136703,
                42.45859337
              ],
              [
                19.26133734,
                42.45853788
              ],
              [
                19.26137729,
                42.45848693
              ],
              [
                19.26136459,
                42.4583875
              ],
              [
                19.26133904,
                42.45821717
              ],
              [
                19.26133534,
                42.45814177
              ],
              [
                19.26133251,
                42.45811002
              ],
              [
                19.2613211,
                42.45798374
              ],
              [
                19.26129942,
                42.45780023
              ],
              [
                19.26124525,
                42.45760357
              ],
              [
                19.26127145,
                42.457558
              ],
              [
                19.26124312,
                42.45750384
              ],
              [
                19.26128569,
                42.45746187
              ],
              [
                19.26128065,
                42.45744122
              ],
              [
                19.26126144,
                42.45741721
              ],
              [
                19.26130045,
                42.45738572
              ],
              [
                19.26136327,
                42.45729905
              ],
              [
                19.26138448,
                42.45715657
              ],
              [
                19.26143978,
                42.45711959
              ],
              [
                19.26141381,
                42.45707333
              ],
              [
                19.26147682,
                42.45699035
              ],
              [
                19.26150015,
                42.45692329
              ],
              [
                19.26153262,
                42.45689934
              ],
              [
                19.26154768,
                42.45680798
              ],
              [
                19.26155948,
                42.45660834
              ],
              [
                19.26158978,
                42.45651897
              ],
              [
                19.26159914,
                42.45648294
              ],
              [
                19.26161521,
                42.45637491
              ],
              [
                19.26162417,
                42.45633682
              ],
              [
                19.26164781,
                42.45630946
              ],
              [
                19.26164273,
                42.45627404
              ],
              [
                19.26165454,
                42.45623871
              ],
              [
                19.2616759,
                42.45620669
              ],
              [
                19.26169608,
                42.45615218
              ],
              [
                19.26174494,
                42.45610276
              ],
              [
                19.26173235,
                42.45603916
              ],
              [
                19.26174924,
                42.45602664
              ],
              [
                19.26177263,
                42.45603511
              ],
              [
                19.26177344,
                42.45589979
              ],
              [
                19.26173915,
                42.45586352
              ],
              [
                19.26174031,
                42.45583011
              ],
              [
                19.26173188,
                42.45580418
              ],
              [
                19.2617557,
                42.45579141
              ],
              [
                19.26175879,
                42.45572169
              ],
              [
                19.2617697,
                42.45566557
              ],
              [
                19.26181317,
                42.45562044
              ],
              [
                19.26191176,
                42.45562007
              ],
              [
                19.26192651,
                42.45559155
              ],
              [
                19.26194003,
                42.45548994
              ],
              [
                19.26194894,
                42.45543105
              ],
              [
                19.26203044,
                42.45536659
              ],
              [
                19.26204655,
                42.45532149
              ],
              [
                19.26204864,
                42.45524404
              ],
              [
                19.26208537,
                42.4551482
              ],
              [
                19.26215534,
                42.45498772
              ],
              [
                19.26218391,
                42.45494536
              ],
              [
                19.26219994,
                42.45490809
              ],
              [
                19.26219304,
                42.4548735
              ],
              [
                19.26221028,
                42.45475132
              ],
              [
                19.26223465,
                42.45473575
              ],
              [
                19.26222655,
                42.45452643
              ],
              [
                19.26226885,
                42.45451993
              ],
              [
                19.26229304,
                42.4545139
              ],
              [
                19.26233952,
                42.45434629
              ],
              [
                19.26235398,
                42.45425538
              ],
              [
                19.26238152,
                42.45408915
              ],
              [
                19.26240655,
                42.45391962
              ],
              [
                19.26242574,
                42.4537976
              ],
              [
                19.26243188,
                42.4536434
              ],
              [
                19.26243924,
                42.45355014
              ],
              [
                19.26245369,
                42.45346427
              ],
              [
                19.26247538,
                42.4533885
              ],
              [
                19.26248512,
                42.45333464
              ],
              [
                19.26249321,
                42.45324731
              ],
              [
                19.26251958,
                42.45318022
              ],
              [
                19.26252852,
                42.45312925
              ],
              [
                19.26253231,
                42.45309401
              ],
              [
                19.26253326,
                42.4530624
              ],
              [
                19.26252798,
                42.45301771
              ],
              [
                19.26250918,
                42.45291682
              ],
              [
                19.26244715,
                42.45269819
              ],
              [
                19.26226905,
                42.4523051
              ],
              [
                19.26223961,
                42.45219559
              ],
              [
                19.26222364,
                42.45213265
              ],
              [
                19.26204224,
                42.45178723
              ],
              [
                19.26205631,
                42.45175529
              ],
              [
                19.2620577,
                42.45175222
              ],
              [
                19.2620548,
                42.45174712
              ],
              [
                19.26201309,
                42.45167366
              ],
              [
                19.26200439,
                42.45165836
              ],
              [
                19.2620019,
                42.45165542
              ],
              [
                19.26199804,
                42.45165078
              ],
              [
                19.26198525,
                42.45166776
              ],
              [
                19.26197003,
                42.45167864
              ],
              [
                19.26194646,
                42.45169168
              ],
              [
                19.26191604,
                42.45170237
              ],
              [
                19.2616943,
                42.45176901
              ],
              [
                19.26172801,
                42.45167987
              ],
              [
                19.26174721,
                42.45157081
              ],
              [
                19.26166045,
                42.45148218
              ],
              [
                19.26163642,
                42.45118769
              ],
              [
                19.26152811,
                42.4509585
              ],
              [
                19.26141089,
                42.45070879
              ],
              [
                19.26139514,
                42.45052395
              ],
              [
                19.26145932,
                42.45042664
              ],
              [
                19.26148407,
                42.45035785
              ],
              [
                19.26143493,
                42.45036848
              ],
              [
                19.26143061,
                42.45035907
              ],
              [
                19.26138657,
                42.45036955
              ],
              [
                19.26138979,
                42.45037294
              ],
              [
                19.26134667,
                42.4503807
              ],
              [
                19.261337,
                42.45034723
              ],
              [
                19.2613203,
                42.45033256
              ],
              [
                19.2613157,
                42.45030965
              ],
              [
                19.26134445,
                42.45030663
              ],
              [
                19.2613477,
                42.45031677
              ],
              [
                19.26142878,
                42.45031066
              ],
              [
                19.26140484,
                42.4502325
              ],
              [
                19.26138905,
                42.45016056
              ],
              [
                19.26137722,
                42.45007967
              ],
              [
                19.26145815,
                42.44999352
              ],
              [
                19.26150627,
                42.44980491
              ],
              [
                19.26153713,
                42.44965296
              ],
              [
                19.26152717,
                42.44950209
              ],
              [
                19.26157423,
                42.44937535
              ],
              [
                19.26156403,
                42.44928544
              ],
              [
                19.26154812,
                42.44926193
              ],
              [
                19.26155821,
                42.44924967
              ],
              [
                19.26156898,
                42.44921714
              ],
              [
                19.26153797,
                42.44921676
              ],
              [
                19.26146366,
                42.44914862
              ],
              [
                19.2613991,
                42.44911142
              ],
              [
                19.26136292,
                42.44904727
              ],
              [
                19.26136241,
                42.44902225
              ],
              [
                19.26124026,
                42.44887784
              ],
              [
                19.26112032,
                42.44868649
              ],
              [
                19.26097599,
                42.44846112
              ],
              [
                19.26077094,
                42.4481236
              ],
              [
                19.26072767,
                42.44806916
              ],
              [
                19.26068162,
                42.44802825
              ],
              [
                19.26057703,
                42.44794739
              ],
              [
                19.26051854,
                42.44790401
              ],
              [
                19.26050578,
                42.44788587
              ],
              [
                19.26048272,
                42.44781536
              ],
              [
                19.26048157,
                42.44775181
              ],
              [
                19.2604604,
                42.44761754
              ],
              [
                19.26042586,
                42.44753816
              ],
              [
                19.26037534,
                42.44748019
              ],
              [
                19.26028726,
                42.447386
              ],
              [
                19.26023015,
                42.44731434
              ],
              [
                19.26019058,
                42.44723879
              ],
              [
                19.26015121,
                42.44719087
              ],
              [
                19.26007795,
                42.44696309
              ],
              [
                19.26006182,
                42.44682562
              ],
              [
                19.25994733,
                42.44657803
              ],
              [
                19.25990328,
                42.44648525
              ],
              [
                19.25983322,
                42.44643443
              ],
              [
                19.2597964,
                42.44639279
              ],
              [
                19.25972484,
                42.44629779
              ],
              [
                19.25965494,
                42.44622482
              ],
              [
                19.25960669,
                42.44615882
              ],
              [
                19.2595472,
                42.44607782
              ],
              [
                19.25948364,
                42.44599956
              ],
              [
                19.25944113,
                42.44594079
              ],
              [
                19.25935548,
                42.44581623
              ],
              [
                19.25933816,
                42.44577708
              ],
              [
                19.25924764,
                42.4455909
              ],
              [
                19.25908455,
                42.44533845
              ],
              [
                19.25901383,
                42.44521282
              ],
              [
                19.25899559,
                42.44513353
              ],
              [
                19.25885747,
                42.44497434
              ],
              [
                19.25880554,
                42.44486391
              ],
              [
                19.25878306,
                42.44477935
              ],
              [
                19.25881014,
                42.44469928
              ],
              [
                19.25883367,
                42.44452698
              ],
              [
                19.25867699,
                42.44445442
              ],
              [
                19.25862794,
                42.4443968
              ],
              [
                19.25856556,
                42.44432277
              ],
              [
                19.25856136,
                42.44429544
              ],
              [
                19.25841677,
                42.4438982
              ],
              [
                19.25841522,
                42.44382691
              ],
              [
                19.25843077,
                42.44379001
              ],
              [
                19.25844783,
                42.44376803
              ],
              [
                19.25836583,
                42.44375813
              ],
              [
                19.25838136,
                42.44371448
              ],
              [
                19.25837198,
                42.44371323
              ],
              [
                19.25835552,
                42.44371071
              ],
              [
                19.25834101,
                42.4437088
              ],
              [
                19.25832461,
                42.44370898
              ],
              [
                19.25830904,
                42.44370852
              ],
              [
                19.2582835,
                42.4437142
              ],
              [
                19.25828891,
                42.44368083
              ],
              [
                19.25831042,
                42.44362559
              ],
              [
                19.25830943,
                42.44360651
              ],
              [
                19.25839874,
                42.44355052
              ],
              [
                19.25841578,
                42.44348506
              ],
              [
                19.2584229,
                42.4434036
              ],
              [
                19.25841367,
                42.4434037
              ],
              [
                19.25840765,
                42.44341259
              ],
              [
                19.25839159,
                42.44343041
              ],
              [
                19.25838353,
                42.44344067
              ],
              [
                19.25836556,
                42.44346599
              ],
              [
                19.25834272,
                42.44345408
              ],
              [
                19.25836172,
                42.44343209
              ],
              [
                19.25836979,
                42.44342183
              ],
              [
                19.25838879,
                42.44339983
              ],
              [
                19.25839768,
                42.44338209
              ],
              [
                19.25841539,
                42.44338666
              ],
              [
                19.25843173,
                42.44338306
              ],
              [
                19.25846623,
                42.44335756
              ],
              [
                19.25847795,
                42.4433298
              ],
              [
                19.25847677,
                42.44332567
              ],
              [
                19.25845458,
                42.44329809
              ],
              [
                19.25845214,
                42.44327912
              ],
              [
                19.25844547,
                42.44325606
              ],
              [
                19.25845043,
                42.44324853
              ],
              [
                19.25845278,
                42.44323257
              ],
              [
                19.2584235,
                42.44320912
              ],
              [
                19.25841383,
                42.44319357
              ],
              [
                19.25841508,
                42.44315286
              ],
              [
                19.25840394,
                42.44311832
              ],
              [
                19.25839009,
                42.4430947
              ],
              [
                19.25840986,
                42.44305577
              ],
              [
                19.25840003,
                42.44303274
              ],
              [
                19.25836603,
                42.44299188
              ],
              [
                19.2583253,
                42.44296109
              ],
              [
                19.2582996,
                42.4428979
              ],
              [
                19.25828578,
                42.44287555
              ],
              [
                19.25822405,
                42.442834
              ],
              [
                19.25820297,
                42.44280695
              ],
              [
                19.25819333,
                42.44274458
              ],
              [
                19.25820464,
                42.4426962
              ],
              [
                19.25820734,
                42.44263099
              ],
              [
                19.25822781,
                42.4425302
              ],
              [
                19.25820171,
                42.44247133
              ],
              [
                19.2582402,
                42.44229904
              ],
              [
                19.2582444,
                42.44225389
              ],
              [
                19.25824266,
                42.44222195
              ],
              [
                19.25826865,
                42.44218421
              ],
              [
                19.25825021,
                42.44214354
              ],
              [
                19.25824916,
                42.44209737
              ],
              [
                19.2582584,
                42.44204892
              ],
              [
                19.25824721,
                42.44200619
              ],
              [
                19.25824295,
                42.44196941
              ],
              [
                19.25822607,
                42.44195186
              ],
              [
                19.25821584,
                42.44192641
              ],
              [
                19.25823836,
                42.44187367
              ],
              [
                19.25821916,
                42.44179502
              ],
              [
                19.25821429,
                42.44176446
              ],
              [
                19.25828874,
                42.44171863
              ],
              [
                19.25832498,
                42.44168915
              ],
              [
                19.25837597,
                42.44151636
              ],
              [
                19.25846797,
                42.44144278
              ],
              [
                19.25844608,
                42.44143006
              ],
              [
                19.2584303,
                42.44141322
              ],
              [
                19.25845913,
                42.44141425
              ],
              [
                19.25842359,
                42.4413392
              ],
              [
                19.25842014,
                42.44126982
              ],
              [
                19.258408,
                42.44123466
              ],
              [
                19.25838506,
                42.44107214
              ],
              [
                19.25839194,
                42.44105172
              ],
              [
                19.25839331,
                42.44102316
              ],
              [
                19.25840013,
                42.44100535
              ],
              [
                19.25843335,
                42.44097105
              ],
              [
                19.25844277,
                42.44093151
              ],
              [
                19.25845107,
                42.44088451
              ],
              [
                19.25848184,
                42.4408794
              ],
              [
                19.2584427,
                42.44083104
              ],
              [
                19.25843135,
                42.44078003
              ],
              [
                19.25842555,
                42.4407032
              ],
              [
                19.25837708,
                42.44064369
              ],
              [
                19.25839319,
                42.4405804
              ],
              [
                19.25841001,
                42.44044922
              ],
              [
                19.25845124,
                42.44040798
              ],
              [
                19.25846295,
                42.44035555
              ],
              [
                19.25849425,
                42.44032801
              ],
              [
                19.25856209,
                42.4402258
              ],
              [
                19.25853014,
                42.44015998
              ],
              [
                19.25849665,
                42.44013244
              ],
              [
                19.25836799,
                42.44003248
              ],
              [
                19.25833037,
                42.44000508
              ],
              [
                19.25835365,
                42.43994162
              ],
              [
                19.25835839,
                42.43992329
              ],
              [
                19.25835547,
                42.4398323
              ],
              [
                19.25835093,
                42.43981201
              ],
              [
                19.25834738,
                42.43979242
              ],
              [
                19.25834592,
                42.43977407
              ],
              [
                19.25836387,
                42.43969915
              ],
              [
                19.25839008,
                42.43965483
              ],
              [
                19.25841633,
                42.43963006
              ],
              [
                19.25843879,
                42.43961684
              ],
              [
                19.25850318,
                42.43959705
              ],
              [
                19.25852931,
                42.43956678
              ],
              [
                19.2582897,
                42.43958904
              ],
              [
                19.25746492,
                42.43966392
              ],
              [
                19.25737072,
                42.43966981
              ],
              [
                19.25738675,
                42.43974797
              ],
              [
                19.25737156,
                42.43980269
              ],
              [
                19.25736766,
                42.43986296
              ],
              [
                19.25737322,
                42.43995248
              ],
              [
                19.25736508,
                42.44019574
              ],
              [
                19.25730868,
                42.44030494
              ],
              [
                19.25714963,
                42.44035044
              ],
              [
                19.25716573,
                42.44038312
              ],
              [
                19.25718073,
                42.44041015
              ],
              [
                19.25719367,
                42.44043711
              ],
              [
                19.25719694,
                42.44044859
              ],
              [
                19.25720989,
                42.44047627
              ],
              [
                19.25722404,
                42.44050321
              ],
              [
                19.25724232,
                42.44053569
              ],
              [
                19.25733124,
                42.44056326
              ],
              [
                19.25734899,
                42.44057594
              ],
              [
                19.25736198,
                42.44065997
              ],
              [
                19.25730765,
                42.44071504
              ],
              [
                19.25728915,
                42.44076215
              ],
              [
                19.25731501,
                42.44088799
              ],
              [
                19.25735208,
                42.44098536
              ],
              [
                19.25734091,
                42.44104058
              ],
              [
                19.25733481,
                42.44118497
              ],
              [
                19.25732426,
                42.44135029
              ],
              [
                19.25728909,
                42.44148185
              ],
              [
                19.25722824,
                42.44147171
              ],
              [
                19.25721951,
                42.44149729
              ],
              [
                19.25720138,
                42.44170284
              ],
              [
                19.25719441,
                42.44173686
              ],
              [
                19.25717199,
                42.44186189
              ],
              [
                19.25714684,
                42.44186847
              ],
              [
                19.25714539,
                42.44189306
              ],
              [
                19.2571899,
                42.44194911
              ],
              [
                19.2571571,
                42.44202861
              ],
              [
                19.25716975,
                42.44218116
              ],
              [
                19.25720732,
                42.44232723
              ],
              [
                19.25724362,
                42.44237986
              ],
              [
                19.25726417,
                42.44249532
              ],
              [
                19.25719875,
                42.44251864
              ],
              [
                19.25716836,
                42.44254274
              ],
              [
                19.25717622,
                42.44257128
              ],
              [
                19.2572747,
                42.4426451
              ],
              [
                19.25725438,
                42.44270448
              ],
              [
                19.25727424,
                42.44279798
              ],
              [
                19.25725688,
                42.44284787
              ],
              [
                19.25722042,
                42.44287213
              ],
              [
                19.25721193,
                42.44290967
              ],
              [
                19.25721413,
                42.44298338
              ],
              [
                19.25723708,
                42.44309108
              ],
              [
                19.25724523,
                42.44318282
              ],
              [
                19.25725774,
                42.44328523
              ],
              [
                19.25724929,
                42.44336707
              ],
              [
                19.25724623,
                42.44344525
              ],
              [
                19.25716592,
                42.44348961
              ],
              [
                19.25714144,
                42.44354156
              ],
              [
                19.25723255,
                42.44370873
              ],
              [
                19.2571985,
                42.4437507
              ],
              [
                19.25718361,
                42.44377814
              ],
              [
                19.25719888,
                42.44381813
              ],
              [
                19.25721397,
                42.4438492
              ],
              [
                19.25720946,
                42.44387914
              ],
              [
                19.25718331,
                42.44390248
              ],
              [
                19.2572346,
                42.44399348
              ],
              [
                19.25720946,
                42.44401896
              ],
              [
                19.25724324,
                42.44410304
              ],
              [
                19.25721604,
                42.44417122
              ],
              [
                19.25720725,
                42.44419382
              ],
              [
                19.2573378,
                42.44431492
              ],
              [
                19.25734732,
                42.44432904
              ],
              [
                19.25739116,
                42.44436979
              ],
              [
                19.25738469,
                42.44440462
              ],
              [
                19.25739814,
                42.44449981
              ],
              [
                19.25740224,
                42.44454658
              ],
              [
                19.25740289,
                42.44462166
              ],
              [
                19.25742801,
                42.44469197
              ],
              [
                19.25746846,
                42.4447513
              ],
              [
                19.25749264,
                42.44482387
              ],
              [
                19.25752991,
                42.44497309
              ],
              [
                19.25750839,
                42.44502735
              ],
              [
                19.25751719,
                42.44505435
              ],
              [
                19.25750107,
                42.44506884
              ],
              [
                19.25750392,
                42.4451502
              ],
              [
                19.25752235,
                42.44520239
              ],
              [
                19.25750689,
                42.44524406
              ],
              [
                19.2574345,
                42.44522856
              ],
              [
                19.25741133,
                42.44524917
              ],
              [
                19.25742885,
                42.44529867
              ],
              [
                19.25752629,
                42.44536908
              ],
              [
                19.25772295,
                42.44556814
              ],
              [
                19.2577468,
                42.44557535
              ],
              [
                19.25774851,
                42.44559424
              ],
              [
                19.25774014,
                42.4456434
              ],
              [
                19.25779077,
                42.44570118
              ],
              [
                19.25781921,
                42.44577964
              ],
              [
                19.25783421,
                42.44583052
              ],
              [
                19.257877,
                42.44590343
              ],
              [
                19.25793218,
                42.44597611
              ],
              [
                19.25796301,
                42.44607084
              ],
              [
                19.2579993,
                42.44612878
              ],
              [
                19.25806356,
                42.44619902
              ],
              [
                19.25807989,
                42.44624358
              ],
              [
                19.25808576,
                42.44631203
              ],
              [
                19.25812452,
                42.44639632
              ],
              [
                19.25814253,
                42.44645176
              ],
              [
                19.25818045,
                42.44654219
              ],
              [
                19.25823083,
                42.44663004
              ],
              [
                19.25829202,
                42.44675974
              ],
              [
                19.25836584,
                42.44684634
              ],
              [
                19.25835014,
                42.44688784
              ],
              [
                19.25835319,
                42.44699152
              ],
              [
                19.25834998,
                42.44704341
              ],
              [
                19.25841984,
                42.44716896
              ],
              [
                19.2584424,
                42.44722084
              ],
              [
                19.25859542,
                42.44737725
              ],
              [
                19.25863686,
                42.44744341
              ]
            ]
          ]
        ]
      },
      "properties": {
        "parcelId": "me-water:507240",
        "id": "me-water:507240",
        "sourceId": "me-water-cadastral-parcels",
        "sourceParcelId": "507240",
        "parcelNumber": "1671",
        "cadMunicipalityName": null,
        "ownershipType": "unknown",
        "sourceProperties": {
          "id": 507240,
          "ko": 110,
          "br_parcele": "1671",
          "naziv_ko": "PODGORICA I",
          "naziv_po": "Podgorica"
        }
      }
    },
    {
      "type": "Feature",
      "id": "me-water:510741",
      "geometry": {
        "type": "MultiPolygon",
        "coordinates": [
          [
            [
              [
                19.26249433,
                42.44133885
              ],
              [
                19.26251885,
                42.44133102
              ],
              [
                19.26266967,
                42.44128731
              ],
              [
                19.2626942,
                42.44128011
              ],
              [
                19.26272079,
                42.44127297
              ],
              [
                19.26277803,
                42.44125442
              ],
              [
                19.26279868,
                42.4412596
              ],
              [
                19.26279584,
                42.44125153
              ],
              [
                19.26265684,
                42.4409881
              ],
              [
                19.26263788,
                42.44099389
              ],
              [
                19.26258372,
                42.44100898
              ],
              [
                19.26255592,
                42.44101064
              ],
              [
                19.26252835,
                42.44101788
              ],
              [
                19.26251713,
                42.44102205
              ],
              [
                19.26212956,
                42.44113346
              ],
              [
                19.26211725,
                42.44113756
              ],
              [
                19.26219353,
                42.44128626
              ],
              [
                19.26216125,
                42.44131929
              ],
              [
                19.26218904,
                42.44136526
              ],
              [
                19.26223081,
                42.44138146
              ],
              [
                19.26224385,
                42.44141337
              ],
              [
                19.26227397,
                42.44140583
              ],
              [
                19.26249433,
                42.44133885
              ]
            ]
          ]
        ]
      },
      "properties": {
        "parcelId": "me-water:510741",
        "id": "me-water:510741",
        "sourceId": "me-water-cadastral-parcels",
        "sourceParcelId": "510741",
        "parcelNumber": "3935",
        "cadMunicipalityName": null,
        "ownershipType": "unknown",
        "sourceProperties": {
          "id": 510741,
          "ko": 111,
          "br_parcele": "3935",
          "naziv_ko": "PODGORICA II",
          "naziv_po": "Podgorica"
        }
      }
    },
    {
      "type": "Feature",
      "id": "me-water:511248",
      "geometry": {
        "type": "MultiPolygon",
        "coordinates": [
          [
            [
              [
                19.2628767,
                42.44136155
              ],
              [
                19.26300315,
                42.44160522
              ],
              [
                19.26299747,
                42.441625
              ],
              [
                19.26298646,
                42.44163952
              ],
              [
                19.26297556,
                42.44164757
              ],
              [
                19.26350325,
                42.44148608
              ],
              [
                19.26315381,
                42.44082236
              ],
              [
                19.26301883,
                42.44086158
              ],
              [
                19.26262882,
                42.44097274
              ],
              [
                19.26263491,
                42.44097331
              ],
              [
                19.26264626,
                42.44097588
              ],
              [
                19.26265257,
                42.44098131
              ],
              [
                19.26265684,
                42.4409881
              ],
              [
                19.26279584,
                42.44125153
              ],
              [
                19.26279868,
                42.4412596
              ],
              [
                19.26286417,
                42.44135494
              ],
              [
                19.2628767,
                42.44136155
              ]
            ]
          ]
        ]
      },
      "properties": {
        "parcelId": "me-water:511248",
        "id": "me-water:511248",
        "sourceId": "me-water-cadastral-parcels",
        "sourceParcelId": "511248",
        "parcelNumber": "3938",
        "cadMunicipalityName": null,
        "ownershipType": "unknown",
        "sourceProperties": {
          "id": 511248,
          "ko": 111,
          "br_parcele": "3938",
          "naziv_ko": "PODGORICA II",
          "naziv_po": "Podgorica"
        }
      }
    }
  ]
}
