{"type":"FeatureCollection","features":[{"type":"Feature","properties":{},"geometry":{"type":"Polygon","coordinates":[[[35.20119817601726,31.902567399158013],[35.20093585956233,31.902766838067617],[35.20079414976045,31.90262558168892],[35.200907712312436,31.902554566845875],[35.201044359780106,31.90245103204481],[35.201072805204674,31.90242912766245],[35.20119817601726,31.902567399158013]]]}},{"type":"Feature","properties":{},"geometry":{"type":"Polygon","coordinates":[[[35.20124122840381,31.90253497180786],[35.201223621134005,31.902548947727148],[35.20119817601726,31.902567399158013],[35.201072805204674,31.90242912766245],[35.20118529913101,31.902342502034436],[35.20130352524814,31.902240209142185],[35.201328543010334,31.902254695751203],[35.201486979943944,31.902343986399554],[35.20147524548191,31.902349215752487],[35.20124122840381,31.90253497180786]]]}}]}