{
  "type": "FeatureCollection",
  "features": [
    {
      "type": "Feature",
      "id": "NL-BRK-22240287570000",
      "geometry": {
        "type": "MultiPolygon",
        "coordinates": [
          [
            [
              [
                4.310561783925985,
                52.08002889479438
              ],
              [
                4.310631551179275,
                52.080055482715146
              ],
              [
                4.310640324166445,
                52.08005891566641
              ],
              [
                4.312061304520091,
                52.080611959658256
              ],
              [
                4.313606304175906,
                52.081211077869895
              ],
              [
                4.313432577539974,
                52.08141018604877
              ],
              [
                4.313431134434293,
                52.081409525710114
              ],
              [
                4.313214723291842,
                52.081348317728455
              ],
              [
                4.3129170745738135,
                52.0812915102661
              ],
              [
                4.31278595691614,
                52.081265451966374
              ],
              [
                4.312709247433641,
                52.08125017277525
              ],
              [
                4.31258546281743,
                52.08122313842814
              ],
              [
                4.312462258997312,
                52.081196226100786
              ],
              [
                4.312459827586826,
                52.081206945447676
              ],
              [
                4.312447742393493,
                52.08120412062305
              ],
              [
                4.312242802702474,
                52.081156192939964
              ],
              [
                4.312239801695621,
                52.08115540152057
              ],
              [
                4.312055144844233,
                52.08110674169531
              ],
              [
                4.312052610389294,
                52.0811059635169
              ],
              [
                4.311812422537014,
                52.08103197873385
              ],
              [
                4.311799570023181,
                52.081048328776106
              ],
              [
                4.311594960458079,
                52.0809855176414
              ],
              [
                4.311590842153985,
                52.08099054069952
              ],
              [
                4.3115890481547,
                52.08098991308977
              ],
              [
                4.31147987943966,
                52.08095152340116
              ],
              [
                4.311401771613175,
                52.080924059852364
              ],
              [
                4.3113960422450575,
                52.08090871772199
              ],
              [
                4.311385817016362,
                52.080903177196724
              ],
              [
                4.311333728884452,
                52.08088696235226
              ],
              [
                4.311320375466773,
                52.080887739298504
              ],
              [
                4.311308793650607,
                52.08089189420256
              ],
              [
                4.311230944694294,
                52.08086459469974
              ],
              [
                4.3112409578615125,
                52.08085347719485
              ],
              [
                4.311045759170431,
                52.08078160949471
              ],
              [
                4.311041793476937,
                52.08078028788777
              ],
              [
                4.310922950813242,
                52.08074077561803
              ],
              [
                4.3107356363491105,
                52.080668700761564
              ],
              [
                4.310692895209825,
                52.080656948531136
              ],
              [
                4.310690576526752,
                52.08066296777112
              ],
              [
                4.310501934813504,
                52.080561208626186
              ],
              [
                4.310482986917336,
                52.08057317925252
              ],
              [
                4.310025386717325,
                52.08032687649322
              ],
              [
                4.310302277854716,
                52.07993171021763
              ],
              [
                4.310309573430496,
                52.0799377274333
              ],
              [
                4.3103450698671155,
                52.079957071994464
              ],
              [
                4.310381457479725,
                52.079972730322076
              ],
              [
                4.310561783925985,
                52.08002889479438
              ]
            ]
          ]
        ]
      },
      "properties": {
        "parcelId": "NL-BRK-22240287570000",
        "id": "NL-BRK-22240287570000",
        "sourceId": "nl-pdok-brk-kadastrale-kaart",
        "sourceParcelId": "22240287570000",
        "parcelNumber": "2875",
        "cadMunicipalityName": null,
        "ownershipType": "unknown",
        "sourceProperties": {
          "identificatie_lokaal_id": "22240287570000",
          "identificatie_namespace": "NL.IMKAD.KadastraalObject",
          "perceelnummer": 2875,
          "sectie": "E",
          "kadastrale_gemeente_waarde": "'s-Gravenhage",
          "status_historie_code": "G",
          "status_historie_waarde": "Geldig"
        }
      }
    },
    {
      "type": "Feature",
      "id": "NL-BRK-22240301470000",
      "geometry": {
        "type": "MultiPolygon",
        "coordinates": [
          [
            [
              [
                4.310280004892966,
                52.07991334043232
              ],
              [
                4.310302277854716,
                52.07993171021763
              ],
              [
                4.310025386717325,
                52.08032687649322
              ],
              [
                4.309718106416959,
                52.080126485756864
              ],
              [
                4.309716424024312,
                52.08012486138992
              ],
              [
                4.309573535744176,
                52.080050458323925
              ],
              [
                4.309447849794873,
                52.079985084303225
              ],
              [
                4.309341746493842,
                52.07992984879486
              ],
              [
                4.309325008683957,
                52.0799421270929
              ],
              [
                4.30932426017905,
                52.079941706764174
              ],
              [
                4.309205984526371,
                52.0798764002682
              ],
              [
                4.3092071131955345,
                52.07987557464246
              ],
              [
                4.30910001074275,
                52.079820051120194
              ],
              [
                4.309101139412432,
                52.079819225495434
              ],
              [
                4.308941046704391,
                52.079735990104076
              ],
              [
                4.3088572465744885,
                52.079692445843406
              ],
              [
                4.308853371304063,
                52.07969040589069
              ],
              [
                4.308788805773748,
                52.07965750049291
              ],
              [
                4.308784756129834,
                52.07965543197577
              ],
              [
                4.308632439804714,
                52.079583116725665
              ],
              [
                4.3086319769603465,
                52.07958295069176
              ],
              [
                4.30862090550308,
                52.0795810695769
              ],
              [
                4.308609734296419,
                52.07958272011891
              ],
              [
                4.308601259623783,
                52.079587496455964
              ],
              [
                4.308615715248731,
                52.07956822211417
              ],
              [
                4.310280004892966,
                52.07991334043232
              ]
            ]
          ]
        ]
      },
      "properties": {
        "parcelId": "NL-BRK-22240301470000",
        "id": "NL-BRK-22240301470000",
        "sourceId": "nl-pdok-brk-kadastrale-kaart",
        "sourceParcelId": "22240301470000",
        "parcelNumber": "3014",
        "cadMunicipalityName": null,
        "ownershipType": "unknown",
        "sourceProperties": {
          "identificatie_lokaal_id": "22240301470000",
          "identificatie_namespace": "NL.IMKAD.KadastraalObject",
          "perceelnummer": 3014,
          "sectie": "E",
          "kadastrale_gemeente_waarde": "'s-Gravenhage",
          "status_historie_code": "G",
          "status_historie_waarde": "Geldig"
        }
      }
    },
    {
      "type": "Feature",
      "id": "NL-BRK-22250001770000",
      "geometry": {
        "type": "MultiPolygon",
        "coordinates": [
          [
            [
              [
                4.310085211058877,
                52.07906517225191
              ],
              [
                4.3100664055521145,
                52.07910093727794
              ],
              [
                4.3099771997351715,
                52.07916555071219
              ],
              [
                4.309922440604113,
                52.079205220698306
              ],
              [
                4.309872520067328,
                52.07918815309885
              ],
              [
                4.310020146910279,
                52.079069934731216
              ],
              [
                4.310034211537785,
                52.07904990159092
              ],
              [
                4.310085211058877,
                52.07906517225191
              ]
            ]
          ]
        ]
      },
      "properties": {
        "parcelId": "NL-BRK-22250001770000",
        "id": "NL-BRK-22250001770000",
        "sourceId": "nl-pdok-brk-kadastrale-kaart",
        "sourceParcelId": "22250001770000",
        "parcelNumber": "17",
        "cadMunicipalityName": null,
        "ownershipType": "unknown",
        "sourceProperties": {
          "identificatie_lokaal_id": "22250001770000",
          "identificatie_namespace": "NL.IMKAD.KadastraalObject",
          "perceelnummer": 17,
          "sectie": "F",
          "kadastrale_gemeente_waarde": "'s-Gravenhage",
          "status_historie_code": "G",
          "status_historie_waarde": "Geldig"
        }
      }
    }
  ]
}
