{
  "type": "FeatureCollection",
  "features": [
    {
      "type": "Feature",
      "properties": {},
      "geometry": {
        "geometryType": "Polygon",
        "geometrySha256": "61c685859d42a09abe319ad6b6fc6c71088fff3619e0dbd93495d38afb0696e8",
        "geometryRetention": "Historical surplus geometry omitted from repository; request metadata and audit metrics retained. Current three-feature sample remains in this research folder."
      }
    },
    {
      "type": "Feature",
      "properties": {},
      "geometry": {
        "geometryType": "Polygon",
        "geometrySha256": "6fea405605562a7270a43fbf5c62eb215a5d494274988639e16e825ba25a24b3",
        "geometryRetention": "Historical surplus geometry omitted from repository; request metadata and audit metrics retained. Current three-feature sample remains in this research folder."
      }
    }
  ],
  "retentionNote": "Surplus historical geometry replaced by type/hash summaries; this document is request/audit evidence, not a GeoJSON data feed."
}
