{
  "type": "FeatureCollection",
  "features": [
    {
      "type": "Feature",
      "id": "AT-BEV-01004:1129/2",
      "geometry": {
        "type": "Polygon",
        "coordinates": [
          [
            [
              16.369239566847682,
              48.208213715918205
            ],
            [
              16.36962890625,
              48.20856391128023
            ],
            [
              16.36962890625,
              48.20856391414477
            ],
            [
              16.369649693369865,
              48.20858260840337
            ],
            [
              16.36990500614047,
              48.20841681937779
            ],
            [
              16.36978045105934,
              48.20831856343177
            ],
            [
              16.36973292566836,
              48.20828085857015
            ],
            [
              16.3696875795722,
              48.208244829454216
            ],
            [
              16.369747510179877,
              48.208210308510054
            ],
            [
              16.36972278356552,
              48.20819092538072
            ],
            [
              16.369659081101418,
              48.20813875288665
            ],
            [
              16.36963192373514,
              48.20811752637492
            ],
            [
              16.36962890625,
              48.20811493234589
            ],
            [
              16.36958682909608,
              48.20807876003869
            ],
            [
              16.36957568116486,
              48.20806848192733
            ],
            [
              16.369551457464695,
              48.20804608234054
            ],
            [
              16.36952036060393,
              48.20806267255912
            ],
            [
              16.369490940123796,
              48.20807848074221
            ],
            [
              16.369504099711776,
              48.20809082564504
            ],
            [
              16.369239566847682,
              48.208213715918205
            ]
          ]
        ]
      },
      "properties": {
        "parcelId": "AT-BEV-01004:1129/2",
        "id": "AT-BEV-01004:1129/2",
        "sourceId": "at-bev-kataster-vector-tiles",
        "sourceParcelId": "01004:1129/2",
        "parcelNumber": "1129/2",
        "cadMunicipalityName": null,
        "ownershipType": "unknown",
        "sourceProperties": {
          "kg": "01004",
          "gnr": "1129/2",
          "ez": "392",
          "kgez": "01004",
          "rstatus": "E"
        }
      }
    },
    {
      "type": "Feature",
      "id": "AT-BEV-01004:1144",
      "geometry": {
        "type": "Polygon",
        "coordinates": [
          [
            [
              16.369031192734838,
              48.20848826289499
            ],
            [
              16.369096068665385,
              48.20854886970986
            ],
            [
              16.369114508852363,
              48.20856601835322
            ],
            [
              16.369168236851692,
              48.208616738085624
            ],
            [
              16.369241662323475,
              48.20868611455455
            ],
            [
              16.369262617081404,
              48.2087009170901
            ],
            [
              16.369358925148845,
              48.20876845011311
            ],
            [
              16.36958154849708,
              48.20863064690214
            ],
            [
              16.36928239837289,
              48.20834582263296
            ],
            [
              16.369280386716127,
              48.208346716377015
            ],
            [
              16.36914166621864,
              48.20840899912748
            ],
            [
              16.369137139990926,
              48.208411010049105
            ],
            [
              16.369090117514133,
              48.20843212472137
            ],
            [
              16.36908408254385,
              48.20843480594897
            ],
            [
              16.369042759761214,
              48.208453351102705
            ],
            [
              16.369062289595604,
              48.20847206382633
            ],
            [
              16.369031192734838,
              48.20848826289499
            ]
          ]
        ]
      },
      "properties": {
        "parcelId": "AT-BEV-01004:1144",
        "id": "AT-BEV-01004:1144",
        "sourceId": "at-bev-kataster-vector-tiles",
        "sourceParcelId": "01004:1144",
        "parcelNumber": "1144",
        "cadMunicipalityName": null,
        "ownershipType": "unknown",
        "sourceProperties": {
          "kg": "01004",
          "gnr": "1144",
          "ez": "417",
          "kgez": "01004",
          "rstatus": "E"
        }
      }
    },
    {
      "type": "Feature",
      "id": "AT-BEV-01004:1665",
      "geometry": {
        "type": "Polygon",
        "coordinates": [
          [
            [
              16.368266511708498,
              48.20934831436512
            ],
            [
              16.36843624524772,
              48.20947807212689
            ],
            [
              16.368442866951227,
              48.209482484890444
            ],
            [
              16.368443788960576,
              48.20948192631281
            ],
            [
              16.368567254394293,
              48.20957811329344
            ],
            [
              16.36856658384204,
              48.20957867187004
            ],
            [
              16.368573624640703,
              48.20958425763567
            ],
            [
              16.368618803098798,
              48.209635199790014
            ],
            [
              16.368707735091448,
              48.209581241322304
            ],
            [
              16.36873137205839,
              48.209566830044906
            ],
            [
              16.368809156119823,
              48.209512648074224
            ],
            [
              16.368807647377253,
              48.20951158677732
            ],
            [
              16.369040831923485,
              48.20935010181824
            ],
            [
              16.369042340666056,
              48.209351107260574
            ],
            [
              16.369120040908456,
              48.20929681334572
            ],
            [
              16.369258174672723,
              48.20919716263619
            ],
            [
              16.369256330654025,
              48.209196045474656
            ],
            [
              16.36932933703065,
              48.2091458848973
            ],
            [
              16.36933126486838,
              48.20914711377617
            ],
            [
              16.369338054209948,
              48.209142421693045
            ],
            [
              16.36951357126236,
              48.20902662764807
            ],
            [
              16.36962890625,
              48.208951864257116
            ],
            [
              16.36962890625,
              48.208951873966946
            ],
            [
              16.36971934698522,
              48.20889323794614
            ],
            [
              16.369909532368183,
              48.20877347738174
            ],
            [
              16.370135843753815,
              48.20862617820648
            ],
            [
              16.370330471545458,
              48.20851965555827
            ],
            [
              16.370436754077673,
              48.20846502560869
            ],
            [
              16.370444297790527,
              48.20846089205185
            ],
            [
              16.37048444710672,
              48.20843692858739
            ],
            [
              16.370580419898033,
              48.20838475634393
            ],
            [
              16.3706545997411,
              48.208353978046894
            ],
            [
              16.37069843709469,
              48.208340962899385
            ],
            [
              16.370696844533086,
              48.20833867267995
            ],
            [
              16.370764737948775,
              48.208326718850046
            ],
            [
              16.370762810111046,
              48.208324037616784
            ],
            [
              16.370886778458953,
              48.20830012994733
            ],
            [
              16.37088803574443,
              48.208303313913305
            ],
            [
              16.370947379618883,
              48.2082914159342
            ],
            [
              16.371239824220538,
              48.208237511909736
            ],
            [
              16.37127745896578,
              48.20823086467379
            ],
            [
              16.371305035427213,
              48.20822259752197
            ],
            [
              16.371306544169784,
              48.20822215064885
            ],
            [
              16.371307717636228,
              48.20822175963489
            ],
            [
              16.37131023220718,
              48.2082210893252
            ],
            [
              16.371311489492655,
              48.20822069831122
            ],
            [
              16.37131274677813,
              48.208220363156386
            ],
            [
              16.371313920244575,
              48.208220028001534
            ],
            [
              16.371318949386477,
              48.208218687382136
            ],
            [
              16.371320206671953,
              48.20821840808642
            ],
            [
              16.371322721242905,
              48.20821773777669
            ],
            [
              16.37132397852838,
              48.20821745848098
            ],
            [
              16.371325235813856,
              48.208217123326115
            ],
            [
              16.371326576918364,
              48.208216844030396
            ],
            [
              16.371329091489315,
              48.20821628543895
            ],
            [
              16.37133034877479,
              48.20821595028407
            ],
            [
              16.371331606060266,
              48.208215670988345
            ],
            [
              16.371332947164774,
              48.20821539169261
            ],
            [
              16.37133420445025,
              48.208215168256025
            ],
            [
              16.371335461735725,
              48.20821488896029
            ],
            [
              16.371336802840233,
              48.208214609664566
            ],
            [
              16.37133806012571,
              48.208214330368826
            ],
            [
              16.371339317411184,
              48.20821410693224
            ],
            [
              16.37134065851569,
              48.2082138276365
            ],
            [
              16.371341915801167,
              48.208213604199905
            ],
            [
              16.371343256905675,
              48.208213324904165
            ],
            [
              16.371345771476626,
              48.20821287803097
            ],
            [
              16.37134845368564,
              48.20821243115778
            ],
            [
              16.371349710971117,
              48.20821220772119
            ],
            [
              16.371351052075624,
              48.20821198428458
            ],
            [
              16.3713523093611,
              48.20821176084797
            ],
            [
              16.371353650465608,
              48.20821153741137
            ],
            [
              16.371354907751083,
              48.20821131397477
            ],
            [
              16.37135624885559,
              48.208211146397325
            ],
            [
              16.3713575899601,
              48.208210922960724
            ],
            [
              16.371358847245574,
              48.20821075538326
            ],
            [
              16.37136018835008,
              48.20821053194666
            ],
            [
              16.371362870559096,
              48.208210196791754
            ],
            [
              16.371364127844572,
              48.2082100292143
            ],
            [
              16.371368151158094,
              48.208209526481916
            ],
            [
              16.37136940844357,
              48.20820935890447
            ],
            [
              16.371370749548078,
              48.20820919132701
            ],
            [
              16.371372090652585,
              48.2082090796087
            ],
            [
              16.371373431757092,
              48.20820891203124
            ],
            [
              16.3713747728616,
              48.20820880031293
            ],
            [
              16.371376113966107,
              48.20820863273547
            ],
            [
              16.371377455070615,
              48.20820852101717
            ],
            [
              16.37137871235609,
              48.208208409298855
            ],
            [
              16.371380053460598,
              48.2082082417214
            ],
            [
              16.371385417878628,
              48.208207794848164
            ],
            [
              16.371386758983135,
              48.208207738989
            ],
            [
              16.37138944119215,
              48.20820751555239
            ],
            [
              16.371390782296658,
              48.208207459693234
            ],
            [
              16.371392123401165,
              48.20820734797493
            ],
            [
              16.37139480561018,
              48.20820723625661
            ],
            [
              16.371396146714687,
              48.20820712453831
            ],
            [
              16.371397487819195,
              48.20820706867916
            ],
            [
              16.371347112581134,
              48.207970225313005
            ],
            [
              16.37112314812839,
              48.20800670149712
            ],
            [
              16.37090723030269,
              48.20804490929458
            ],
            [
              16.370692402124405,
              48.20808596588726
            ],
            [
              16.370481681078672,
              48.20812713416553
            ],
            [
              16.370327034965158,
              48.20818120588371
            ],
            [
              16.37028068304062,
              48.20820276752401
            ],
            [
              16.37027674354613,
              48.20820516946784
            ],
            [
              16.370150595903397,
              48.208281473019966
            ],
            [
              16.37014481239021,
              48.208278065616334
            ],
            [
              16.36990500614047,
              48.20841681937779
            ],
            [
              16.369649693369865,
              48.20858260840337
            ],
            [
              16.36962890625,
              48.20859726221834
            ],
            [
              16.36958154849708,
              48.20863064690214
            ],
            [
              16.369358925148845,
              48.20876845011311
            ],
            [
              16.36931818909943,
              48.20879414503645
            ],
            [
              16.369215762242675,
              48.208863688840374
            ],
            [
              16.36914459988475,
              48.20890921344802
            ],
            [
              16.36913537979126,
              48.20891485514504
            ],
            [
              16.369001185521483,
              48.208996743469505
            ],
            [
              16.368837235495448,
              48.20910164523819
            ],
            [
              16.368606314063072,
              48.20924860789778
            ],
            [
              16.368512185290456,
              48.20930681192078
            ],
            [
              16.368451416492462,
              48.20935160998174
            ],
            [
              16.368266511708498,
              48.20934831436512
            ]
          ]
        ]
      },
      "properties": {
        "parcelId": "AT-BEV-01004:1665",
        "id": "AT-BEV-01004:1665",
        "sourceId": "at-bev-kataster-vector-tiles",
        "sourceParcelId": "01004:1665",
        "parcelNumber": "1665",
        "cadMunicipalityName": null,
        "ownershipType": "unknown",
        "sourceProperties": {
          "kg": "01004",
          "gnr": "1665",
          "ez": "1793",
          "kgez": "01004",
          "rstatus": "E"
        }
      }
    }
  ]
}
